<?xml version="1.0" encoding="UTF-8"?>
<gpx version="1.1" creator="hike-trip" xmlns="http://www.topografix.com/GPX/1/1">
  <metadata>
    <name>Adolf Munkel Trail (Via delle Odle)</name>
    <desc>Routed with BRouter (hiking-mountain) over OpenStreetMap data through hand-verified anchor points. Schematic in places — verify against signage on the ground.</desc>
    <copyright author="OpenStreetMap contributors"><license>https://www.openstreetmap.org/copyright</license></copyright>
    <bounds minlat="46.607085" minlon="11.668695" maxlat="46.635423" maxlon="11.704541"/>
  </metadata>
  <wpt lat="46.6353" lon="11.7045"><name>Trailhead — Adolf Munkel Trail (Via delle Odle)</name><sym>Trail Head</sym></wpt>
  <wpt lat="46.6125" lon="11.6822"><ele>2006</ele><name>Gschnagenhardt Alm</name><sym>Summit</sym></wpt>
  <trk>
    <name>Adolf Munkel Trail (Via delle Odle) (No. 35 / 36)</name>
    <type>hiking</type>
    <trkseg>
      <trkpt lat="46.635396" lon="11.704541"><ele>1381</ele></trkpt>
      <trkpt lat="46.635423" lon="11.704412"><ele>1382</ele></trkpt>
      <trkpt lat="46.635369" lon="11.704221"><ele>1383</ele></trkpt>
      <trkpt lat="46.635206" lon="11.704055"><ele>1386</ele></trkpt>
      <trkpt lat="46.635082" lon="11.703888"><ele>1389</ele></trkpt>
      <trkpt lat="46.634982" lon="11.703681"><ele>1391</ele></trkpt>
      <trkpt lat="46.634944" lon="11.703306"><ele>1392</ele></trkpt>
      <trkpt lat="46.634886" lon="11.70304"><ele>1393</ele></trkpt>
      <trkpt lat="46.634616" lon="11.70277"><ele>1396</ele></trkpt>
      <trkpt lat="46.634404" lon="11.702495"><ele>1401</ele></trkpt>
      <trkpt lat="46.634042" lon="11.701982"><ele>1408</ele></trkpt>
      <trkpt lat="46.633863" lon="11.701614"><ele>1412</ele></trkpt>
      <trkpt lat="46.633713" lon="11.701144"><ele>1416</ele></trkpt>
      <trkpt lat="46.633535" lon="11.700666"><ele>1421</ele></trkpt>
      <trkpt lat="46.633281" lon="11.699851"><ele>1429</ele></trkpt>
      <trkpt lat="46.63314" lon="11.699535"><ele>1433</ele></trkpt>
      <trkpt lat="46.633098" lon="11.699318"><ele>1434</ele></trkpt>
      <trkpt lat="46.633086" lon="11.698973"><ele>1436</ele></trkpt>
      <trkpt lat="46.633006" lon="11.698624"><ele>1439</ele></trkpt>
      <trkpt lat="46.63289" lon="11.698428"><ele>1442</ele></trkpt>
      <trkpt lat="46.632844" lon="11.698262"><ele>1444</ele></trkpt>
      <trkpt lat="46.632898" lon="11.698046"><ele>1443</ele></trkpt>
      <trkpt lat="46.632828" lon="11.697746"><ele>1446</ele></trkpt>
      <trkpt lat="46.632241" lon="11.696811"><ele>1458</ele></trkpt>
      <trkpt lat="46.632171" lon="11.696283"><ele>1463</ele></trkpt>
      <trkpt lat="46.632191" lon="11.695788"><ele>1467</ele></trkpt>
      <trkpt lat="46.632104" lon="11.695597"><ele>1470</ele></trkpt>
      <trkpt lat="46.632063" lon="11.69548"><ele>1471</ele></trkpt>
      <trkpt lat="46.632033" lon="11.695189"><ele>1474</ele></trkpt>
      <trkpt lat="46.632038" lon="11.694765"><ele>1476</ele></trkpt>
      <trkpt lat="46.632025" lon="11.694307"><ele>1478</ele></trkpt>
      <trkpt lat="46.631972" lon="11.693956"><ele>1479</ele></trkpt>
      <trkpt lat="46.631862" lon="11.693915"><ele>1483</ele></trkpt>
      <trkpt lat="46.631633" lon="11.693868"><ele>1490</ele></trkpt>
      <trkpt lat="46.631396" lon="11.693906"><ele>1501</ele></trkpt>
      <trkpt lat="46.631282" lon="11.694005"><ele>1505</ele></trkpt>
      <trkpt lat="46.6312" lon="11.694041"><ele>1507</ele></trkpt>
      <trkpt lat="46.631014" lon="11.694201"><ele>1516</ele></trkpt>
      <trkpt lat="46.630738" lon="11.694298"><ele>1524</ele></trkpt>
      <trkpt lat="46.630626" lon="11.694396"><ele>1531</ele></trkpt>
      <trkpt lat="46.63026" lon="11.694342"><ele>1543</ele></trkpt>
      <trkpt lat="46.629727" lon="11.694491"><ele>1564</ele></trkpt>
      <trkpt lat="46.629488" lon="11.694383"><ele>1567</ele></trkpt>
      <trkpt lat="46.629385" lon="11.694436"><ele>1570</ele></trkpt>
      <trkpt lat="46.629249" lon="11.694613"><ele>1573</ele></trkpt>
      <trkpt lat="46.62905" lon="11.694823"><ele>1578</ele></trkpt>
      <trkpt lat="46.628541" lon="11.694947"><ele>1581</ele></trkpt>
      <trkpt lat="46.628123" lon="11.695294"><ele>1591</ele></trkpt>
      <trkpt lat="46.627971" lon="11.695431"><ele>1597</ele></trkpt>
      <trkpt lat="46.627878" lon="11.695415"><ele>1597</ele></trkpt>
      <trkpt lat="46.627668" lon="11.695273"><ele>1596</ele></trkpt>
      <trkpt lat="46.627465" lon="11.695302"><ele>1601</ele></trkpt>
      <trkpt lat="46.62744" lon="11.695381"><ele>1605</ele></trkpt>
      <trkpt lat="46.627188" lon="11.695617"><ele>1614</ele></trkpt>
      <trkpt lat="46.627072" lon="11.695681"><ele>1617</ele></trkpt>
      <trkpt lat="46.626943" lon="11.695654"><ele>1615</ele></trkpt>
      <trkpt lat="46.626783" lon="11.695654"><ele>1621</ele></trkpt>
      <trkpt lat="46.626603" lon="11.695622"><ele>1626</ele></trkpt>
      <trkpt lat="46.626548" lon="11.695566"><ele>1625</ele></trkpt>
      <trkpt lat="46.62615" lon="11.69534"><ele>1637</ele></trkpt>
      <trkpt lat="46.625992" lon="11.69528"><ele>1639</ele></trkpt>
      <trkpt lat="46.625777" lon="11.69526"><ele>1643</ele></trkpt>
      <trkpt lat="46.62552" lon="11.695318"><ele>1653</ele></trkpt>
      <trkpt lat="46.625437" lon="11.695193"><ele>1655</ele></trkpt>
      <trkpt lat="46.625342" lon="11.695112"><ele>1659</ele></trkpt>
      <trkpt lat="46.625203" lon="11.695062"><ele>1664</ele></trkpt>
      <trkpt lat="46.624886" lon="11.694929"><ele>1670</ele></trkpt>
      <trkpt lat="46.624627" lon="11.694913"><ele>1682</ele></trkpt>
      <trkpt lat="46.624403" lon="11.694931"><ele>1691</ele></trkpt>
      <trkpt lat="46.624219" lon="11.694909"><ele>1697</ele></trkpt>
      <trkpt lat="46.623806" lon="11.69493"><ele>1706</ele></trkpt>
      <trkpt lat="46.623696" lon="11.694998"><ele>1711</ele></trkpt>
      <trkpt lat="46.623449" lon="11.69501"><ele>1720</ele></trkpt>
      <trkpt lat="46.623262" lon="11.694991"><ele>1726</ele></trkpt>
      <trkpt lat="46.623176" lon="11.695045"><ele>1732</ele></trkpt>
      <trkpt lat="46.622968" lon="11.695048"><ele>1741</ele></trkpt>
      <trkpt lat="46.62293" lon="11.695069"><ele>1744</ele></trkpt>
      <trkpt lat="46.62265" lon="11.694989"><ele>1756</ele></trkpt>
      <trkpt lat="46.622543" lon="11.694928"><ele>1758</ele></trkpt>
      <trkpt lat="46.622234" lon="11.694874"><ele>1765</ele></trkpt>
      <trkpt lat="46.622019" lon="11.694887"><ele>1773</ele></trkpt>
      <trkpt lat="46.621377" lon="11.695108"><ele>1807</ele></trkpt>
      <trkpt lat="46.621314" lon="11.695251"><ele>1814</ele></trkpt>
      <trkpt lat="46.621235" lon="11.695643"><ele>1829</ele></trkpt>
      <trkpt lat="46.621099" lon="11.696083"><ele>1847</ele></trkpt>
      <trkpt lat="46.620986" lon="11.696305"><ele>1860</ele></trkpt>
      <trkpt lat="46.62085" lon="11.69694"><ele>1888</ele></trkpt>
      <trkpt lat="46.620786" lon="11.69705"><ele>1896</ele></trkpt>
      <trkpt lat="46.620732" lon="11.697283"><ele>1908</ele></trkpt>
      <trkpt lat="46.620803" lon="11.697364"><ele>1911</ele></trkpt>
      <trkpt lat="46.620762" lon="11.697495"><ele>1918</ele></trkpt>
      <trkpt lat="46.620817" lon="11.697695"><ele>1924</ele></trkpt>
      <trkpt lat="46.620787" lon="11.697886"><ele>1931</ele></trkpt>
      <trkpt lat="46.620692" lon="11.697955"><ele>1936</ele></trkpt>
      <trkpt lat="46.62068" lon="11.698033"><ele>1939</ele></trkpt>
      <trkpt lat="46.620714" lon="11.698127"><ele>1942</ele></trkpt>
      <trkpt lat="46.620711" lon="11.698273"><ele>1947</ele></trkpt>
      <trkpt lat="46.620572" lon="11.698699"><ele>1955</ele></trkpt>
      <trkpt lat="46.620406" lon="11.698991"><ele>1963</ele></trkpt>
      <trkpt lat="46.620292" lon="11.699059"><ele>1969</ele></trkpt>
      <trkpt lat="46.620212" lon="11.699035"><ele>1973</ele></trkpt>
      <trkpt lat="46.620145" lon="11.699115"><ele>1978</ele></trkpt>
      <trkpt lat="46.620016" lon="11.699103"><ele>1986</ele></trkpt>
      <trkpt lat="46.619976" lon="11.698982"><ele>1988</ele></trkpt>
      <trkpt lat="46.619901" lon="11.698902"><ele>1992</ele></trkpt>
      <trkpt lat="46.619778" lon="11.698859"><ele>2000</ele></trkpt>
      <trkpt lat="46.619699" lon="11.698914"><ele>2007</ele></trkpt>
      <trkpt lat="46.619681" lon="11.698994"><ele>2009</ele></trkpt>
      <trkpt lat="46.619706" lon="11.699124"><ele>2011</ele></trkpt>
      <trkpt lat="46.61966" lon="11.699186"><ele>2013</ele></trkpt>
      <trkpt lat="46.619533" lon="11.699204"><ele>2019</ele></trkpt>
      <trkpt lat="46.619435" lon="11.699098"><ele>2024</ele></trkpt>
      <trkpt lat="46.619149" lon="11.69918"><ele>2037</ele></trkpt>
      <trkpt lat="46.619106" lon="11.699291"><ele>2037</ele></trkpt>
      <trkpt lat="46.618943" lon="11.699398"><ele>2041</ele></trkpt>
      <trkpt lat="46.618837" lon="11.699549"><ele>2044</ele></trkpt>
      <trkpt lat="46.618646" lon="11.699602"><ele>2047</ele></trkpt>
      <trkpt lat="46.618472" lon="11.699603"><ele>2055</ele></trkpt>
      <trkpt lat="46.61835" lon="11.699741"><ele>2061</ele></trkpt>
      <trkpt lat="46.618246" lon="11.699734"><ele>2066</ele></trkpt>
      <trkpt lat="46.618183" lon="11.699653"><ele>2069</ele></trkpt>
      <trkpt lat="46.617925" lon="11.699491"><ele>2082</ele></trkpt>
      <trkpt lat="46.617833" lon="11.699676"><ele>2088</ele></trkpt>
      <trkpt lat="46.617749" lon="11.699705"><ele>2093</ele></trkpt>
      <trkpt lat="46.617581" lon="11.699697"><ele>2100</ele></trkpt>
      <trkpt lat="46.617443" lon="11.699873"><ele>2107</ele></trkpt>
      <trkpt lat="46.617211" lon="11.699891"><ele>2116</ele></trkpt>
      <trkpt lat="46.617024" lon="11.699929"><ele>2122</ele></trkpt>
      <trkpt lat="46.616905" lon="11.700031"><ele>2127</ele></trkpt>
      <trkpt lat="46.616798" lon="11.700026"><ele>2130</ele></trkpt>
      <trkpt lat="46.616704" lon="11.699932"><ele>2133</ele></trkpt>
      <trkpt lat="46.616498" lon="11.699898"><ele>2141</ele></trkpt>
      <trkpt lat="46.616349" lon="11.699924"><ele>2146</ele></trkpt>
      <trkpt lat="46.616283" lon="11.699882"><ele>2149</ele></trkpt>
      <trkpt lat="46.616198" lon="11.699895"><ele>2153</ele></trkpt>
      <trkpt lat="46.616101" lon="11.69984"><ele>2158</ele></trkpt>
      <trkpt lat="46.616035" lon="11.699829"><ele>2161</ele></trkpt>
      <trkpt lat="46.615953" lon="11.69984"><ele>2165</ele></trkpt>
      <trkpt lat="46.615879" lon="11.699861"><ele>2169</ele></trkpt>
      <trkpt lat="46.615756" lon="11.699942"><ele>2174</ele></trkpt>
      <trkpt lat="46.615679" lon="11.700016"><ele>2177</ele></trkpt>
      <trkpt lat="46.615604" lon="11.700034"><ele>2181</ele></trkpt>
      <trkpt lat="46.615488" lon="11.700025"><ele>2186</ele></trkpt>
      <trkpt lat="46.615354" lon="11.700133"><ele>2192</ele></trkpt>
      <trkpt lat="46.61497" lon="11.70033"><ele>2216</ele></trkpt>
      <trkpt lat="46.614833" lon="11.700389"><ele>2225</ele></trkpt>
      <trkpt lat="46.614522" lon="11.700286"><ele>2237</ele></trkpt>
      <trkpt lat="46.614449" lon="11.700275"><ele>2241</ele></trkpt>
      <trkpt lat="46.614386" lon="11.700243"><ele>2243</ele></trkpt>
      <trkpt lat="46.614336" lon="11.70018"><ele>2244</ele></trkpt>
      <trkpt lat="46.614285" lon="11.700184"><ele>2247</ele></trkpt>
      <trkpt lat="46.614175" lon="11.700071"><ele>2250</ele></trkpt>
      <trkpt lat="46.61404" lon="11.699777"><ele>2255</ele></trkpt>
      <trkpt lat="46.614031" lon="11.69966"><ele>2254</ele></trkpt>
      <trkpt lat="46.614009" lon="11.699542"><ele>2255</ele></trkpt>
      <trkpt lat="46.613961" lon="11.699465"><ele>2258</ele></trkpt>
      <trkpt lat="46.61393" lon="11.699355"><ele>2261</ele></trkpt>
      <trkpt lat="46.613927" lon="11.699157"><ele>2265</ele></trkpt>
      <trkpt lat="46.613894" lon="11.699072"><ele>2269</ele></trkpt>
      <trkpt lat="46.613906" lon="11.699016"><ele>2269</ele></trkpt>
      <trkpt lat="46.613879" lon="11.699007"><ele>2271</ele></trkpt>
      <trkpt lat="46.613858" lon="11.69903"><ele>2271</ele></trkpt>
      <trkpt lat="46.613838" lon="11.698954"><ele>2274</ele></trkpt>
      <trkpt lat="46.613801" lon="11.698995"><ele>2275</ele></trkpt>
      <trkpt lat="46.613767" lon="11.69893"><ele>2277</ele></trkpt>
      <trkpt lat="46.613742" lon="11.698961"><ele>2278</ele></trkpt>
      <trkpt lat="46.61371" lon="11.698926"><ele>2279</ele></trkpt>
      <trkpt lat="46.61366" lon="11.698836"><ele>2282</ele></trkpt>
      <trkpt lat="46.612165" lon="11.699172"><ele>2246</ele></trkpt>
      <trkpt lat="46.611276" lon="11.699477"><ele>2215</ele></trkpt>
      <trkpt lat="46.610652" lon="11.699611"><ele>2195</ele></trkpt>
      <trkpt lat="46.609963" lon="11.699536"><ele>2173</ele></trkpt>
      <trkpt lat="46.609674" lon="11.69974"><ele>2162</ele></trkpt>
      <trkpt lat="46.609473" lon="11.699086"><ele>2162</ele></trkpt>
      <trkpt lat="46.60925" lon="11.698399"><ele>2163</ele></trkpt>
      <trkpt lat="46.609108" lon="11.697926"><ele>2163</ele></trkpt>
      <trkpt lat="46.609018" lon="11.697463"><ele>2164</ele></trkpt>
      <trkpt lat="46.609007" lon="11.697359"><ele>2164</ele></trkpt>
      <trkpt lat="46.608988" lon="11.696997"><ele>2164</ele></trkpt>
      <trkpt lat="46.608954" lon="11.696526"><ele>2164</ele></trkpt>
      <trkpt lat="46.608948" lon="11.696043"><ele>2165</ele></trkpt>
      <trkpt lat="46.608976" lon="11.695701"><ele>2165</ele></trkpt>
      <trkpt lat="46.609008" lon="11.69551"><ele>2164</ele></trkpt>
      <trkpt lat="46.609069" lon="11.695355"><ele>2163</ele></trkpt>
      <trkpt lat="46.609169" lon="11.695145"><ele>2162</ele></trkpt>
      <trkpt lat="46.609393" lon="11.694797"><ele>2159</ele></trkpt>
      <trkpt lat="46.609429" lon="11.694727"><ele>2159</ele></trkpt>
      <trkpt lat="46.609505" lon="11.694486"><ele>2157</ele></trkpt>
      <trkpt lat="46.609522" lon="11.694355"><ele>2157</ele></trkpt>
      <trkpt lat="46.60953" lon="11.694218"><ele>2157</ele></trkpt>
      <trkpt lat="46.609527" lon="11.694131"><ele>2156</ele></trkpt>
      <trkpt lat="46.609491" lon="11.693903"><ele>2156</ele></trkpt>
      <trkpt lat="46.609402" lon="11.693174"><ele>2155</ele></trkpt>
      <trkpt lat="46.609361" lon="11.693017"><ele>2155</ele></trkpt>
      <trkpt lat="46.609237" lon="11.692637"><ele>2155</ele></trkpt>
      <trkpt lat="46.609174" lon="11.692396"><ele>2155</ele></trkpt>
      <trkpt lat="46.609127" lon="11.692287"><ele>2155</ele></trkpt>
      <trkpt lat="46.609092" lon="11.692175"><ele>2155</ele></trkpt>
      <trkpt lat="46.609036" lon="11.692044"><ele>2154</ele></trkpt>
      <trkpt lat="46.609007" lon="11.691956"><ele>2154</ele></trkpt>
      <trkpt lat="46.608791" lon="11.691216"><ele>2150</ele></trkpt>
      <trkpt lat="46.608635" lon="11.690823"><ele>2147</ele></trkpt>
      <trkpt lat="46.608492" lon="11.690513"><ele>2143</ele></trkpt>
      <trkpt lat="46.60839" lon="11.690201"><ele>2142</ele></trkpt>
      <trkpt lat="46.608357" lon="11.690083"><ele>2141</ele></trkpt>
      <trkpt lat="46.608342" lon="11.690008"><ele>2140</ele></trkpt>
      <trkpt lat="46.608309" lon="11.689729"><ele>2138</ele></trkpt>
      <trkpt lat="46.608294" lon="11.689658"><ele>2138</ele></trkpt>
      <trkpt lat="46.608268" lon="11.689545"><ele>2136</ele></trkpt>
      <trkpt lat="46.608227" lon="11.689462"><ele>2135</ele></trkpt>
      <trkpt lat="46.608207" lon="11.6894"><ele>2134</ele></trkpt>
      <trkpt lat="46.608191" lon="11.689318"><ele>2133</ele></trkpt>
      <trkpt lat="46.60818" lon="11.689234"><ele>2132</ele></trkpt>
      <trkpt lat="46.608171" lon="11.689013"><ele>2131</ele></trkpt>
      <trkpt lat="46.608158" lon="11.68893"><ele>2130</ele></trkpt>
      <trkpt lat="46.608137" lon="11.688861"><ele>2129</ele></trkpt>
      <trkpt lat="46.608057" lon="11.688655"><ele>2127</ele></trkpt>
      <trkpt lat="46.608018" lon="11.688559"><ele>2126</ele></trkpt>
      <trkpt lat="46.607971" lon="11.688488"><ele>2126</ele></trkpt>
      <trkpt lat="46.607825" lon="11.688308"><ele>2124</ele></trkpt>
      <trkpt lat="46.60778" lon="11.688232"><ele>2123</ele></trkpt>
      <trkpt lat="46.607742" lon="11.688161"><ele>2122</ele></trkpt>
      <trkpt lat="46.607699" lon="11.688036"><ele>2122</ele></trkpt>
      <trkpt lat="46.607627" lon="11.687916"><ele>2120</ele></trkpt>
      <trkpt lat="46.607539" lon="11.6878"><ele>2118</ele></trkpt>
      <trkpt lat="46.607381" lon="11.687632"><ele>2114</ele></trkpt>
      <trkpt lat="46.607324" lon="11.687537"><ele>2112</ele></trkpt>
      <trkpt lat="46.607294" lon="11.687451"><ele>2111</ele></trkpt>
      <trkpt lat="46.607229" lon="11.68717"><ele>2109</ele></trkpt>
      <trkpt lat="46.60721" lon="11.68711"><ele>2108</ele></trkpt>
      <trkpt lat="46.607194" lon="11.686667"><ele>2109</ele></trkpt>
      <trkpt lat="46.607105" lon="11.686269"><ele>2111</ele></trkpt>
      <trkpt lat="46.607085" lon="11.685796"><ele>2110</ele></trkpt>
      <trkpt lat="46.607111" lon="11.6853"><ele>2108</ele></trkpt>
      <trkpt lat="46.607323" lon="11.684917"><ele>2111</ele></trkpt>
      <trkpt lat="46.607496" lon="11.684347"><ele>2107</ele></trkpt>
      <trkpt lat="46.607661" lon="11.684062"><ele>2109</ele></trkpt>
      <trkpt lat="46.607709" lon="11.683934"><ele>2109</ele></trkpt>
      <trkpt lat="46.607776" lon="11.683619"><ele>2107</ele></trkpt>
      <trkpt lat="46.607803" lon="11.683576"><ele>2108</ele></trkpt>
      <trkpt lat="46.607852" lon="11.683619"><ele>2109</ele></trkpt>
      <trkpt lat="46.607866" lon="11.683663"><ele>2110</ele></trkpt>
      <trkpt lat="46.607868" lon="11.683709"><ele>2111</ele></trkpt>
      <trkpt lat="46.6079" lon="11.683687"><ele>2112</ele></trkpt>
      <trkpt lat="46.608068" lon="11.683662"><ele>2116</ele></trkpt>
      <trkpt lat="46.608143" lon="11.683677"><ele>2119</ele></trkpt>
      <trkpt lat="46.608339" lon="11.683604"><ele>2123</ele></trkpt>
      <trkpt lat="46.608548" lon="11.683593"><ele>2127</ele></trkpt>
      <trkpt lat="46.608743" lon="11.683629"><ele>2130</ele></trkpt>
      <trkpt lat="46.608866" lon="11.683481"><ele>2119</ele></trkpt>
      <trkpt lat="46.609167" lon="11.683338"><ele>2107</ele></trkpt>
      <trkpt lat="46.609277" lon="11.683344"><ele>2105</ele></trkpt>
      <trkpt lat="46.609358" lon="11.683254"><ele>2098</ele></trkpt>
      <trkpt lat="46.609363" lon="11.683194"><ele>2094</ele></trkpt>
      <trkpt lat="46.609191" lon="11.683073"><ele>2090</ele></trkpt>
      <trkpt lat="46.609088" lon="11.682969"><ele>2083</ele></trkpt>
      <trkpt lat="46.609102" lon="11.68289"><ele>2079</ele></trkpt>
      <trkpt lat="46.609255" lon="11.682796"><ele>2073</ele></trkpt>
      <trkpt lat="46.60936" lon="11.682769"><ele>2070</ele></trkpt>
      <trkpt lat="46.609767" lon="11.682852"><ele>2064</ele></trkpt>
      <trkpt lat="46.609926" lon="11.68292"><ele>2064</ele></trkpt>
      <trkpt lat="46.610125" lon="11.682981"><ele>2055</ele></trkpt>
      <trkpt lat="46.610218" lon="11.683057"><ele>2050</ele></trkpt>
      <trkpt lat="46.610426" lon="11.683351"><ele>2044</ele></trkpt>
      <trkpt lat="46.610532" lon="11.683426"><ele>2039</ele></trkpt>
      <trkpt lat="46.610614" lon="11.683416"><ele>2034</ele></trkpt>
      <trkpt lat="46.610963" lon="11.683684"><ele>2024</ele></trkpt>
      <trkpt lat="46.611191" lon="11.683765"><ele>2020</ele></trkpt>
      <trkpt lat="46.61145" lon="11.683644"><ele>2012</ele></trkpt>
      <trkpt lat="46.611639" lon="11.683625"><ele>2005</ele></trkpt>
      <trkpt lat="46.611769" lon="11.683686"><ele>2001</ele></trkpt>
      <trkpt lat="46.612077" lon="11.683996"><ele>1992</ele></trkpt>
      <trkpt lat="46.612152" lon="11.684018"><ele>1989</ele></trkpt>
      <trkpt lat="46.612229" lon="11.683949"><ele>1982</ele></trkpt>
      <trkpt lat="46.61216" lon="11.683738"><ele>1978</ele></trkpt>
      <trkpt lat="46.612146" lon="11.683595"><ele>1974</ele></trkpt>
      <trkpt lat="46.612144" lon="11.68336"><ele>1967</ele></trkpt>
      <trkpt lat="46.612081" lon="11.683122"><ele>1962</ele></trkpt>
      <trkpt lat="46.611869" lon="11.6829"><ele>1963</ele></trkpt>
      <trkpt lat="46.6118" lon="11.682791"><ele>1960</ele></trkpt>
      <trkpt lat="46.61177" lon="11.68267"><ele>1956</ele></trkpt>
      <trkpt lat="46.61182" lon="11.682507"><ele>1947</ele></trkpt>
      <trkpt lat="46.612037" lon="11.682455"><ele>1937</ele></trkpt>
      <trkpt lat="46.61208" lon="11.682463"><ele>1936</ele></trkpt>
      <trkpt lat="46.612296" lon="11.682605"><ele>1932</ele></trkpt>
      <trkpt lat="46.612416" lon="11.682619"><ele>1925</ele></trkpt>
      <trkpt lat="46.6125" lon="11.682468"><ele>1916</ele></trkpt>
      <trkpt lat="46.612542" lon="11.682322"><ele>1911</ele></trkpt>
      <trkpt lat="46.612536" lon="11.682212"><ele>1908</ele></trkpt>
      <trkpt lat="46.61243" lon="11.681967"><ele>1902</ele></trkpt>
      <trkpt lat="46.612416" lon="11.681752"><ele>1894</ele></trkpt>
      <trkpt lat="46.612347" lon="11.681555"><ele>1888</ele></trkpt>
      <trkpt lat="46.612348" lon="11.681454"><ele>1884</ele></trkpt>
      <trkpt lat="46.612439" lon="11.681381"><ele>1879</ele></trkpt>
      <trkpt lat="46.612658" lon="11.681384"><ele>1873</ele></trkpt>
      <trkpt lat="46.612697" lon="11.681406"><ele>1872</ele></trkpt>
      <trkpt lat="46.612856" lon="11.681402"><ele>1867</ele></trkpt>
      <trkpt lat="46.613033" lon="11.681452"><ele>1867</ele></trkpt>
      <trkpt lat="46.613366" lon="11.681506"><ele>1863</ele></trkpt>
      <trkpt lat="46.613829" lon="11.681566"><ele>1854</ele></trkpt>
      <trkpt lat="46.613937" lon="11.681596"><ele>1852</ele></trkpt>
      <trkpt lat="46.614044" lon="11.681614"><ele>1848</ele></trkpt>
      <trkpt lat="46.614211" lon="11.681732"><ele>1844</ele></trkpt>
      <trkpt lat="46.614428" lon="11.681856"><ele>1835</ele></trkpt>
      <trkpt lat="46.614865" lon="11.682166"><ele>1828</ele></trkpt>
      <trkpt lat="46.615041" lon="11.682202"><ele>1824</ele></trkpt>
      <trkpt lat="46.61509" lon="11.682181"><ele>1824</ele></trkpt>
      <trkpt lat="46.615125" lon="11.682208"><ele>1826</ele></trkpt>
      <trkpt lat="46.615169" lon="11.682182"><ele>1826</ele></trkpt>
      <trkpt lat="46.615248" lon="11.68205"><ele>1824</ele></trkpt>
      <trkpt lat="46.615376" lon="11.68194"><ele>1824</ele></trkpt>
      <trkpt lat="46.615652" lon="11.681873"><ele>1827</ele></trkpt>
      <trkpt lat="46.616246" lon="11.681782"><ele>1835</ele></trkpt>
      <trkpt lat="46.616626" lon="11.681836"><ele>1840</ele></trkpt>
      <trkpt lat="46.617039" lon="11.681875"><ele>1845</ele></trkpt>
      <trkpt lat="46.617417" lon="11.682087"><ele>1852</ele></trkpt>
      <trkpt lat="46.618153" lon="11.681999"><ele>1860</ele></trkpt>
      <trkpt lat="46.618352" lon="11.682032"><ele>1863</ele></trkpt>
      <trkpt lat="46.618496" lon="11.682092"><ele>1863</ele></trkpt>
      <trkpt lat="46.618803" lon="11.68239"><ele>1868</ele></trkpt>
      <trkpt lat="46.619022" lon="11.682716"><ele>1873</ele></trkpt>
      <trkpt lat="46.619141" lon="11.682978"><ele>1875</ele></trkpt>
      <trkpt lat="46.619211" lon="11.683262"><ele>1882</ele></trkpt>
      <trkpt lat="46.619268" lon="11.683773"><ele>1885</ele></trkpt>
      <trkpt lat="46.61926" lon="11.683859"><ele>1884</ele></trkpt>
      <trkpt lat="46.619206" lon="11.683903"><ele>1885</ele></trkpt>
      <trkpt lat="46.619164" lon="11.683851"><ele>1885</ele></trkpt>
      <trkpt lat="46.619142" lon="11.68369"><ele>1887</ele></trkpt>
      <trkpt lat="46.619021" lon="11.683275"><ele>1890</ele></trkpt>
      <trkpt lat="46.618847" lon="11.683007"><ele>1893</ele></trkpt>
      <trkpt lat="46.618693" lon="11.682827"><ele>1893</ele></trkpt>
      <trkpt lat="46.618545" lon="11.682754"><ele>1895</ele></trkpt>
      <trkpt lat="46.61846" lon="11.68275"><ele>1896</ele></trkpt>
      <trkpt lat="46.618383" lon="11.682775"><ele>1899</ele></trkpt>
      <trkpt lat="46.618072" lon="11.682932"><ele>1902</ele></trkpt>
      <trkpt lat="46.617985" lon="11.68303"><ele>1904</ele></trkpt>
      <trkpt lat="46.617685" lon="11.68349"><ele>1912</ele></trkpt>
      <trkpt lat="46.617591" lon="11.683589"><ele>1914</ele></trkpt>
      <trkpt lat="46.617398" lon="11.683736"><ele>1917</ele></trkpt>
      <trkpt lat="46.617188" lon="11.683754"><ele>1919</ele></trkpt>
      <trkpt lat="46.617102" lon="11.683739"><ele>1921</ele></trkpt>
      <trkpt lat="46.616969" lon="11.683651"><ele>1920</ele></trkpt>
      <trkpt lat="46.616856" lon="11.683661"><ele>1921</ele></trkpt>
      <trkpt lat="46.616659" lon="11.68377"><ele>1925</ele></trkpt>
      <trkpt lat="46.616498" lon="11.683922"><ele>1928</ele></trkpt>
      <trkpt lat="46.616344" lon="11.684135"><ele>1931</ele></trkpt>
      <trkpt lat="46.616256" lon="11.684292"><ele>1936</ele></trkpt>
      <trkpt lat="46.616204" lon="11.684342"><ele>1937</ele></trkpt>
      <trkpt lat="46.616256" lon="11.684292"><ele>1936</ele></trkpt>
      <trkpt lat="46.616344" lon="11.684135"><ele>1931</ele></trkpt>
      <trkpt lat="46.616498" lon="11.683922"><ele>1928</ele></trkpt>
      <trkpt lat="46.616659" lon="11.68377"><ele>1925</ele></trkpt>
      <trkpt lat="46.616856" lon="11.683661"><ele>1921</ele></trkpt>
      <trkpt lat="46.616969" lon="11.683651"><ele>1920</ele></trkpt>
      <trkpt lat="46.617102" lon="11.683739"><ele>1921</ele></trkpt>
      <trkpt lat="46.617188" lon="11.683754"><ele>1919</ele></trkpt>
      <trkpt lat="46.617398" lon="11.683736"><ele>1917</ele></trkpt>
      <trkpt lat="46.617591" lon="11.683589"><ele>1914</ele></trkpt>
      <trkpt lat="46.617685" lon="11.68349"><ele>1912</ele></trkpt>
      <trkpt lat="46.617985" lon="11.68303"><ele>1904</ele></trkpt>
      <trkpt lat="46.618072" lon="11.682932"><ele>1902</ele></trkpt>
      <trkpt lat="46.618383" lon="11.682775"><ele>1899</ele></trkpt>
      <trkpt lat="46.61846" lon="11.68275"><ele>1896</ele></trkpt>
      <trkpt lat="46.618545" lon="11.682754"><ele>1895</ele></trkpt>
      <trkpt lat="46.618693" lon="11.682827"><ele>1893</ele></trkpt>
      <trkpt lat="46.618847" lon="11.683007"><ele>1893</ele></trkpt>
      <trkpt lat="46.619021" lon="11.683275"><ele>1890</ele></trkpt>
      <trkpt lat="46.619142" lon="11.68369"><ele>1887</ele></trkpt>
      <trkpt lat="46.619164" lon="11.683851"><ele>1885</ele></trkpt>
      <trkpt lat="46.619206" lon="11.683903"><ele>1885</ele></trkpt>
      <trkpt lat="46.61926" lon="11.683859"><ele>1884</ele></trkpt>
      <trkpt lat="46.619268" lon="11.683773"><ele>1885</ele></trkpt>
      <trkpt lat="46.619211" lon="11.683262"><ele>1882</ele></trkpt>
      <trkpt lat="46.619141" lon="11.682978"><ele>1875</ele></trkpt>
      <trkpt lat="46.619022" lon="11.682716"><ele>1873</ele></trkpt>
      <trkpt lat="46.618803" lon="11.68239"><ele>1868</ele></trkpt>
      <trkpt lat="46.618496" lon="11.682092"><ele>1863</ele></trkpt>
      <trkpt lat="46.618352" lon="11.682032"><ele>1863</ele></trkpt>
      <trkpt lat="46.618153" lon="11.681999"><ele>1860</ele></trkpt>
      <trkpt lat="46.617417" lon="11.682087"><ele>1852</ele></trkpt>
      <trkpt lat="46.617039" lon="11.681875"><ele>1845</ele></trkpt>
      <trkpt lat="46.616626" lon="11.681836"><ele>1840</ele></trkpt>
      <trkpt lat="46.616246" lon="11.681782"><ele>1835</ele></trkpt>
      <trkpt lat="46.615652" lon="11.681873"><ele>1827</ele></trkpt>
      <trkpt lat="46.615376" lon="11.68194"><ele>1824</ele></trkpt>
      <trkpt lat="46.615248" lon="11.68205"><ele>1824</ele></trkpt>
      <trkpt lat="46.615169" lon="11.682182"><ele>1826</ele></trkpt>
      <trkpt lat="46.615125" lon="11.682208"><ele>1826</ele></trkpt>
      <trkpt lat="46.61509" lon="11.682181"><ele>1824</ele></trkpt>
      <trkpt lat="46.615041" lon="11.682202"><ele>1824</ele></trkpt>
      <trkpt lat="46.614865" lon="11.682166"><ele>1828</ele></trkpt>
      <trkpt lat="46.614428" lon="11.681856"><ele>1835</ele></trkpt>
      <trkpt lat="46.614211" lon="11.681732"><ele>1844</ele></trkpt>
      <trkpt lat="46.614044" lon="11.681614"><ele>1848</ele></trkpt>
      <trkpt lat="46.613937" lon="11.681596"><ele>1852</ele></trkpt>
      <trkpt lat="46.613829" lon="11.681566"><ele>1854</ele></trkpt>
      <trkpt lat="46.613366" lon="11.681506"><ele>1863</ele></trkpt>
      <trkpt lat="46.613033" lon="11.681452"><ele>1867</ele></trkpt>
      <trkpt lat="46.612856" lon="11.681402"><ele>1867</ele></trkpt>
      <trkpt lat="46.612697" lon="11.681406"><ele>1872</ele></trkpt>
      <trkpt lat="46.612658" lon="11.681384"><ele>1873</ele></trkpt>
      <trkpt lat="46.612439" lon="11.681381"><ele>1879</ele></trkpt>
      <trkpt lat="46.612348" lon="11.681454"><ele>1884</ele></trkpt>
      <trkpt lat="46.612347" lon="11.681555"><ele>1888</ele></trkpt>
      <trkpt lat="46.612416" lon="11.681752"><ele>1894</ele></trkpt>
      <trkpt lat="46.61243" lon="11.681967"><ele>1902</ele></trkpt>
      <trkpt lat="46.612521" lon="11.682179"><ele>1908</ele></trkpt>
      <trkpt lat="46.61243" lon="11.681967"><ele>1902</ele></trkpt>
      <trkpt lat="46.612416" lon="11.681752"><ele>1894</ele></trkpt>
      <trkpt lat="46.612347" lon="11.681555"><ele>1888</ele></trkpt>
      <trkpt lat="46.612348" lon="11.681454"><ele>1884</ele></trkpt>
      <trkpt lat="46.612439" lon="11.681381"><ele>1879</ele></trkpt>
      <trkpt lat="46.612658" lon="11.681384"><ele>1873</ele></trkpt>
      <trkpt lat="46.612697" lon="11.681406"><ele>1872</ele></trkpt>
      <trkpt lat="46.612856" lon="11.681402"><ele>1867</ele></trkpt>
      <trkpt lat="46.613033" lon="11.681452"><ele>1867</ele></trkpt>
      <trkpt lat="46.613366" lon="11.681506"><ele>1863</ele></trkpt>
      <trkpt lat="46.613829" lon="11.681566"><ele>1854</ele></trkpt>
      <trkpt lat="46.613937" lon="11.681596"><ele>1852</ele></trkpt>
      <trkpt lat="46.614044" lon="11.681614"><ele>1848</ele></trkpt>
      <trkpt lat="46.614211" lon="11.681732"><ele>1844</ele></trkpt>
      <trkpt lat="46.614428" lon="11.681856"><ele>1835</ele></trkpt>
      <trkpt lat="46.614865" lon="11.682166"><ele>1828</ele></trkpt>
      <trkpt lat="46.615041" lon="11.682202"><ele>1824</ele></trkpt>
      <trkpt lat="46.61509" lon="11.682181"><ele>1824</ele></trkpt>
      <trkpt lat="46.615104" lon="11.682122"><ele>1822</ele></trkpt>
      <trkpt lat="46.615348" lon="11.681768"><ele>1819</ele></trkpt>
      <trkpt lat="46.615568" lon="11.681573"><ele>1815</ele></trkpt>
      <trkpt lat="46.615916" lon="11.681149"><ele>1805</ele></trkpt>
      <trkpt lat="46.616185" lon="11.680837"><ele>1798</ele></trkpt>
      <trkpt lat="46.616313" lon="11.680747"><ele>1796</ele></trkpt>
      <trkpt lat="46.61658" lon="11.680582"><ele>1792</ele></trkpt>
      <trkpt lat="46.616701" lon="11.680449"><ele>1788</ele></trkpt>
      <trkpt lat="46.616829" lon="11.680327"><ele>1784</ele></trkpt>
      <trkpt lat="46.616911" lon="11.680307"><ele>1782</ele></trkpt>
      <trkpt lat="46.617165" lon="11.680309"><ele>1778</ele></trkpt>
      <trkpt lat="46.617312" lon="11.680274"><ele>1776</ele></trkpt>
      <trkpt lat="46.617398" lon="11.680228"><ele>1774</ele></trkpt>
      <trkpt lat="46.617568" lon="11.68002"><ele>1770</ele></trkpt>
      <trkpt lat="46.617647" lon="11.679857"><ele>1766</ele></trkpt>
      <trkpt lat="46.617721" lon="11.679747"><ele>1764</ele></trkpt>
      <trkpt lat="46.617767" lon="11.679725"><ele>1764</ele></trkpt>
      <trkpt lat="46.617824" lon="11.679748"><ele>1763</ele></trkpt>
      <trkpt lat="46.617953" lon="11.679839"><ele>1762</ele></trkpt>
      <trkpt lat="46.618057" lon="11.679846"><ele>1759</ele></trkpt>
      <trkpt lat="46.618212" lon="11.679786"><ele>1756</ele></trkpt>
      <trkpt lat="46.618332" lon="11.679724"><ele>1752</ele></trkpt>
      <trkpt lat="46.618516" lon="11.679568"><ele>1748</ele></trkpt>
      <trkpt lat="46.618709" lon="11.679379"><ele>1745</ele></trkpt>
      <trkpt lat="46.618794" lon="11.679211"><ele>1743</ele></trkpt>
      <trkpt lat="46.618862" lon="11.678985"><ele>1740</ele></trkpt>
      <trkpt lat="46.61888" lon="11.678657"><ele>1736</ele></trkpt>
      <trkpt lat="46.618823" lon="11.678489"><ele>1733</ele></trkpt>
      <trkpt lat="46.618757" lon="11.678434"><ele>1731</ele></trkpt>
      <trkpt lat="46.618661" lon="11.678402"><ele>1729</ele></trkpt>
      <trkpt lat="46.618724" lon="11.677923"><ele>1720</ele></trkpt>
      <trkpt lat="46.618706" lon="11.677446"><ele>1711</ele></trkpt>
      <trkpt lat="46.61869" lon="11.677228"><ele>1707</ele></trkpt>
      <trkpt lat="46.618666" lon="11.677059"><ele>1704</ele></trkpt>
      <trkpt lat="46.618511" lon="11.676705"><ele>1692</ele></trkpt>
      <trkpt lat="46.618499" lon="11.676546"><ele>1690</ele></trkpt>
      <trkpt lat="46.618502" lon="11.675708"><ele>1682</ele></trkpt>
      <trkpt lat="46.618491" lon="11.675307"><ele>1671</ele></trkpt>
      <trkpt lat="46.61861" lon="11.674758"><ele>1666</ele></trkpt>
      <trkpt lat="46.618646" lon="11.674663"><ele>1666</ele></trkpt>
      <trkpt lat="46.618691" lon="11.674458"><ele>1664</ele></trkpt>
      <trkpt lat="46.618668" lon="11.673875"><ele>1652</ele></trkpt>
      <trkpt lat="46.618688" lon="11.673648"><ele>1648</ele></trkpt>
      <trkpt lat="46.618712" lon="11.673472"><ele>1647</ele></trkpt>
      <trkpt lat="46.618699" lon="11.673245"><ele>1642</ele></trkpt>
      <trkpt lat="46.618747" lon="11.672929"><ele>1639</ele></trkpt>
      <trkpt lat="46.618754" lon="11.672789"><ele>1636</ele></trkpt>
      <trkpt lat="46.618787" lon="11.672618"><ele>1634</ele></trkpt>
      <trkpt lat="46.6189" lon="11.672196"><ele>1630</ele></trkpt>
      <trkpt lat="46.618964" lon="11.672108"><ele>1627</ele></trkpt>
      <trkpt lat="46.619092" lon="11.67204"><ele>1623</ele></trkpt>
      <trkpt lat="46.619158" lon="11.671981"><ele>1619</ele></trkpt>
      <trkpt lat="46.619302" lon="11.671933"><ele>1617</ele></trkpt>
      <trkpt lat="46.619351" lon="11.671877"><ele>1616</ele></trkpt>
      <trkpt lat="46.619406" lon="11.671716"><ele>1610</ele></trkpt>
      <trkpt lat="46.619436" lon="11.671561"><ele>1605</ele></trkpt>
      <trkpt lat="46.619458" lon="11.671384"><ele>1600</ele></trkpt>
      <trkpt lat="46.619432" lon="11.671277"><ele>1597</ele></trkpt>
      <trkpt lat="46.61945" lon="11.671169"><ele>1595</ele></trkpt>
      <trkpt lat="46.619527" lon="11.670978"><ele>1591</ele></trkpt>
      <trkpt lat="46.619538" lon="11.670871"><ele>1588</ele></trkpt>
      <trkpt lat="46.619633" lon="11.670591"><ele>1579</ele></trkpt>
      <trkpt lat="46.619714" lon="11.67042"><ele>1572</ele></trkpt>
      <trkpt lat="46.619814" lon="11.670281"><ele>1568</ele></trkpt>
      <trkpt lat="46.619873" lon="11.670136"><ele>1563</ele></trkpt>
      <trkpt lat="46.620213" lon="11.669941"><ele>1555</ele></trkpt>
      <trkpt lat="46.620308" lon="11.669868"><ele>1553</ele></trkpt>
      <trkpt lat="46.620357" lon="11.669758"><ele>1550</ele></trkpt>
      <trkpt lat="46.620368" lon="11.669646"><ele>1548</ele></trkpt>
      <trkpt lat="46.620326" lon="11.669428"><ele>1541</ele></trkpt>
      <trkpt lat="46.620256" lon="11.669186"><ele>1536</ele></trkpt>
      <trkpt lat="46.620165" lon="11.668959"><ele>1529</ele></trkpt>
      <trkpt lat="46.620068" lon="11.668886"><ele>1528</ele></trkpt>
      <trkpt lat="46.619917" lon="11.668832"><ele>1526</ele></trkpt>
      <trkpt lat="46.619648" lon="11.668827"><ele>1520</ele></trkpt>
      <trkpt lat="46.619493" lon="11.668789"><ele>1517</ele></trkpt>
      <trkpt lat="46.61938" lon="11.668779"><ele>1515</ele></trkpt>
      <trkpt lat="46.619077" lon="11.668811"><ele>1512</ele></trkpt>
      <trkpt lat="46.619024" lon="11.66877"><ele>1512</ele></trkpt>
      <trkpt lat="46.618957" lon="11.668695"><ele>1511</ele></trkpt>
      <trkpt lat="46.618913" lon="11.66881"><ele>1511</ele></trkpt>
      <trkpt lat="46.618861" lon="11.668905"><ele>1511</ele></trkpt>
      <trkpt lat="46.618773" lon="11.669021"><ele>1512</ele></trkpt>
      <trkpt lat="46.618635" lon="11.669146"><ele>1514</ele></trkpt>
      <trkpt lat="46.618591" lon="11.669212"><ele>1514</ele></trkpt>
      <trkpt lat="46.618516" lon="11.669496"><ele>1517</ele></trkpt>
      <trkpt lat="46.61844" lon="11.669649"><ele>1518</ele></trkpt>
      <trkpt lat="46.618415" lon="11.669758"><ele>1520</ele></trkpt>
      <trkpt lat="46.618361" lon="11.670135"><ele>1524</ele></trkpt>
      <trkpt lat="46.618332" lon="11.670242"><ele>1524</ele></trkpt>
      <trkpt lat="46.618274" lon="11.670318"><ele>1525</ele></trkpt>
      <trkpt lat="46.618102" lon="11.670436"><ele>1525</ele></trkpt>
      <trkpt lat="46.617916" lon="11.670718"><ele>1532</ele></trkpt>
      <trkpt lat="46.617778" lon="11.670896"><ele>1532</ele></trkpt>
      <trkpt lat="46.617756" lon="11.670976"><ele>1533</ele></trkpt>
      <trkpt lat="46.617732" lon="11.671289"><ele>1538</ele></trkpt>
      <trkpt lat="46.617704" lon="11.671413"><ele>1539</ele></trkpt>
      <trkpt lat="46.617584" lon="11.671684"><ele>1540</ele></trkpt>
      <trkpt lat="46.617554" lon="11.672097"><ele>1548</ele></trkpt>
      <trkpt lat="46.617233" lon="11.672956"><ele>1555</ele></trkpt>
      <trkpt lat="46.617201" lon="11.673416"><ele>1562</ele></trkpt>
      <trkpt lat="46.617135" lon="11.673691"><ele>1563</ele></trkpt>
      <trkpt lat="46.616875" lon="11.674635"><ele>1574</ele></trkpt>
      <trkpt lat="46.616831" lon="11.674886"><ele>1577</ele></trkpt>
      <trkpt lat="46.616819" lon="11.675098"><ele>1579</ele></trkpt>
      <trkpt lat="46.616818" lon="11.675358"><ele>1582</ele></trkpt>
      <trkpt lat="46.616761" lon="11.675576"><ele>1582</ele></trkpt>
      <trkpt lat="46.616701" lon="11.675693"><ele>1582</ele></trkpt>
      <trkpt lat="46.616627" lon="11.675752"><ele>1582</ele></trkpt>
      <trkpt lat="46.616534" lon="11.675748"><ele>1583</ele></trkpt>
      <trkpt lat="46.616428" lon="11.675711"><ele>1582</ele></trkpt>
      <trkpt lat="46.61634" lon="11.675698"><ele>1580</ele></trkpt>
      <trkpt lat="46.616266" lon="11.675743"><ele>1580</ele></trkpt>
      <trkpt lat="46.616207" lon="11.675904"><ele>1584</ele></trkpt>
      <trkpt lat="46.616115" lon="11.676068"><ele>1587</ele></trkpt>
      <trkpt lat="46.615427" lon="11.676551"><ele>1592</ele></trkpt>
      <trkpt lat="46.615323" lon="11.676506"><ele>1590</ele></trkpt>
      <trkpt lat="46.614992" lon="11.676535"><ele>1595</ele></trkpt>
      <trkpt lat="46.614937" lon="11.676508"><ele>1595</ele></trkpt>
      <trkpt lat="46.614885" lon="11.676373"><ele>1591</ele></trkpt>
      <trkpt lat="46.614879" lon="11.676077"><ele>1597</ele></trkpt>
      <trkpt lat="46.614984" lon="11.675719"><ele>1602</ele></trkpt>
      <trkpt lat="46.615083" lon="11.675589"><ele>1600</ele></trkpt>
      <trkpt lat="46.615149" lon="11.675453"><ele>1598</ele></trkpt>
      <trkpt lat="46.615193" lon="11.675178"><ele>1603</ele></trkpt>
      <trkpt lat="46.615203" lon="11.674957"><ele>1607</ele></trkpt>
      <trkpt lat="46.615201" lon="11.674708"><ele>1609</ele></trkpt>
      <trkpt lat="46.61521" lon="11.6744"><ele>1610</ele></trkpt>
      <trkpt lat="46.615186" lon="11.674176"><ele>1612</ele></trkpt>
      <trkpt lat="46.615116" lon="11.673935"><ele>1612</ele></trkpt>
      <trkpt lat="46.615034" lon="11.67371"><ele>1615</ele></trkpt>
      <trkpt lat="46.614952" lon="11.673538"><ele>1617</ele></trkpt>
      <trkpt lat="46.614823" lon="11.673354"><ele>1619</ele></trkpt>
      <trkpt lat="46.61456" lon="11.673127"><ele>1621</ele></trkpt>
      <trkpt lat="46.614422" lon="11.673019"><ele>1623</ele></trkpt>
      <trkpt lat="46.614374" lon="11.67295"><ele>1625</ele></trkpt>
    </trkseg>
  </trk>
</gpx>
