<?xml version="1.0" encoding="UTF-8"?>
<gpx version="1.1" creator="hike-trip" xmlns="http://www.topografix.com/GPX/1/1">
  <metadata>
    <name>Alpe di Siusi Meadow Walk</name>
    <desc>Routed with BRouter (hiking-mountain) over OpenStreetMap data through hand-verified anchor points. Schematic in places — verify against signage on the ground.</desc>
    <copyright author="OpenStreetMap contributors"><license>https://www.openstreetmap.org/copyright</license></copyright>
    <bounds minlat="46.54139" minlon="11.615548" maxlat="46.55003" maxlon="11.642544"/>
  </metadata>
  <wpt lat="46.5497" lon="11.6436"><name>Trailhead — Alpe di Siusi Meadow Walk</name><sym>Trail Head</sym></wpt>
  <wpt lat="46.5419" lon="11.6147"><ele>2005</ele><name>Mont Sëuc</name><sym>Summit</sym></wpt>
  <trk>
    <name>Alpe di Siusi Meadow Walk (Meadow paths)</name>
    <type>hiking</type>
    <trkseg>
      <trkpt lat="46.549902" lon="11.642544"><ele>1875</ele></trkpt>
      <trkpt lat="46.549893" lon="11.642389"><ele>1875</ele></trkpt>
      <trkpt lat="46.549902" lon="11.642092"><ele>1874</ele></trkpt>
      <trkpt lat="46.549939" lon="11.641852"><ele>1873</ele></trkpt>
      <trkpt lat="46.550009" lon="11.641585"><ele>1872</ele></trkpt>
      <trkpt lat="46.55003" lon="11.641473"><ele>1871</ele></trkpt>
      <trkpt lat="46.549993" lon="11.641406"><ele>1869</ele></trkpt>
      <trkpt lat="46.549923" lon="11.641385"><ele>1867</ele></trkpt>
      <trkpt lat="46.549854" lon="11.641345"><ele>1864</ele></trkpt>
      <trkpt lat="46.549794" lon="11.641249"><ele>1862</ele></trkpt>
      <trkpt lat="46.549662" lon="11.641121"><ele>1856</ele></trkpt>
      <trkpt lat="46.549589" lon="11.640941"><ele>1852</ele></trkpt>
      <trkpt lat="46.549538" lon="11.640795"><ele>1850</ele></trkpt>
      <trkpt lat="46.549472" lon="11.640546"><ele>1848</ele></trkpt>
      <trkpt lat="46.549479" lon="11.640401"><ele>1846</ele></trkpt>
      <trkpt lat="46.549501" lon="11.640225"><ele>1844</ele></trkpt>
      <trkpt lat="46.549534" lon="11.640037"><ele>1841</ele></trkpt>
      <trkpt lat="46.549525" lon="11.639981"><ele>1840</ele></trkpt>
      <trkpt lat="46.549518" lon="11.639863"><ele>1838</ele></trkpt>
      <trkpt lat="46.549516" lon="11.639697"><ele>1835</ele></trkpt>
      <trkpt lat="46.549474" lon="11.639606"><ele>1833</ele></trkpt>
      <trkpt lat="46.549405" lon="11.639483"><ele>1829</ele></trkpt>
      <trkpt lat="46.549382" lon="11.639454"><ele>1828</ele></trkpt>
      <trkpt lat="46.549365" lon="11.639272"><ele>1825</ele></trkpt>
      <trkpt lat="46.549337" lon="11.639202"><ele>1824</ele></trkpt>
      <trkpt lat="46.549266" lon="11.639106"><ele>1820</ele></trkpt>
      <trkpt lat="46.549227" lon="11.639031"><ele>1818</ele></trkpt>
      <trkpt lat="46.54921" lon="11.63898"><ele>1817</ele></trkpt>
      <trkpt lat="46.549194" lon="11.63844"><ele>1813</ele></trkpt>
      <trkpt lat="46.549158" lon="11.638187"><ele>1811</ele></trkpt>
      <trkpt lat="46.549137" lon="11.637906"><ele>1811</ele></trkpt>
      <trkpt lat="46.549047" lon="11.637774"><ele>1808</ele></trkpt>
      <trkpt lat="46.548927" lon="11.63757"><ele>1806</ele></trkpt>
      <trkpt lat="46.548906" lon="11.637451"><ele>1807</ele></trkpt>
      <trkpt lat="46.548921" lon="11.637256"><ele>1807</ele></trkpt>
      <trkpt lat="46.548906" lon="11.637039"><ele>1807</ele></trkpt>
      <trkpt lat="46.548854" lon="11.636843"><ele>1805</ele></trkpt>
      <trkpt lat="46.548821" lon="11.636516"><ele>1803</ele></trkpt>
      <trkpt lat="46.548821" lon="11.636384"><ele>1802</ele></trkpt>
      <trkpt lat="46.548743" lon="11.636223"><ele>1800</ele></trkpt>
      <trkpt lat="46.54855" lon="11.635921"><ele>1795</ele></trkpt>
      <trkpt lat="46.548421" lon="11.635555"><ele>1791</ele></trkpt>
      <trkpt lat="46.548289" lon="11.635428"><ele>1787</ele></trkpt>
      <trkpt lat="46.548243" lon="11.63536"><ele>1786</ele></trkpt>
      <trkpt lat="46.548202" lon="11.635236"><ele>1786</ele></trkpt>
      <trkpt lat="46.548161" lon="11.635215"><ele>1785</ele></trkpt>
      <trkpt lat="46.548123" lon="11.635266"><ele>1784</ele></trkpt>
      <trkpt lat="46.548155" lon="11.63567"><ele>1780</ele></trkpt>
      <trkpt lat="46.548196" lon="11.635823"><ele>1781</ele></trkpt>
      <trkpt lat="46.548184" lon="11.63587"><ele>1780</ele></trkpt>
      <trkpt lat="46.548155" lon="11.635895"><ele>1779</ele></trkpt>
      <trkpt lat="46.548123" lon="11.635861"><ele>1778</ele></trkpt>
      <trkpt lat="46.548026" lon="11.635653"><ele>1776</ele></trkpt>
      <trkpt lat="46.547851" lon="11.635474"><ele>1772</ele></trkpt>
      <trkpt lat="46.547655" lon="11.635198"><ele>1768</ele></trkpt>
      <trkpt lat="46.547573" lon="11.634908"><ele>1763</ele></trkpt>
      <trkpt lat="46.547504" lon="11.634987"><ele>1762</ele></trkpt>
      <trkpt lat="46.547381" lon="11.635088"><ele>1765</ele></trkpt>
      <trkpt lat="46.547246" lon="11.635236"><ele>1769</ele></trkpt>
      <trkpt lat="46.5472" lon="11.635306"><ele>1771</ele></trkpt>
      <trkpt lat="46.547126" lon="11.63542"><ele>1773</ele></trkpt>
      <trkpt lat="46.546888" lon="11.635775"><ele>1777</ele></trkpt>
      <trkpt lat="46.546864" lon="11.635811"><ele>1777</ele></trkpt>
      <trkpt lat="46.546796" lon="11.635879"><ele>1777</ele></trkpt>
      <trkpt lat="46.546705" lon="11.635708"><ele>1776</ele></trkpt>
      <trkpt lat="46.546608" lon="11.635359"><ele>1773</ele></trkpt>
      <trkpt lat="46.546576" lon="11.63516"><ele>1771</ele></trkpt>
      <trkpt lat="46.546598" lon="11.634905"><ele>1771</ele></trkpt>
      <trkpt lat="46.546631" lon="11.634788"><ele>1771</ele></trkpt>
      <trkpt lat="46.546639" lon="11.634723"><ele>1771</ele></trkpt>
      <trkpt lat="46.546644" lon="11.634591"><ele>1773</ele></trkpt>
      <trkpt lat="46.546675" lon="11.634413"><ele>1774</ele></trkpt>
      <trkpt lat="46.546679" lon="11.634371"><ele>1775</ele></trkpt>
      <trkpt lat="46.546676" lon="11.634336"><ele>1776</ele></trkpt>
      <trkpt lat="46.546668" lon="11.634314"><ele>1776</ele></trkpt>
      <trkpt lat="46.546636" lon="11.63428"><ele>1778</ele></trkpt>
      <trkpt lat="46.546618" lon="11.634242"><ele>1778</ele></trkpt>
      <trkpt lat="46.54659" lon="11.634209"><ele>1779</ele></trkpt>
      <trkpt lat="46.546541" lon="11.634176"><ele>1781</ele></trkpt>
      <trkpt lat="46.546454" lon="11.634091"><ele>1783</ele></trkpt>
      <trkpt lat="46.546403" lon="11.634052"><ele>1784</ele></trkpt>
      <trkpt lat="46.546341" lon="11.63397"><ele>1785</ele></trkpt>
      <trkpt lat="46.546176" lon="11.633851"><ele>1789</ele></trkpt>
      <trkpt lat="46.546086" lon="11.633739"><ele>1792</ele></trkpt>
      <trkpt lat="46.545994" lon="11.633658"><ele>1794</ele></trkpt>
      <trkpt lat="46.545977" lon="11.633619"><ele>1794</ele></trkpt>
      <trkpt lat="46.545975" lon="11.633601"><ele>1795</ele></trkpt>
      <trkpt lat="46.545983" lon="11.633561"><ele>1795</ele></trkpt>
      <trkpt lat="46.54607" lon="11.633339"><ele>1798</ele></trkpt>
      <trkpt lat="46.546098" lon="11.633278"><ele>1799</ele></trkpt>
      <trkpt lat="46.54612" lon="11.633253"><ele>1800</ele></trkpt>
      <trkpt lat="46.546183" lon="11.633099"><ele>1802</ele></trkpt>
      <trkpt lat="46.546256" lon="11.632883"><ele>1803</ele></trkpt>
      <trkpt lat="46.546183" lon="11.633099"><ele>1802</ele></trkpt>
      <trkpt lat="46.54612" lon="11.633253"><ele>1800</ele></trkpt>
      <trkpt lat="46.546098" lon="11.633278"><ele>1799</ele></trkpt>
      <trkpt lat="46.54607" lon="11.633339"><ele>1798</ele></trkpt>
      <trkpt lat="46.545983" lon="11.633561"><ele>1795</ele></trkpt>
      <trkpt lat="46.545975" lon="11.633601"><ele>1795</ele></trkpt>
      <trkpt lat="46.545977" lon="11.633619"><ele>1794</ele></trkpt>
      <trkpt lat="46.545994" lon="11.633658"><ele>1794</ele></trkpt>
      <trkpt lat="46.546086" lon="11.633739"><ele>1792</ele></trkpt>
      <trkpt lat="46.546176" lon="11.633851"><ele>1789</ele></trkpt>
      <trkpt lat="46.546341" lon="11.63397"><ele>1785</ele></trkpt>
      <trkpt lat="46.546403" lon="11.634052"><ele>1784</ele></trkpt>
      <trkpt lat="46.546454" lon="11.634091"><ele>1783</ele></trkpt>
      <trkpt lat="46.546541" lon="11.634176"><ele>1781</ele></trkpt>
      <trkpt lat="46.54659" lon="11.634209"><ele>1779</ele></trkpt>
      <trkpt lat="46.546618" lon="11.634242"><ele>1778</ele></trkpt>
      <trkpt lat="46.546636" lon="11.63428"><ele>1778</ele></trkpt>
      <trkpt lat="46.546668" lon="11.634314"><ele>1776</ele></trkpt>
      <trkpt lat="46.546676" lon="11.634336"><ele>1776</ele></trkpt>
      <trkpt lat="46.546679" lon="11.634371"><ele>1775</ele></trkpt>
      <trkpt lat="46.546675" lon="11.634413"><ele>1774</ele></trkpt>
      <trkpt lat="46.546644" lon="11.634591"><ele>1773</ele></trkpt>
      <trkpt lat="46.546639" lon="11.634723"><ele>1771</ele></trkpt>
      <trkpt lat="46.546631" lon="11.634788"><ele>1771</ele></trkpt>
      <trkpt lat="46.546598" lon="11.634905"><ele>1771</ele></trkpt>
      <trkpt lat="46.546576" lon="11.63516"><ele>1771</ele></trkpt>
      <trkpt lat="46.546608" lon="11.635359"><ele>1773</ele></trkpt>
      <trkpt lat="46.546705" lon="11.635708"><ele>1776</ele></trkpt>
      <trkpt lat="46.546796" lon="11.635879"><ele>1777</ele></trkpt>
      <trkpt lat="46.546864" lon="11.635811"><ele>1777</ele></trkpt>
      <trkpt lat="46.546888" lon="11.635775"><ele>1777</ele></trkpt>
      <trkpt lat="46.547126" lon="11.63542"><ele>1773</ele></trkpt>
      <trkpt lat="46.5472" lon="11.635306"><ele>1771</ele></trkpt>
      <trkpt lat="46.547246" lon="11.635236"><ele>1769</ele></trkpt>
      <trkpt lat="46.547381" lon="11.635088"><ele>1765</ele></trkpt>
      <trkpt lat="46.547504" lon="11.634987"><ele>1762</ele></trkpt>
      <trkpt lat="46.547573" lon="11.634908"><ele>1763</ele></trkpt>
      <trkpt lat="46.547587" lon="11.634868"><ele>1762</ele></trkpt>
      <trkpt lat="46.547668" lon="11.634502"><ele>1757</ele></trkpt>
      <trkpt lat="46.547913" lon="11.634229"><ele>1754</ele></trkpt>
      <trkpt lat="46.548038" lon="11.634025"><ele>1750</ele></trkpt>
      <trkpt lat="46.548118" lon="11.633842"><ele>1749</ele></trkpt>
      <trkpt lat="46.548099" lon="11.633491"><ele>1747</ele></trkpt>
      <trkpt lat="46.548293" lon="11.633151"><ele>1750</ele></trkpt>
      <trkpt lat="46.548545" lon="11.632886"><ele>1754</ele></trkpt>
      <trkpt lat="46.54862" lon="11.632794"><ele>1757</ele></trkpt>
      <trkpt lat="46.548698" lon="11.632602"><ele>1760</ele></trkpt>
      <trkpt lat="46.548825" lon="11.631918"><ele>1775</ele></trkpt>
      <trkpt lat="46.548857" lon="11.63168"><ele>1778</ele></trkpt>
      <trkpt lat="46.548827" lon="11.631487"><ele>1777</ele></trkpt>
      <trkpt lat="46.548754" lon="11.631272"><ele>1776</ele></trkpt>
      <trkpt lat="46.548665" lon="11.631056"><ele>1775</ele></trkpt>
      <trkpt lat="46.548604" lon="11.630826"><ele>1774</ele></trkpt>
      <trkpt lat="46.548488" lon="11.6307"><ele>1769</ele></trkpt>
      <trkpt lat="46.548258" lon="11.630646"><ele>1771</ele></trkpt>
      <trkpt lat="46.548113" lon="11.630536"><ele>1769</ele></trkpt>
      <trkpt lat="46.548037" lon="11.630434"><ele>1767</ele></trkpt>
      <trkpt lat="46.547954" lon="11.630246"><ele>1766</ele></trkpt>
      <trkpt lat="46.547954" lon="11.630138"><ele>1764</ele></trkpt>
      <trkpt lat="46.547943" lon="11.630003"><ele>1763</ele></trkpt>
      <trkpt lat="46.547884" lon="11.629878"><ele>1765</ele></trkpt>
      <trkpt lat="46.547856" lon="11.629794"><ele>1767</ele></trkpt>
      <trkpt lat="46.547854" lon="11.62975"><ele>1766</ele></trkpt>
      <trkpt lat="46.547855" lon="11.629677"><ele>1766</ele></trkpt>
      <trkpt lat="46.547884" lon="11.629504"><ele>1764</ele></trkpt>
      <trkpt lat="46.547887" lon="11.629438"><ele>1764</ele></trkpt>
      <trkpt lat="46.547869" lon="11.629371"><ele>1764</ele></trkpt>
      <trkpt lat="46.547856" lon="11.629336"><ele>1764</ele></trkpt>
      <trkpt lat="46.547758" lon="11.629233"><ele>1764</ele></trkpt>
      <trkpt lat="46.547682" lon="11.629121"><ele>1762</ele></trkpt>
      <trkpt lat="46.547645" lon="11.62904"><ele>1763</ele></trkpt>
      <trkpt lat="46.54757" lon="11.628938"><ele>1762</ele></trkpt>
      <trkpt lat="46.547522" lon="11.628916"><ele>1762</ele></trkpt>
      <trkpt lat="46.547487" lon="11.62891"><ele>1761</ele></trkpt>
      <trkpt lat="46.547448" lon="11.628883"><ele>1762</ele></trkpt>
      <trkpt lat="46.547396" lon="11.628794"><ele>1764</ele></trkpt>
      <trkpt lat="46.54744" lon="11.62865"><ele>1767</ele></trkpt>
      <trkpt lat="46.547505" lon="11.628625"><ele>1769</ele></trkpt>
      <trkpt lat="46.547554" lon="11.628595"><ele>1770</ele></trkpt>
      <trkpt lat="46.547603" lon="11.628536"><ele>1773</ele></trkpt>
      <trkpt lat="46.547627" lon="11.628485"><ele>1774</ele></trkpt>
      <trkpt lat="46.54768" lon="11.628336"><ele>1778</ele></trkpt>
      <trkpt lat="46.547711" lon="11.628293"><ele>1778</ele></trkpt>
      <trkpt lat="46.54775" lon="11.628269"><ele>1778</ele></trkpt>
      <trkpt lat="46.547778" lon="11.628222"><ele>1779</ele></trkpt>
      <trkpt lat="46.547781" lon="11.628196"><ele>1780</ele></trkpt>
      <trkpt lat="46.547771" lon="11.628139"><ele>1781</ele></trkpt>
      <trkpt lat="46.547762" lon="11.628125"><ele>1781</ele></trkpt>
      <trkpt lat="46.547742" lon="11.628114"><ele>1781</ele></trkpt>
      <trkpt lat="46.547717" lon="11.628114"><ele>1781</ele></trkpt>
      <trkpt lat="46.547581" lon="11.628204"><ele>1781</ele></trkpt>
      <trkpt lat="46.547468" lon="11.628241"><ele>1781</ele></trkpt>
      <trkpt lat="46.547411" lon="11.628236"><ele>1781</ele></trkpt>
      <trkpt lat="46.547366" lon="11.62821"><ele>1782</ele></trkpt>
      <trkpt lat="46.547326" lon="11.628172"><ele>1783</ele></trkpt>
      <trkpt lat="46.547261" lon="11.628076"><ele>1787</ele></trkpt>
      <trkpt lat="46.547238" lon="11.628027"><ele>1788</ele></trkpt>
      <trkpt lat="46.547186" lon="11.627823"><ele>1790</ele></trkpt>
      <trkpt lat="46.547065" lon="11.62758"><ele>1792</ele></trkpt>
      <trkpt lat="46.547021" lon="11.627474"><ele>1794</ele></trkpt>
      <trkpt lat="46.546927" lon="11.627293"><ele>1797</ele></trkpt>
      <trkpt lat="46.546881" lon="11.627148"><ele>1797</ele></trkpt>
      <trkpt lat="46.546868" lon="11.626925"><ele>1797</ele></trkpt>
      <trkpt lat="46.546855" lon="11.626828"><ele>1798</ele></trkpt>
      <trkpt lat="46.546797" lon="11.626618"><ele>1799</ele></trkpt>
      <trkpt lat="46.546793" lon="11.626529"><ele>1799</ele></trkpt>
      <trkpt lat="46.546791" lon="11.626157"><ele>1800</ele></trkpt>
      <trkpt lat="46.546776" lon="11.626089"><ele>1800</ele></trkpt>
      <trkpt lat="46.546593" lon="11.625575"><ele>1799</ele></trkpt>
      <trkpt lat="46.546549" lon="11.625434"><ele>1799</ele></trkpt>
      <trkpt lat="46.546535" lon="11.625348"><ele>1800</ele></trkpt>
      <trkpt lat="46.546534" lon="11.625008"><ele>1802</ele></trkpt>
      <trkpt lat="46.546522" lon="11.624931"><ele>1802</ele></trkpt>
      <trkpt lat="46.546435" lon="11.624627"><ele>1804</ele></trkpt>
      <trkpt lat="46.546296" lon="11.624061"><ele>1807</ele></trkpt>
      <trkpt lat="46.546167" lon="11.623814"><ele>1807</ele></trkpt>
      <trkpt lat="46.546038" lon="11.623627"><ele>1807</ele></trkpt>
      <trkpt lat="46.545957" lon="11.623529"><ele>1807</ele></trkpt>
      <trkpt lat="46.545897" lon="11.623577"><ele>1805</ele></trkpt>
      <trkpt lat="46.545763" lon="11.623664"><ele>1803</ele></trkpt>
      <trkpt lat="46.545709" lon="11.623679"><ele>1802</ele></trkpt>
      <trkpt lat="46.545657" lon="11.623655"><ele>1802</ele></trkpt>
      <trkpt lat="46.545518" lon="11.623496"><ele>1801</ele></trkpt>
      <trkpt lat="46.545477" lon="11.623483"><ele>1800</ele></trkpt>
      <trkpt lat="46.545441" lon="11.623494"><ele>1800</ele></trkpt>
      <trkpt lat="46.545385" lon="11.623534"><ele>1798</ele></trkpt>
      <trkpt lat="46.5453" lon="11.62361"><ele>1795</ele></trkpt>
      <trkpt lat="46.545195" lon="11.623589"><ele>1796</ele></trkpt>
      <trkpt lat="46.544926" lon="11.623849"><ele>1799</ele></trkpt>
      <trkpt lat="46.54489" lon="11.623862"><ele>1800</ele></trkpt>
      <trkpt lat="46.544813" lon="11.623844"><ele>1801</ele></trkpt>
      <trkpt lat="46.544697" lon="11.623878"><ele>1802</ele></trkpt>
      <trkpt lat="46.544633" lon="11.623771"><ele>1802</ele></trkpt>
      <trkpt lat="46.544485" lon="11.623562"><ele>1804</ele></trkpt>
      <trkpt lat="46.544434" lon="11.62347"><ele>1805</ele></trkpt>
      <trkpt lat="46.544389" lon="11.623367"><ele>1805</ele></trkpt>
      <trkpt lat="46.544345" lon="11.62332"><ele>1806</ele></trkpt>
      <trkpt lat="46.544049" lon="11.623064"><ele>1808</ele></trkpt>
      <trkpt lat="46.543932" lon="11.622935"><ele>1809</ele></trkpt>
      <trkpt lat="46.543683" lon="11.622623"><ele>1811</ele></trkpt>
      <trkpt lat="46.54355" lon="11.622358"><ele>1812</ele></trkpt>
      <trkpt lat="46.543451" lon="11.62227"><ele>1813</ele></trkpt>
      <trkpt lat="46.543215" lon="11.622095"><ele>1814</ele></trkpt>
      <trkpt lat="46.543174" lon="11.622051"><ele>1815</ele></trkpt>
      <trkpt lat="46.543077" lon="11.621923"><ele>1816</ele></trkpt>
      <trkpt lat="46.543003" lon="11.621806"><ele>1817</ele></trkpt>
      <trkpt lat="46.542972" lon="11.621745"><ele>1818</ele></trkpt>
      <trkpt lat="46.542906" lon="11.621516"><ele>1820</ele></trkpt>
      <trkpt lat="46.542858" lon="11.621363"><ele>1822</ele></trkpt>
      <trkpt lat="46.542745" lon="11.621061"><ele>1827</ele></trkpt>
      <trkpt lat="46.542736" lon="11.620952"><ele>1828</ele></trkpt>
      <trkpt lat="46.542735" lon="11.620845"><ele>1829</ele></trkpt>
      <trkpt lat="46.542719" lon="11.620684"><ele>1830</ele></trkpt>
      <trkpt lat="46.542677" lon="11.620503"><ele>1831</ele></trkpt>
      <trkpt lat="46.542671" lon="11.620448"><ele>1832</ele></trkpt>
      <trkpt lat="46.542674" lon="11.620265"><ele>1833</ele></trkpt>
      <trkpt lat="46.542718" lon="11.620033"><ele>1835</ele></trkpt>
      <trkpt lat="46.542747" lon="11.619598"><ele>1838</ele></trkpt>
      <trkpt lat="46.542789" lon="11.619354"><ele>1840</ele></trkpt>
      <trkpt lat="46.542796" lon="11.619284"><ele>1840</ele></trkpt>
      <trkpt lat="46.542815" lon="11.618752"><ele>1845</ele></trkpt>
      <trkpt lat="46.5428" lon="11.618707"><ele>1846</ele></trkpt>
      <trkpt lat="46.54278" lon="11.618684"><ele>1846</ele></trkpt>
      <trkpt lat="46.542632" lon="11.618558"><ele>1849</ele></trkpt>
      <trkpt lat="46.542599" lon="11.618515"><ele>1850</ele></trkpt>
      <trkpt lat="46.542515" lon="11.618367"><ele>1851</ele></trkpt>
      <trkpt lat="46.542454" lon="11.618194"><ele>1851</ele></trkpt>
      <trkpt lat="46.542406" lon="11.618216"><ele>1851</ele></trkpt>
      <trkpt lat="46.54237" lon="11.61822"><ele>1851</ele></trkpt>
      <trkpt lat="46.542311" lon="11.618203"><ele>1851</ele></trkpt>
      <trkpt lat="46.542192" lon="11.618155"><ele>1851</ele></trkpt>
      <trkpt lat="46.542122" lon="11.618081"><ele>1850</ele></trkpt>
      <trkpt lat="46.5421" lon="11.618042"><ele>1850</ele></trkpt>
      <trkpt lat="46.542063" lon="11.617934"><ele>1849</ele></trkpt>
      <trkpt lat="46.542039" lon="11.617842"><ele>1848</ele></trkpt>
      <trkpt lat="46.542022" lon="11.617757"><ele>1848</ele></trkpt>
      <trkpt lat="46.542012" lon="11.617654"><ele>1848</ele></trkpt>
      <trkpt lat="46.541703" lon="11.617515"><ele>1847</ele></trkpt>
      <trkpt lat="46.541598" lon="11.617495"><ele>1847</ele></trkpt>
      <trkpt lat="46.54147" lon="11.617521"><ele>1847</ele></trkpt>
      <trkpt lat="46.541499" lon="11.617447"><ele>1847</ele></trkpt>
      <trkpt lat="46.541552" lon="11.617414"><ele>1847</ele></trkpt>
      <trkpt lat="46.541673" lon="11.61739"><ele>1847</ele></trkpt>
      <trkpt lat="46.541704" lon="11.617367"><ele>1847</ele></trkpt>
      <trkpt lat="46.541787" lon="11.617239"><ele>1847</ele></trkpt>
      <trkpt lat="46.541809" lon="11.617184"><ele>1848</ele></trkpt>
      <trkpt lat="46.541818" lon="11.617118"><ele>1848</ele></trkpt>
      <trkpt lat="46.541818" lon="11.617036"><ele>1849</ele></trkpt>
      <trkpt lat="46.541768" lon="11.61676"><ele>1850</ele></trkpt>
      <trkpt lat="46.541698" lon="11.616422"><ele>1851</ele></trkpt>
      <trkpt lat="46.541695" lon="11.616371"><ele>1851</ele></trkpt>
      <trkpt lat="46.541701" lon="11.616296"><ele>1851</ele></trkpt>
      <trkpt lat="46.541717" lon="11.616241"><ele>1851</ele></trkpt>
      <trkpt lat="46.541754" lon="11.616166"><ele>1851</ele></trkpt>
      <trkpt lat="46.541768" lon="11.616116"><ele>1851</ele></trkpt>
      <trkpt lat="46.541778" lon="11.616059"><ele>1851</ele></trkpt>
      <trkpt lat="46.541777" lon="11.615996"><ele>1851</ele></trkpt>
      <trkpt lat="46.541765" lon="11.61593"><ele>1851</ele></trkpt>
      <trkpt lat="46.541738" lon="11.615875"><ele>1851</ele></trkpt>
      <trkpt lat="46.541597" lon="11.615789"><ele>1851</ele></trkpt>
      <trkpt lat="46.5415" lon="11.615788"><ele>1850</ele></trkpt>
      <trkpt lat="46.541406" lon="11.615695"><ele>1849</ele></trkpt>
      <trkpt lat="46.54139" lon="11.615548"><ele>1850</ele></trkpt>
    </trkseg>
  </trk>
</gpx>
