<?xml version="1.0" encoding="UTF-8"?>
<gpx version="1.1" creator="hike-trip" xmlns="http://www.topografix.com/GPX/1/1">
  <metadata>
    <name>Giro delle Cinque Torri</name>
    <desc>Routed with BRouter (hiking-mountain) over OpenStreetMap data through hand-verified anchor points. Schematic in places — verify against signage on the ground.</desc>
    <copyright author="OpenStreetMap contributors"><license>https://www.openstreetmap.org/copyright</license></copyright>
    <bounds minlat="46.50783" minlon="12.046724" maxlat="46.509525" maxlon="12.054856"/>
  </metadata>
  <wpt lat="46.5081" lon="12.0468"><name>Trailhead — Giro delle Cinque Torri</name><sym>Trail Head</sym></wpt>
  <wpt lat="46.5089" lon="12.0519"><ele>2255</ele><name>Rifugio Scoiattoli</name><sym>Summit</sym></wpt>
  <trk>
    <name>Giro delle Cinque Torri (No. 439 / 440 / 425)</name>
    <type>hiking</type>
    <trkseg>
      <trkpt lat="46.508194" lon="12.046724"><ele>2254</ele></trkpt>
      <trkpt lat="46.508233" lon="12.046828"><ele>2254</ele></trkpt>
      <trkpt lat="46.508238" lon="12.046924"><ele>2253</ele></trkpt>
      <trkpt lat="46.508431" lon="12.047071"><ele>2249</ele></trkpt>
      <trkpt lat="46.508561" lon="12.04725"><ele>2246</ele></trkpt>
      <trkpt lat="46.508684" lon="12.047391"><ele>2244</ele></trkpt>
      <trkpt lat="46.508778" lon="12.047425"><ele>2243</ele></trkpt>
      <trkpt lat="46.508897" lon="12.047526"><ele>2242</ele></trkpt>
      <trkpt lat="46.508977" lon="12.04757"><ele>2242</ele></trkpt>
      <trkpt lat="46.5091" lon="12.047666"><ele>2242</ele></trkpt>
      <trkpt lat="46.509225" lon="12.047707"><ele>2241</ele></trkpt>
      <trkpt lat="46.509296" lon="12.04769"><ele>2239</ele></trkpt>
      <trkpt lat="46.509334" lon="12.047665"><ele>2239</ele></trkpt>
      <trkpt lat="46.509457" lon="12.047689"><ele>2237</ele></trkpt>
      <trkpt lat="46.509481" lon="12.047767"><ele>2236</ele></trkpt>
      <trkpt lat="46.509525" lon="12.047807"><ele>2236</ele></trkpt>
      <trkpt lat="46.509386" lon="12.047982"><ele>2233</ele></trkpt>
      <trkpt lat="46.509285" lon="12.048128"><ele>2233</ele></trkpt>
      <trkpt lat="46.509174" lon="12.048251"><ele>2233</ele></trkpt>
      <trkpt lat="46.509108" lon="12.048486"><ele>2230</ele></trkpt>
      <trkpt lat="46.509073" lon="12.048748"><ele>2225</ele></trkpt>
      <trkpt lat="46.509036" lon="12.048952"><ele>2224</ele></trkpt>
      <trkpt lat="46.508959" lon="12.049014"><ele>2226</ele></trkpt>
      <trkpt lat="46.508891" lon="12.049055"><ele>2228</ele></trkpt>
      <trkpt lat="46.508855" lon="12.049102"><ele>2230</ele></trkpt>
      <trkpt lat="46.508824" lon="12.049164"><ele>2231</ele></trkpt>
      <trkpt lat="46.508782" lon="12.049396"><ele>2235</ele></trkpt>
      <trkpt lat="46.508722" lon="12.049471"><ele>2237</ele></trkpt>
      <trkpt lat="46.508626" lon="12.049489"><ele>2238</ele></trkpt>
      <trkpt lat="46.508719" lon="12.049696"><ele>2239</ele></trkpt>
      <trkpt lat="46.508725" lon="12.049931"><ele>2241</ele></trkpt>
      <trkpt lat="46.508761" lon="12.049988"><ele>2242</ele></trkpt>
      <trkpt lat="46.508832" lon="12.050072"><ele>2243</ele></trkpt>
      <trkpt lat="46.508873" lon="12.050292"><ele>2247</ele></trkpt>
      <trkpt lat="46.508881" lon="12.050494"><ele>2266</ele></trkpt>
      <trkpt lat="46.50892" lon="12.050665"><ele>2280</ele></trkpt>
      <trkpt lat="46.50895" lon="12.050783"><ele>2290</ele></trkpt>
      <trkpt lat="46.509001" lon="12.050808"><ele>2289</ele></trkpt>
      <trkpt lat="46.509207" lon="12.050872"><ele>2286</ele></trkpt>
      <trkpt lat="46.509251" lon="12.05103"><ele>2295</ele></trkpt>
      <trkpt lat="46.509278" lon="12.051109"><ele>2298</ele></trkpt>
      <trkpt lat="46.509308" lon="12.051138"><ele>2298</ele></trkpt>
      <trkpt lat="46.509347" lon="12.051154"><ele>2296</ele></trkpt>
      <trkpt lat="46.509381" lon="12.051186"><ele>2295</ele></trkpt>
      <trkpt lat="46.509401" lon="12.051235"><ele>2293</ele></trkpt>
      <trkpt lat="46.5094" lon="12.051411"><ele>2296</ele></trkpt>
      <trkpt lat="46.509424" lon="12.051707"><ele>2298</ele></trkpt>
      <trkpt lat="46.509414" lon="12.05182"><ele>2298</ele></trkpt>
      <trkpt lat="46.50941" lon="12.051868"><ele>2298</ele></trkpt>
      <trkpt lat="46.509388" lon="12.051981"><ele>2294</ele></trkpt>
      <trkpt lat="46.509363" lon="12.052056"><ele>2285</ele></trkpt>
      <trkpt lat="46.509308" lon="12.05214"><ele>2275</ele></trkpt>
      <trkpt lat="46.509198" lon="12.052188"><ele>2272</ele></trkpt>
      <trkpt lat="46.509139" lon="12.052262"><ele>2266</ele></trkpt>
      <trkpt lat="46.509019" lon="12.052363"><ele>2263</ele></trkpt>
      <trkpt lat="46.50897" lon="12.052379"><ele>2262</ele></trkpt>
      <trkpt lat="46.50892" lon="12.052379"><ele>2265</ele></trkpt>
      <trkpt lat="46.508784" lon="12.052315"><ele>2262</ele></trkpt>
      <trkpt lat="46.508754" lon="12.05229"><ele>2260</ele></trkpt>
      <trkpt lat="46.508701" lon="12.052207"><ele>2260</ele></trkpt>
      <trkpt lat="46.508655" lon="12.052097"><ele>2262</ele></trkpt>
      <trkpt lat="46.508631" lon="12.051994"><ele>2269</ele></trkpt>
      <trkpt lat="46.508638" lon="12.051971"><ele>2274</ele></trkpt>
      <trkpt lat="46.508631" lon="12.051994"><ele>2269</ele></trkpt>
      <trkpt lat="46.508655" lon="12.052097"><ele>2262</ele></trkpt>
      <trkpt lat="46.508701" lon="12.052207"><ele>2260</ele></trkpt>
      <trkpt lat="46.508657" lon="12.052225"><ele>2245</ele></trkpt>
      <trkpt lat="46.508608" lon="12.052258"><ele>2229</ele></trkpt>
      <trkpt lat="46.508571" lon="12.052256"><ele>2225</ele></trkpt>
      <trkpt lat="46.508594" lon="12.052693"><ele>2204</ele></trkpt>
      <trkpt lat="46.508598" lon="12.052909"><ele>2197</ele></trkpt>
      <trkpt lat="46.508621" lon="12.053062"><ele>2195</ele></trkpt>
      <trkpt lat="46.50864" lon="12.053128"><ele>2194</ele></trkpt>
      <trkpt lat="46.508654" lon="12.053267"><ele>2191</ele></trkpt>
      <trkpt lat="46.50868" lon="12.053326"><ele>2191</ele></trkpt>
      <trkpt lat="46.508669" lon="12.053344"><ele>2190</ele></trkpt>
      <trkpt lat="46.508602" lon="12.053281"><ele>2187</ele></trkpt>
      <trkpt lat="46.508572" lon="12.053235"><ele>2186</ele></trkpt>
      <trkpt lat="46.508549" lon="12.053229"><ele>2185</ele></trkpt>
      <trkpt lat="46.508546" lon="12.053273"><ele>2184</ele></trkpt>
      <trkpt lat="46.508586" lon="12.053368"><ele>2183</ele></trkpt>
      <trkpt lat="46.508612" lon="12.053378"><ele>2185</ele></trkpt>
      <trkpt lat="46.508624" lon="12.053394"><ele>2185</ele></trkpt>
      <trkpt lat="46.508606" lon="12.053424"><ele>2183</ele></trkpt>
      <trkpt lat="46.508668" lon="12.053664"><ele>2179</ele></trkpt>
      <trkpt lat="46.50877" lon="12.05388"><ele>2177</ele></trkpt>
      <trkpt lat="46.508832" lon="12.054073"><ele>2174</ele></trkpt>
      <trkpt lat="46.508914" lon="12.054258"><ele>2172</ele></trkpt>
      <trkpt lat="46.508959" lon="12.054413"><ele>2169</ele></trkpt>
      <trkpt lat="46.508931" lon="12.054444"><ele>2167</ele></trkpt>
      <trkpt lat="46.508915" lon="12.054397"><ele>2168</ele></trkpt>
      <trkpt lat="46.508884" lon="12.054343"><ele>2168</ele></trkpt>
      <trkpt lat="46.508799" lon="12.054234"><ele>2167</ele></trkpt>
      <trkpt lat="46.508724" lon="12.054168"><ele>2165</ele></trkpt>
      <trkpt lat="46.50865" lon="12.054081"><ele>2164</ele></trkpt>
      <trkpt lat="46.508616" lon="12.054059"><ele>2163</ele></trkpt>
      <trkpt lat="46.508598" lon="12.054061"><ele>2162</ele></trkpt>
      <trkpt lat="46.508621" lon="12.054176"><ele>2159</ele></trkpt>
      <trkpt lat="46.508646" lon="12.054204"><ele>2160</ele></trkpt>
      <trkpt lat="46.508692" lon="12.054301"><ele>2159</ele></trkpt>
      <trkpt lat="46.508713" lon="12.05443"><ele>2156</ele></trkpt>
      <trkpt lat="46.508694" lon="12.054434"><ele>2155</ele></trkpt>
      <trkpt lat="46.508662" lon="12.054411"><ele>2154</ele></trkpt>
      <trkpt lat="46.508556" lon="12.054286"><ele>2154</ele></trkpt>
      <trkpt lat="46.50854" lon="12.054309"><ele>2152</ele></trkpt>
      <trkpt lat="46.508549" lon="12.054408"><ele>2150</ele></trkpt>
      <trkpt lat="46.508604" lon="12.054584"><ele>2147</ele></trkpt>
      <trkpt lat="46.508588" lon="12.054627"><ele>2146</ele></trkpt>
      <trkpt lat="46.508546" lon="12.054632"><ele>2144</ele></trkpt>
      <trkpt lat="46.508484" lon="12.054539"><ele>2145</ele></trkpt>
      <trkpt lat="46.508447" lon="12.054578"><ele>2143</ele></trkpt>
      <trkpt lat="46.508415" lon="12.054593"><ele>2142</ele></trkpt>
      <trkpt lat="46.508333" lon="12.054557"><ele>2141</ele></trkpt>
      <trkpt lat="46.508239" lon="12.054492"><ele>2141</ele></trkpt>
      <trkpt lat="46.508198" lon="12.054489"><ele>2140</ele></trkpt>
      <trkpt lat="46.508153" lon="12.054569"><ele>2138</ele></trkpt>
      <trkpt lat="46.508105" lon="12.054664"><ele>2136</ele></trkpt>
      <trkpt lat="46.508094" lon="12.054718"><ele>2135</ele></trkpt>
      <trkpt lat="46.508098" lon="12.054774"><ele>2135</ele></trkpt>
      <trkpt lat="46.508167" lon="12.054856"><ele>2136</ele></trkpt>
      <trkpt lat="46.508098" lon="12.054774"><ele>2135</ele></trkpt>
      <trkpt lat="46.508094" lon="12.054718"><ele>2135</ele></trkpt>
      <trkpt lat="46.508105" lon="12.054664"><ele>2136</ele></trkpt>
      <trkpt lat="46.508153" lon="12.054569"><ele>2138</ele></trkpt>
      <trkpt lat="46.508185" lon="12.054403"><ele>2141</ele></trkpt>
      <trkpt lat="46.508205" lon="12.054199"><ele>2146</ele></trkpt>
      <trkpt lat="46.508127" lon="12.054055"><ele>2147</ele></trkpt>
      <trkpt lat="46.507962" lon="12.053553"><ele>2149</ele></trkpt>
      <trkpt lat="46.50791" lon="12.053407"><ele>2150</ele></trkpt>
      <trkpt lat="46.507891" lon="12.053233"><ele>2151</ele></trkpt>
      <trkpt lat="46.50789" lon="12.053073"><ele>2153</ele></trkpt>
      <trkpt lat="46.507918" lon="12.052888"><ele>2157</ele></trkpt>
      <trkpt lat="46.507924" lon="12.052685"><ele>2161</ele></trkpt>
      <trkpt lat="46.507944" lon="12.052635"><ele>2163</ele></trkpt>
      <trkpt lat="46.507926" lon="12.052319"><ele>2171</ele></trkpt>
      <trkpt lat="46.507897" lon="12.052191"><ele>2173</ele></trkpt>
      <trkpt lat="46.507872" lon="12.051818"><ele>2182</ele></trkpt>
      <trkpt lat="46.507876" lon="12.051703"><ele>2186</ele></trkpt>
      <trkpt lat="46.507832" lon="12.051384"><ele>2192</ele></trkpt>
      <trkpt lat="46.50783" lon="12.051254"><ele>2195</ele></trkpt>
      <trkpt lat="46.507838" lon="12.051023"><ele>2199</ele></trkpt>
      <trkpt lat="46.507843" lon="12.050982"><ele>2202</ele></trkpt>
      <trkpt lat="46.507861" lon="12.050867"><ele>2202</ele></trkpt>
      <trkpt lat="46.50788" lon="12.050809"><ele>2203</ele></trkpt>
      <trkpt lat="46.507892" lon="12.05067"><ele>2205</ele></trkpt>
      <trkpt lat="46.50794" lon="12.050545"><ele>2209</ele></trkpt>
      <trkpt lat="46.50796" lon="12.050435"><ele>2211</ele></trkpt>
      <trkpt lat="46.50797" lon="12.050426"><ele>2212</ele></trkpt>
      <trkpt lat="46.507999" lon="12.050365"><ele>2214</ele></trkpt>
      <trkpt lat="46.508022" lon="12.050247"><ele>2217</ele></trkpt>
      <trkpt lat="46.508103" lon="12.050133"><ele>2222</ele></trkpt>
      <trkpt lat="46.508098" lon="12.050003"><ele>2224</ele></trkpt>
      <trkpt lat="46.508109" lon="12.049819"><ele>2227</ele></trkpt>
      <trkpt lat="46.508126" lon="12.049734"><ele>2229</ele></trkpt>
      <trkpt lat="46.50815" lon="12.04966"><ele>2230</ele></trkpt>
      <trkpt lat="46.508181" lon="12.049616"><ele>2231</ele></trkpt>
      <trkpt lat="46.508218" lon="12.049583"><ele>2232</ele></trkpt>
      <trkpt lat="46.508248" lon="12.049531"><ele>2232</ele></trkpt>
      <trkpt lat="46.508258" lon="12.049457"><ele>2233</ele></trkpt>
      <trkpt lat="46.508285" lon="12.049375"><ele>2234</ele></trkpt>
      <trkpt lat="46.508301" lon="12.049274"><ele>2235</ele></trkpt>
      <trkpt lat="46.50829" lon="12.049131"><ele>2236</ele></trkpt>
      <trkpt lat="46.508242" lon="12.048873"><ele>2238</ele></trkpt>
      <trkpt lat="46.508175" lon="12.048339"><ele>2245</ele></trkpt>
      <trkpt lat="46.50815" lon="12.04792"><ele>2248</ele></trkpt>
      <trkpt lat="46.508138" lon="12.047544"><ele>2250</ele></trkpt>
      <trkpt lat="46.508102" lon="12.047117"><ele>2255</ele></trkpt>
      <trkpt lat="46.508123" lon="12.047054"><ele>2254</ele></trkpt>
      <trkpt lat="46.508238" lon="12.046924"><ele>2253</ele></trkpt>
      <trkpt lat="46.508233" lon="12.046828"><ele>2254</ele></trkpt>
      <trkpt lat="46.508194" lon="12.046724"><ele>2255</ele></trkpt>
    </trkseg>
  </trk>
</gpx>
