<?xml version="1.0" encoding="UTF-8"?>
<gpx version="1.1" creator="hike-trip" xmlns="http://www.topografix.com/GPX/1/1">
  <metadata>
    <name>Col de la Puina</name>
    <desc>Routed with BRouter (hiking-mountain) over OpenStreetMap data through hand-verified anchor points. Schematic in places — verify against signage on the ground. Track traces one direction — return the same way.</desc>
    <copyright author="OpenStreetMap contributors"><license>https://www.openstreetmap.org/copyright</license></copyright>
    <bounds minlat="46.42836" minlon="12.113652" maxlat="46.443594" maxlon="12.130299"/>
  </metadata>
  <wpt lat="46.4283" lon="12.1139"><name>Trailhead — Col de la Puina</name><sym>Trail Head</sym></wpt>
  <wpt lat="46.4436" lon="12.1303"><ele>2254</ele><name>Col de la Puina</name><sym>Summit</sym></wpt>
  <trk>
    <name>Col de la Puina (CAI 467 + ridge)</name>
    <type>hiking</type>
    <trkseg>
      <trkpt lat="46.42836" lon="12.113853"><ele>1667</ele></trkpt>
      <trkpt lat="46.428446" lon="12.11409"><ele>1669</ele></trkpt>
      <trkpt lat="46.428615" lon="12.114342"><ele>1671</ele></trkpt>
      <trkpt lat="46.428702" lon="12.114507"><ele>1673</ele></trkpt>
      <trkpt lat="46.428972" lon="12.11481"><ele>1676</ele></trkpt>
      <trkpt lat="46.429307" lon="12.114947"><ele>1676</ele></trkpt>
      <trkpt lat="46.42941" lon="12.115071"><ele>1677</ele></trkpt>
      <trkpt lat="46.429584" lon="12.115747"><ele>1680</ele></trkpt>
      <trkpt lat="46.429633" lon="12.116191"><ele>1684</ele></trkpt>
      <trkpt lat="46.429697" lon="12.116428"><ele>1686</ele></trkpt>
      <trkpt lat="46.429781" lon="12.116485"><ele>1686</ele></trkpt>
      <trkpt lat="46.43001" lon="12.116504"><ele>1685</ele></trkpt>
      <trkpt lat="46.430099" lon="12.116573"><ele>1686</ele></trkpt>
      <trkpt lat="46.43018" lon="12.116758"><ele>1689</ele></trkpt>
      <trkpt lat="46.430222" lon="12.116991"><ele>1692</ele></trkpt>
      <trkpt lat="46.430259" lon="12.117119"><ele>1694</ele></trkpt>
      <trkpt lat="46.43031" lon="12.117164"><ele>1696</ele></trkpt>
      <trkpt lat="46.430559" lon="12.117114"><ele>1698</ele></trkpt>
      <trkpt lat="46.430661" lon="12.117018"><ele>1700</ele></trkpt>
      <trkpt lat="46.430814" lon="12.116768"><ele>1703</ele></trkpt>
      <trkpt lat="46.430866" lon="12.116714"><ele>1703</ele></trkpt>
      <trkpt lat="46.43097" lon="12.116664"><ele>1705</ele></trkpt>
      <trkpt lat="46.431087" lon="12.116594"><ele>1707</ele></trkpt>
      <trkpt lat="46.431191" lon="12.116558"><ele>1708</ele></trkpt>
      <trkpt lat="46.431276" lon="12.116546"><ele>1708</ele></trkpt>
      <trkpt lat="46.431353" lon="12.1166"><ele>1709</ele></trkpt>
      <trkpt lat="46.431431" lon="12.11668"><ele>1711</ele></trkpt>
      <trkpt lat="46.431492" lon="12.11673"><ele>1712</ele></trkpt>
      <trkpt lat="46.431621" lon="12.116929"><ele>1715</ele></trkpt>
      <trkpt lat="46.431697" lon="12.117007"><ele>1717</ele></trkpt>
      <trkpt lat="46.431749" lon="12.117004"><ele>1717</ele></trkpt>
      <trkpt lat="46.431807" lon="12.116989"><ele>1718</ele></trkpt>
      <trkpt lat="46.431854" lon="12.116895"><ele>1718</ele></trkpt>
      <trkpt lat="46.431881" lon="12.116781"><ele>1719</ele></trkpt>
      <trkpt lat="46.432193" lon="12.116286"><ele>1724</ele></trkpt>
      <trkpt lat="46.432265" lon="12.116162"><ele>1725</ele></trkpt>
      <trkpt lat="46.432342" lon="12.115981"><ele>1726</ele></trkpt>
      <trkpt lat="46.432418" lon="12.115728"><ele>1728</ele></trkpt>
      <trkpt lat="46.432468" lon="12.115626"><ele>1731</ele></trkpt>
      <trkpt lat="46.432593" lon="12.115548"><ele>1734</ele></trkpt>
      <trkpt lat="46.432659" lon="12.115542"><ele>1735</ele></trkpt>
      <trkpt lat="46.432779" lon="12.115487"><ele>1737</ele></trkpt>
      <trkpt lat="46.433035" lon="12.115346"><ele>1741</ele></trkpt>
      <trkpt lat="46.433144" lon="12.115296"><ele>1742</ele></trkpt>
      <trkpt lat="46.43327" lon="12.115267"><ele>1744</ele></trkpt>
      <trkpt lat="46.433381" lon="12.115261"><ele>1745</ele></trkpt>
      <trkpt lat="46.43346" lon="12.115224"><ele>1746</ele></trkpt>
      <trkpt lat="46.433557" lon="12.115243"><ele>1748</ele></trkpt>
      <trkpt lat="46.433613" lon="12.115271"><ele>1749</ele></trkpt>
      <trkpt lat="46.433692" lon="12.115348"><ele>1751</ele></trkpt>
      <trkpt lat="46.433819" lon="12.115533"><ele>1753</ele></trkpt>
      <trkpt lat="46.433861" lon="12.115631"><ele>1754</ele></trkpt>
      <trkpt lat="46.433931" lon="12.115725"><ele>1756</ele></trkpt>
      <trkpt lat="46.433953" lon="12.115745"><ele>1756</ele></trkpt>
      <trkpt lat="46.433994" lon="12.115783"><ele>1757</ele></trkpt>
      <trkpt lat="46.434009" lon="12.115798"><ele>1757</ele></trkpt>
      <trkpt lat="46.434103" lon="12.115844"><ele>1758</ele></trkpt>
      <trkpt lat="46.43417" lon="12.115914"><ele>1760</ele></trkpt>
      <trkpt lat="46.434282" lon="12.116233"><ele>1762</ele></trkpt>
      <trkpt lat="46.434342" lon="12.11638"><ele>1763</ele></trkpt>
      <trkpt lat="46.434434" lon="12.116447"><ele>1763</ele></trkpt>
      <trkpt lat="46.434593" lon="12.116448"><ele>1764</ele></trkpt>
      <trkpt lat="46.434674" lon="12.116521"><ele>1765</ele></trkpt>
      <trkpt lat="46.434799" lon="12.116837"><ele>1769</ele></trkpt>
      <trkpt lat="46.434854" lon="12.116934"><ele>1770</ele></trkpt>
      <trkpt lat="46.434913" lon="12.117162"><ele>1773</ele></trkpt>
      <trkpt lat="46.434983" lon="12.117303"><ele>1775</ele></trkpt>
      <trkpt lat="46.43506" lon="12.117412"><ele>1778</ele></trkpt>
      <trkpt lat="46.435202" lon="12.117438"><ele>1779</ele></trkpt>
      <trkpt lat="46.435289" lon="12.117434"><ele>1780</ele></trkpt>
      <trkpt lat="46.435406" lon="12.11731"><ele>1783</ele></trkpt>
      <trkpt lat="46.435515" lon="12.117159"><ele>1785</ele></trkpt>
      <trkpt lat="46.435563" lon="12.117038"><ele>1785</ele></trkpt>
      <trkpt lat="46.435717" lon="12.116815"><ele>1786</ele></trkpt>
      <trkpt lat="46.435962" lon="12.116558"><ele>1789</ele></trkpt>
      <trkpt lat="46.436184" lon="12.11617"><ele>1792</ele></trkpt>
      <trkpt lat="46.436234" lon="12.116054"><ele>1793</ele></trkpt>
      <trkpt lat="46.436304" lon="12.115956"><ele>1795</ele></trkpt>
      <trkpt lat="46.436364" lon="12.11582"><ele>1796</ele></trkpt>
      <trkpt lat="46.436378" lon="12.115709"><ele>1795</ele></trkpt>
      <trkpt lat="46.43638" lon="12.115586"><ele>1793</ele></trkpt>
      <trkpt lat="46.436408" lon="12.115506"><ele>1794</ele></trkpt>
      <trkpt lat="46.436462" lon="12.115386"><ele>1796</ele></trkpt>
      <trkpt lat="46.436554" lon="12.115205"><ele>1800</ele></trkpt>
      <trkpt lat="46.436575" lon="12.115073"><ele>1801</ele></trkpt>
      <trkpt lat="46.43656" lon="12.114846"><ele>1801</ele></trkpt>
      <trkpt lat="46.436582" lon="12.114194"><ele>1807</ele></trkpt>
      <trkpt lat="46.436656" lon="12.114002"><ele>1807</ele></trkpt>
      <trkpt lat="46.436595" lon="12.114002"><ele>1806</ele></trkpt>
      <trkpt lat="46.43656" lon="12.113936"><ele>1805</ele></trkpt>
      <trkpt lat="46.43656" lon="12.113789"><ele>1803</ele></trkpt>
      <trkpt lat="46.436634" lon="12.113652"><ele>1799</ele></trkpt>
      <trkpt lat="46.43656" lon="12.113789"><ele>1803</ele></trkpt>
      <trkpt lat="46.43656" lon="12.113936"><ele>1805</ele></trkpt>
      <trkpt lat="46.436595" lon="12.114002"><ele>1806</ele></trkpt>
      <trkpt lat="46.436656" lon="12.114002"><ele>1807</ele></trkpt>
      <trkpt lat="46.436687" lon="12.11397"><ele>1806</ele></trkpt>
      <trkpt lat="46.436737" lon="12.113948"><ele>1806</ele></trkpt>
      <trkpt lat="46.436883" lon="12.114129"><ele>1810</ele></trkpt>
      <trkpt lat="46.43698" lon="12.114286"><ele>1812</ele></trkpt>
      <trkpt lat="46.437013" lon="12.114363"><ele>1812</ele></trkpt>
      <trkpt lat="46.43703" lon="12.114516"><ele>1813</ele></trkpt>
      <trkpt lat="46.436993" lon="12.114667"><ele>1815</ele></trkpt>
      <trkpt lat="46.437266" lon="12.115127"><ele>1823</ele></trkpt>
      <trkpt lat="46.437362" lon="12.115323"><ele>1826</ele></trkpt>
      <trkpt lat="46.437358" lon="12.115396"><ele>1827</ele></trkpt>
      <trkpt lat="46.43735" lon="12.115459"><ele>1829</ele></trkpt>
      <trkpt lat="46.43733" lon="12.115474"><ele>1830</ele></trkpt>
      <trkpt lat="46.437241" lon="12.115483"><ele>1832</ele></trkpt>
      <trkpt lat="46.437098" lon="12.11557"><ele>1832</ele></trkpt>
      <trkpt lat="46.437003" lon="12.115778"><ele>1835</ele></trkpt>
      <trkpt lat="46.436966" lon="12.116093"><ele>1841</ele></trkpt>
      <trkpt lat="46.436971" lon="12.116251"><ele>1842</ele></trkpt>
      <trkpt lat="46.436958" lon="12.116521"><ele>1844</ele></trkpt>
      <trkpt lat="46.43691" lon="12.116753"><ele>1845</ele></trkpt>
      <trkpt lat="46.436886" lon="12.116994"><ele>1849</ele></trkpt>
      <trkpt lat="46.436853" lon="12.117192"><ele>1851</ele></trkpt>
      <trkpt lat="46.436842" lon="12.117551"><ele>1857</ele></trkpt>
      <trkpt lat="46.436934" lon="12.118098"><ele>1865</ele></trkpt>
      <trkpt lat="46.436905" lon="12.118608"><ele>1868</ele></trkpt>
      <trkpt lat="46.436943" lon="12.118798"><ele>1872</ele></trkpt>
      <trkpt lat="46.436966" lon="12.118964"><ele>1875</ele></trkpt>
      <trkpt lat="46.436941" lon="12.119262"><ele>1879</ele></trkpt>
      <trkpt lat="46.436949" lon="12.119415"><ele>1880</ele></trkpt>
      <trkpt lat="46.436873" lon="12.119903"><ele>1883</ele></trkpt>
      <trkpt lat="46.436822" lon="12.12012"><ele>1884</ele></trkpt>
      <trkpt lat="46.436806" lon="12.120266"><ele>1885</ele></trkpt>
      <trkpt lat="46.43682" lon="12.120372"><ele>1887</ele></trkpt>
      <trkpt lat="46.436809" lon="12.120544"><ele>1890</ele></trkpt>
      <trkpt lat="46.436741" lon="12.120902"><ele>1891</ele></trkpt>
      <trkpt lat="46.436668" lon="12.121141"><ele>1893</ele></trkpt>
      <trkpt lat="46.436611" lon="12.121261"><ele>1894</ele></trkpt>
      <trkpt lat="46.436527" lon="12.121389"><ele>1895</ele></trkpt>
      <trkpt lat="46.436442" lon="12.121475"><ele>1895</ele></trkpt>
      <trkpt lat="46.436387" lon="12.121579"><ele>1896</ele></trkpt>
      <trkpt lat="46.436318" lon="12.121968"><ele>1899</ele></trkpt>
      <trkpt lat="46.436239" lon="12.122498"><ele>1901</ele></trkpt>
      <trkpt lat="46.436238" lon="12.122565"><ele>1901</ele></trkpt>
      <trkpt lat="46.436249" lon="12.122617"><ele>1901</ele></trkpt>
      <trkpt lat="46.436277" lon="12.122672"><ele>1902</ele></trkpt>
      <trkpt lat="46.436364" lon="12.122787"><ele>1904</ele></trkpt>
      <trkpt lat="46.436394" lon="12.12284"><ele>1905</ele></trkpt>
      <trkpt lat="46.436411" lon="12.122916"><ele>1906</ele></trkpt>
      <trkpt lat="46.436413" lon="12.122991"><ele>1906</ele></trkpt>
      <trkpt lat="46.436395" lon="12.123338"><ele>1907</ele></trkpt>
      <trkpt lat="46.436411" lon="12.123441"><ele>1909</ele></trkpt>
      <trkpt lat="46.436447" lon="12.123466"><ele>1910</ele></trkpt>
      <trkpt lat="46.436494" lon="12.123473"><ele>1911</ele></trkpt>
      <trkpt lat="46.436548" lon="12.123437"><ele>1912</ele></trkpt>
      <trkpt lat="46.436646" lon="12.123322"><ele>1913</ele></trkpt>
      <trkpt lat="46.436724" lon="12.123216"><ele>1915</ele></trkpt>
      <trkpt lat="46.436767" lon="12.123104"><ele>1915</ele></trkpt>
      <trkpt lat="46.436806" lon="12.12296"><ele>1916</ele></trkpt>
      <trkpt lat="46.436836" lon="12.122659"><ele>1915</ele></trkpt>
      <trkpt lat="46.436806" lon="12.12296"><ele>1916</ele></trkpt>
      <trkpt lat="46.436857" lon="12.12299"><ele>1917</ele></trkpt>
      <trkpt lat="46.436885" lon="12.122991"><ele>1918</ele></trkpt>
      <trkpt lat="46.436892" lon="12.123027"><ele>1918</ele></trkpt>
      <trkpt lat="46.436914" lon="12.123027"><ele>1919</ele></trkpt>
      <trkpt lat="46.436946" lon="12.122986"><ele>1920</ele></trkpt>
      <trkpt lat="46.436971" lon="12.123019"><ele>1921</ele></trkpt>
      <trkpt lat="46.436977" lon="12.123018"><ele>1921</ele></trkpt>
      <trkpt lat="46.437058" lon="12.122941"><ele>1924</ele></trkpt>
      <trkpt lat="46.437085" lon="12.122939"><ele>1925</ele></trkpt>
      <trkpt lat="46.43716" lon="12.122863"><ele>1928</ele></trkpt>
      <trkpt lat="46.437168" lon="12.122863"><ele>1928</ele></trkpt>
      <trkpt lat="46.437177" lon="12.122889"><ele>1929</ele></trkpt>
      <trkpt lat="46.437186" lon="12.122892"><ele>1929</ele></trkpt>
      <trkpt lat="46.437222" lon="12.122841"><ele>1930</ele></trkpt>
      <trkpt lat="46.437238" lon="12.12284"><ele>1931</ele></trkpt>
      <trkpt lat="46.437276" lon="12.122883"><ele>1933</ele></trkpt>
      <trkpt lat="46.437287" lon="12.122887"><ele>1933</ele></trkpt>
      <trkpt lat="46.437321" lon="12.122836"><ele>1934</ele></trkpt>
      <trkpt lat="46.437335" lon="12.122828"><ele>1935</ele></trkpt>
      <trkpt lat="46.437344" lon="12.122834"><ele>1935</ele></trkpt>
      <trkpt lat="46.437391" lon="12.122917"><ele>1938</ele></trkpt>
      <trkpt lat="46.437411" lon="12.122931"><ele>1939</ele></trkpt>
      <trkpt lat="46.43744" lon="12.122917"><ele>1940</ele></trkpt>
      <trkpt lat="46.437474" lon="12.12295"><ele>1941</ele></trkpt>
      <trkpt lat="46.437511" lon="12.122941"><ele>1943</ele></trkpt>
      <trkpt lat="46.437539" lon="12.122961"><ele>1945</ele></trkpt>
      <trkpt lat="46.437578" lon="12.123016"><ele>1947</ele></trkpt>
      <trkpt lat="46.437607" lon="12.123023"><ele>1948</ele></trkpt>
      <trkpt lat="46.437614" lon="12.12301"><ele>1949</ele></trkpt>
      <trkpt lat="46.43763" lon="12.122917"><ele>1949</ele></trkpt>
      <trkpt lat="46.437637" lon="12.122914"><ele>1949</ele></trkpt>
      <trkpt lat="46.437655" lon="12.12294"><ele>1950</ele></trkpt>
      <trkpt lat="46.437668" lon="12.122943"><ele>1951</ele></trkpt>
      <trkpt lat="46.437694" lon="12.122907"><ele>1952</ele></trkpt>
      <trkpt lat="46.437724" lon="12.122919"><ele>1953</ele></trkpt>
      <trkpt lat="46.437774" lon="12.123014"><ele>1957</ele></trkpt>
      <trkpt lat="46.437915" lon="12.122572"><ele>1963</ele></trkpt>
      <trkpt lat="46.437987" lon="12.122453"><ele>1968</ele></trkpt>
      <trkpt lat="46.437996" lon="12.122347"><ele>1969</ele></trkpt>
      <trkpt lat="46.437987" lon="12.122191"><ele>1970</ele></trkpt>
      <trkpt lat="46.43803" lon="12.122111"><ele>1972</ele></trkpt>
      <trkpt lat="46.438107" lon="12.122075"><ele>1975</ele></trkpt>
      <trkpt lat="46.438177" lon="12.122053"><ele>1977</ele></trkpt>
      <trkpt lat="46.438242" lon="12.121973"><ele>1978</ele></trkpt>
      <trkpt lat="46.438321" lon="12.121991"><ele>1981</ele></trkpt>
      <trkpt lat="46.43838" lon="12.122129"><ele>1986</ele></trkpt>
      <trkpt lat="46.438456" lon="12.122249"><ele>1991</ele></trkpt>
      <trkpt lat="46.438533" lon="12.122307"><ele>1995</ele></trkpt>
      <trkpt lat="46.438609" lon="12.1224"><ele>2000</ele></trkpt>
      <trkpt lat="46.438668" lon="12.122498"><ele>2003</ele></trkpt>
      <trkpt lat="46.438796" lon="12.122622"><ele>2010</ele></trkpt>
      <trkpt lat="46.438839" lon="12.12272"><ele>2013</ele></trkpt>
      <trkpt lat="46.43895" lon="12.123094"><ele>2022</ele></trkpt>
      <trkpt lat="46.439026" lon="12.123223"><ele>2027</ele></trkpt>
      <trkpt lat="46.439124" lon="12.12341"><ele>2034</ele></trkpt>
      <trkpt lat="46.439189" lon="12.123597"><ele>2039</ele></trkpt>
      <trkpt lat="46.439226" lon="12.123645"><ele>2041</ele></trkpt>
      <trkpt lat="46.439428" lon="12.124059"><ele>2053</ele></trkpt>
      <trkpt lat="46.439492" lon="12.124113"><ele>2054</ele></trkpt>
      <trkpt lat="46.439551" lon="12.12425"><ele>2056</ele></trkpt>
      <trkpt lat="46.439633" lon="12.124339"><ele>2059</ele></trkpt>
      <trkpt lat="46.439869" lon="12.124735"><ele>2066</ele></trkpt>
      <trkpt lat="46.43998" lon="12.124811"><ele>2070</ele></trkpt>
      <trkpt lat="46.440112" lon="12.124927"><ele>2072</ele></trkpt>
      <trkpt lat="46.440203" lon="12.1251"><ele>2075</ele></trkpt>
      <trkpt lat="46.440268" lon="12.125287"><ele>2079</ele></trkpt>
      <trkpt lat="46.440335" lon="12.125456"><ele>2078</ele></trkpt>
      <trkpt lat="46.440479" lon="12.125638"><ele>2082</ele></trkpt>
      <trkpt lat="46.440577" lon="12.125678"><ele>2085</ele></trkpt>
      <trkpt lat="46.4407" lon="12.125767"><ele>2086</ele></trkpt>
      <trkpt lat="46.440924" lon="12.125972"><ele>2094</ele></trkpt>
      <trkpt lat="46.441068" lon="12.126128"><ele>2102</ele></trkpt>
      <trkpt lat="46.441166" lon="12.126217"><ele>2104</ele></trkpt>
      <trkpt lat="46.441227" lon="12.126363"><ele>2107</ele></trkpt>
      <trkpt lat="46.441322" lon="12.12643"><ele>2110</ele></trkpt>
      <trkpt lat="46.441423" lon="12.126537"><ele>2115</ele></trkpt>
      <trkpt lat="46.441586" lon="12.12675"><ele>2118</ele></trkpt>
      <trkpt lat="46.44165" lon="12.126937"><ele>2126</ele></trkpt>
      <trkpt lat="46.441758" lon="12.127209"><ele>2132</ele></trkpt>
      <trkpt lat="46.441865" lon="12.127427"><ele>2138</ele></trkpt>
      <trkpt lat="46.441877" lon="12.127582"><ele>2142</ele></trkpt>
      <trkpt lat="46.441969" lon="12.127716"><ele>2149</ele></trkpt>
      <trkpt lat="46.442033" lon="12.127862"><ele>2151</ele></trkpt>
      <trkpt lat="46.442144" lon="12.128289"><ele>2167</ele></trkpt>
      <trkpt lat="46.442159" lon="12.128365"><ele>2171</ele></trkpt>
      <trkpt lat="46.44222" lon="12.128543"><ele>2180</ele></trkpt>
      <trkpt lat="46.4423" lon="12.128703"><ele>2184</ele></trkpt>
      <trkpt lat="46.442331" lon="12.128899"><ele>2191</ele></trkpt>
      <trkpt lat="46.442322" lon="12.129032"><ele>2196</ele></trkpt>
      <trkpt lat="46.442441" lon="12.129281"><ele>2211</ele></trkpt>
      <trkpt lat="46.44249" lon="12.12941"><ele>2220</ele></trkpt>
      <trkpt lat="46.442533" lon="12.129575"><ele>2226</ele></trkpt>
      <trkpt lat="46.442558" lon="12.129746"><ele>2233</ele></trkpt>
      <trkpt lat="46.442674" lon="12.130047"><ele>2242</ele></trkpt>
      <trkpt lat="46.442742" lon="12.130091"><ele>2243</ele></trkpt>
      <trkpt lat="46.442821" lon="12.130202"><ele>2243</ele></trkpt>
      <trkpt lat="46.442902" lon="12.130228"><ele>2243</ele></trkpt>
      <trkpt lat="46.443077" lon="12.130247"><ele>2245</ele></trkpt>
      <trkpt lat="46.443285" lon="12.130204"><ele>2243</ele></trkpt>
      <trkpt lat="46.443449" lon="12.130232"><ele>2246</ele></trkpt>
      <trkpt lat="46.443526" lon="12.130278"><ele>2249</ele></trkpt>
      <trkpt lat="46.443594" lon="12.130299"><ele>2250</ele></trkpt>
    </trkseg>
  </trk>
</gpx>
