<?xml version="1.0" encoding="UTF-8"?>
<gpx version="1.1" creator="hike-trip" xmlns="http://www.topografix.com/GPX/1/1">
  <metadata>
    <name>Col Raiser → Rifugio Firenze</name>
    <desc>Routed with BRouter (hiking-mountain) over OpenStreetMap data through hand-verified anchor points. Schematic in places — verify against signage on the ground. Track traces one direction — return the same way.</desc>
    <copyright author="OpenStreetMap contributors"><license>https://www.openstreetmap.org/copyright</license></copyright>
    <bounds minlat="46.58484" minlon="11.744988" maxlat="46.589891" maxlon="11.758197"/>
  </metadata>
  <wpt lat="46.5848" lon="11.7457"><name>Trailhead — Col Raiser → Rifugio Firenze</name><sym>Trail Head</sym></wpt>
  <wpt lat="46.5875" lon="11.7583"><ele>2090</ele><name>Rifugio Firenze</name><sym>Summit</sym></wpt>
  <trk>
    <name>Col Raiser → Rifugio Firenze (No. 1)</name>
    <type>hiking</type>
    <trkseg>
      <trkpt lat="46.58484" lon="11.745506"><ele>2105</ele></trkpt>
      <trkpt lat="46.584901" lon="11.745533"><ele>2105</ele></trkpt>
      <trkpt lat="46.584987" lon="11.745753"><ele>2106</ele></trkpt>
      <trkpt lat="46.585025" lon="11.745788"><ele>2106</ele></trkpt>
      <trkpt lat="46.585066" lon="11.745795"><ele>2105</ele></trkpt>
      <trkpt lat="46.585199" lon="11.745737"><ele>2104</ele></trkpt>
      <trkpt lat="46.585283" lon="11.745685"><ele>2102</ele></trkpt>
      <trkpt lat="46.585428" lon="11.745517"><ele>2101</ele></trkpt>
      <trkpt lat="46.585447" lon="11.745437"><ele>2102</ele></trkpt>
      <trkpt lat="46.585521" lon="11.745267"><ele>2104</ele></trkpt>
      <trkpt lat="46.585638" lon="11.745198"><ele>2104</ele></trkpt>
      <trkpt lat="46.585895" lon="11.744999"><ele>2103</ele></trkpt>
      <trkpt lat="46.585967" lon="11.744988"><ele>2102</ele></trkpt>
      <trkpt lat="46.5861" lon="11.745028"><ele>2101</ele></trkpt>
      <trkpt lat="46.586209" lon="11.745021"><ele>2100</ele></trkpt>
      <trkpt lat="46.586603" lon="11.745136"><ele>2098</ele></trkpt>
      <trkpt lat="46.586849" lon="11.745134"><ele>2094</ele></trkpt>
      <trkpt lat="46.587061" lon="11.745181"><ele>2093</ele></trkpt>
      <trkpt lat="46.587183" lon="11.745257"><ele>2095</ele></trkpt>
      <trkpt lat="46.587333" lon="11.745236"><ele>2096</ele></trkpt>
      <trkpt lat="46.58744" lon="11.74538"><ele>2099</ele></trkpt>
      <trkpt lat="46.587432" lon="11.745764"><ele>2098</ele></trkpt>
      <trkpt lat="46.587564" lon="11.745865"><ele>2102</ele></trkpt>
      <trkpt lat="46.587654" lon="11.746168"><ele>2103</ele></trkpt>
      <trkpt lat="46.587798" lon="11.746419"><ele>2104</ele></trkpt>
      <trkpt lat="46.588183" lon="11.74651"><ele>2108</ele></trkpt>
      <trkpt lat="46.588361" lon="11.746433"><ele>2111</ele></trkpt>
      <trkpt lat="46.588573" lon="11.746139"><ele>2114</ele></trkpt>
      <trkpt lat="46.588683" lon="11.746154"><ele>2114</ele></trkpt>
      <trkpt lat="46.588816" lon="11.74628"><ele>2116</ele></trkpt>
      <trkpt lat="46.58894" lon="11.746588"><ele>2120</ele></trkpt>
      <trkpt lat="46.588881" lon="11.747469"><ele>2131</ele></trkpt>
      <trkpt lat="46.589044" lon="11.747703"><ele>2132</ele></trkpt>
      <trkpt lat="46.58922" lon="11.747822"><ele>2137</ele></trkpt>
      <trkpt lat="46.589401" lon="11.748279"><ele>2141</ele></trkpt>
      <trkpt lat="46.589473" lon="11.748438"><ele>2141</ele></trkpt>
      <trkpt lat="46.589575" lon="11.748451"><ele>2144</ele></trkpt>
      <trkpt lat="46.589563" lon="11.748494"><ele>2143</ele></trkpt>
      <trkpt lat="46.589561" lon="11.748528"><ele>2142</ele></trkpt>
      <trkpt lat="46.589617" lon="11.748585"><ele>2143</ele></trkpt>
      <trkpt lat="46.589694" lon="11.74868"><ele>2144</ele></trkpt>
      <trkpt lat="46.589775" lon="11.748931"><ele>2140</ele></trkpt>
      <trkpt lat="46.589821" lon="11.749001"><ele>2140</ele></trkpt>
      <trkpt lat="46.589847" lon="11.749135"><ele>2137</ele></trkpt>
      <trkpt lat="46.589829" lon="11.749171"><ele>2135</ele></trkpt>
      <trkpt lat="46.589889" lon="11.749301"><ele>2135</ele></trkpt>
      <trkpt lat="46.589891" lon="11.749376"><ele>2134</ele></trkpt>
      <trkpt lat="46.589869" lon="11.749532"><ele>2133</ele></trkpt>
      <trkpt lat="46.589843" lon="11.749588"><ele>2132</ele></trkpt>
      <trkpt lat="46.589842" lon="11.749692"><ele>2132</ele></trkpt>
      <trkpt lat="46.589823" lon="11.749798"><ele>2132</ele></trkpt>
      <trkpt lat="46.589772" lon="11.749869"><ele>2131</ele></trkpt>
      <trkpt lat="46.589749" lon="11.749958"><ele>2131</ele></trkpt>
      <trkpt lat="46.589738" lon="11.750053"><ele>2128</ele></trkpt>
      <trkpt lat="46.58971" lon="11.750327"><ele>2128</ele></trkpt>
      <trkpt lat="46.589677" lon="11.750583"><ele>2125</ele></trkpt>
      <trkpt lat="46.58969" lon="11.750699"><ele>2124</ele></trkpt>
      <trkpt lat="46.58969" lon="11.750903"><ele>2123</ele></trkpt>
      <trkpt lat="46.589655" lon="11.750983"><ele>2121</ele></trkpt>
      <trkpt lat="46.589646" lon="11.751098"><ele>2120</ele></trkpt>
      <trkpt lat="46.589625" lon="11.751177"><ele>2119</ele></trkpt>
      <trkpt lat="46.589661" lon="11.751418"><ele>2117</ele></trkpt>
      <trkpt lat="46.589681" lon="11.751514"><ele>2116</ele></trkpt>
      <trkpt lat="46.589663" lon="11.751597"><ele>2115</ele></trkpt>
      <trkpt lat="46.589681" lon="11.751754"><ele>2114</ele></trkpt>
      <trkpt lat="46.589707" lon="11.751817"><ele>2114</ele></trkpt>
      <trkpt lat="46.589722" lon="11.752029"><ele>2111</ele></trkpt>
      <trkpt lat="46.589749" lon="11.752126"><ele>2110</ele></trkpt>
      <trkpt lat="46.589784" lon="11.752165"><ele>2110</ele></trkpt>
      <trkpt lat="46.589794" lon="11.752221"><ele>2110</ele></trkpt>
      <trkpt lat="46.589786" lon="11.752327"><ele>2108</ele></trkpt>
      <trkpt lat="46.58979" lon="11.752405"><ele>2107</ele></trkpt>
      <trkpt lat="46.589757" lon="11.752535"><ele>2104</ele></trkpt>
      <trkpt lat="46.589617" lon="11.752835"><ele>2099</ele></trkpt>
      <trkpt lat="46.589602" lon="11.752912"><ele>2098</ele></trkpt>
      <trkpt lat="46.589567" lon="11.752989"><ele>2097</ele></trkpt>
      <trkpt lat="46.589509" lon="11.753006"><ele>2096</ele></trkpt>
      <trkpt lat="46.589499" lon="11.753051"><ele>2096</ele></trkpt>
      <trkpt lat="46.589469" lon="11.753075"><ele>2095</ele></trkpt>
      <trkpt lat="46.589464" lon="11.753121"><ele>2094</ele></trkpt>
      <trkpt lat="46.589437" lon="11.753175"><ele>2093</ele></trkpt>
      <trkpt lat="46.589419" lon="11.75329"><ele>2092</ele></trkpt>
      <trkpt lat="46.589382" lon="11.753406"><ele>2090</ele></trkpt>
      <trkpt lat="46.589288" lon="11.753566"><ele>2088</ele></trkpt>
      <trkpt lat="46.589067" lon="11.753818"><ele>2084</ele></trkpt>
      <trkpt lat="46.589011" lon="11.754015"><ele>2082</ele></trkpt>
      <trkpt lat="46.588936" lon="11.754118"><ele>2081</ele></trkpt>
      <trkpt lat="46.588877" lon="11.75418"><ele>2079</ele></trkpt>
      <trkpt lat="46.588832" lon="11.754315"><ele>2078</ele></trkpt>
      <trkpt lat="46.588804" lon="11.754432"><ele>2077</ele></trkpt>
      <trkpt lat="46.588816" lon="11.754513"><ele>2077</ele></trkpt>
      <trkpt lat="46.588809" lon="11.754548"><ele>2076</ele></trkpt>
      <trkpt lat="46.588782" lon="11.754601"><ele>2075</ele></trkpt>
      <trkpt lat="46.588785" lon="11.754665"><ele>2075</ele></trkpt>
      <trkpt lat="46.588752" lon="11.754735"><ele>2074</ele></trkpt>
      <trkpt lat="46.588732" lon="11.754829"><ele>2073</ele></trkpt>
      <trkpt lat="46.588702" lon="11.754862"><ele>2072</ele></trkpt>
      <trkpt lat="46.588662" lon="11.755028"><ele>2069</ele></trkpt>
      <trkpt lat="46.588665" lon="11.755122"><ele>2068</ele></trkpt>
      <trkpt lat="46.588634" lon="11.755199"><ele>2067</ele></trkpt>
      <trkpt lat="46.588642" lon="11.755442"><ele>2066</ele></trkpt>
      <trkpt lat="46.588621" lon="11.755486"><ele>2065</ele></trkpt>
      <trkpt lat="46.588564" lon="11.755548"><ele>2064</ele></trkpt>
      <trkpt lat="46.588558" lon="11.755596"><ele>2064</ele></trkpt>
      <trkpt lat="46.588498" lon="11.75569"><ele>2064</ele></trkpt>
      <trkpt lat="46.588419" lon="11.755703"><ele>2063</ele></trkpt>
      <trkpt lat="46.588353" lon="11.755828"><ele>2064</ele></trkpt>
      <trkpt lat="46.588313" lon="11.755975"><ele>2062</ele></trkpt>
      <trkpt lat="46.588291" lon="11.756393"><ele>2058</ele></trkpt>
      <trkpt lat="46.58831" lon="11.756477"><ele>2058</ele></trkpt>
      <trkpt lat="46.588309" lon="11.756639"><ele>2057</ele></trkpt>
      <trkpt lat="46.588249" lon="11.756691"><ele>2056</ele></trkpt>
      <trkpt lat="46.588205" lon="11.756765"><ele>2056</ele></trkpt>
      <trkpt lat="46.588203" lon="11.756881"><ele>2056</ele></trkpt>
      <trkpt lat="46.588181" lon="11.756978"><ele>2055</ele></trkpt>
      <trkpt lat="46.588144" lon="11.757077"><ele>2055</ele></trkpt>
      <trkpt lat="46.588146" lon="11.7572"><ele>2054</ele></trkpt>
      <trkpt lat="46.588138" lon="11.757267"><ele>2053</ele></trkpt>
      <trkpt lat="46.588155" lon="11.757377"><ele>2052</ele></trkpt>
      <trkpt lat="46.588146" lon="11.757432"><ele>2051</ele></trkpt>
      <trkpt lat="46.588147" lon="11.757537"><ele>2049</ele></trkpt>
      <trkpt lat="46.588136" lon="11.757632"><ele>2047</ele></trkpt>
      <trkpt lat="46.588087" lon="11.757702"><ele>2045</ele></trkpt>
      <trkpt lat="46.588063" lon="11.757762"><ele>2044</ele></trkpt>
      <trkpt lat="46.588026" lon="11.757745"><ele>2044</ele></trkpt>
      <trkpt lat="46.587932" lon="11.757753"><ele>2042</ele></trkpt>
      <trkpt lat="46.587889" lon="11.757702"><ele>2042</ele></trkpt>
      <trkpt lat="46.587807" lon="11.75777"><ele>2040</ele></trkpt>
      <trkpt lat="46.587719" lon="11.757868"><ele>2039</ele></trkpt>
      <trkpt lat="46.587605" lon="11.757979"><ele>2038</ele></trkpt>
      <trkpt lat="46.587589" lon="11.757995"><ele>2038</ele></trkpt>
      <trkpt lat="46.587497" lon="11.758069"><ele>2038</ele></trkpt>
      <trkpt lat="46.587577" lon="11.758197"><ele>2040</ele></trkpt>
    </trkseg>
  </trk>
</gpx>
