<?xml version="1.0" encoding="UTF-8"?>
<gpx version="1.1" creator="hike-trip" xmlns="http://www.topografix.com/GPX/1/1">
  <metadata>
    <name>Croda Negra from Passo Falzarego</name>
    <desc>Routed with BRouter (hiking-mountain) over OpenStreetMap data through hand-verified anchor points. Schematic in places — verify against signage on the ground. Track traces one direction — return the same way.</desc>
    <copyright author="OpenStreetMap contributors"><license>https://www.openstreetmap.org/copyright</license></copyright>
    <bounds minlat="46.5034" minlon="12.003767" maxlat="46.521098" maxlon="12.024954"/>
  </metadata>
  <wpt lat="46.518" lon="12.0057"><name>Trailhead — Croda Negra from Passo Falzarego</name><sym>Trail Head</sym></wpt>
  <wpt lat="46.5034" lon="12.025"><ele>2518</ele><name>Croda Negra</name><sym>Summit</sym></wpt>
  <trk>
    <name>Croda Negra from Passo Falzarego (No. 441 / 442)</name>
    <type>hiking</type>
    <trkseg>
      <trkpt lat="46.517795" lon="12.00563"><ele>2052</ele></trkpt>
      <trkpt lat="46.517746" lon="12.005939"><ele>2052</ele></trkpt>
      <trkpt lat="46.517729" lon="12.005978"><ele>2052</ele></trkpt>
      <trkpt lat="46.517706" lon="12.006009"><ele>2052</ele></trkpt>
      <trkpt lat="46.517678" lon="12.00603"><ele>2052</ele></trkpt>
      <trkpt lat="46.517647" lon="12.006038"><ele>2052</ele></trkpt>
      <trkpt lat="46.517617" lon="12.006034"><ele>2052</ele></trkpt>
      <trkpt lat="46.517589" lon="12.006018"><ele>2052</ele></trkpt>
      <trkpt lat="46.517565" lon="12.005992"><ele>2052</ele></trkpt>
      <trkpt lat="46.517546" lon="12.005958"><ele>2052</ele></trkpt>
      <trkpt lat="46.517533" lon="12.005912"><ele>2048</ele></trkpt>
      <trkpt lat="46.517527" lon="12.005863"><ele>2044</ele></trkpt>
      <trkpt lat="46.517528" lon="12.005813"><ele>2041</ele></trkpt>
      <trkpt lat="46.517549" lon="12.005728"><ele>2039</ele></trkpt>
      <trkpt lat="46.517568" lon="12.005692"><ele>2039</ele></trkpt>
      <trkpt lat="46.517652" lon="12.005585"><ele>2039</ele></trkpt>
      <trkpt lat="46.517711" lon="12.005478"><ele>2038</ele></trkpt>
      <trkpt lat="46.51775" lon="12.005357"><ele>2037</ele></trkpt>
      <trkpt lat="46.517807" lon="12.005116"><ele>2033</ele></trkpt>
      <trkpt lat="46.517868" lon="12.004966"><ele>2033</ele></trkpt>
      <trkpt lat="46.518086" lon="12.004589"><ele>2034</ele></trkpt>
      <trkpt lat="46.518462" lon="12.003969"><ele>2028</ele></trkpt>
      <trkpt lat="46.518621" lon="12.003968"><ele>2033</ele></trkpt>
      <trkpt lat="46.518813" lon="12.00409"><ele>2040</ele></trkpt>
      <trkpt lat="46.518899" lon="12.004172"><ele>2044</ele></trkpt>
      <trkpt lat="46.519052" lon="12.004184"><ele>2046</ele></trkpt>
      <trkpt lat="46.519186" lon="12.004128"><ele>2047</ele></trkpt>
      <trkpt lat="46.519291" lon="12.003939"><ele>2050</ele></trkpt>
      <trkpt lat="46.519399" lon="12.003793"><ele>2053</ele></trkpt>
      <trkpt lat="46.519539" lon="12.003767"><ele>2057</ele></trkpt>
      <trkpt lat="46.51973" lon="12.003843"><ele>2062</ele></trkpt>
      <trkpt lat="46.519834" lon="12.003933"><ele>2063</ele></trkpt>
      <trkpt lat="46.519942" lon="12.003942"><ele>2064</ele></trkpt>
      <trkpt lat="46.520028" lon="12.003878"><ele>2064</ele></trkpt>
      <trkpt lat="46.520131" lon="12.003983"><ele>2066</ele></trkpt>
      <trkpt lat="46.520193" lon="12.004184"><ele>2069</ele></trkpt>
      <trkpt lat="46.520534" lon="12.004324"><ele>2076</ele></trkpt>
      <trkpt lat="46.520664" lon="12.004367"><ele>2078</ele></trkpt>
      <trkpt lat="46.520771" lon="12.004377"><ele>2078</ele></trkpt>
      <trkpt lat="46.520821" lon="12.004405"><ele>2079</ele></trkpt>
      <trkpt lat="46.520955" lon="12.004399"><ele>2082</ele></trkpt>
      <trkpt lat="46.521003" lon="12.004621"><ele>2086</ele></trkpt>
      <trkpt lat="46.521098" lon="12.00477"><ele>2091</ele></trkpt>
      <trkpt lat="46.521081" lon="12.004986"><ele>2094</ele></trkpt>
      <trkpt lat="46.520997" lon="12.005252"><ele>2094</ele></trkpt>
      <trkpt lat="46.520606" lon="12.005838"><ele>2096</ele></trkpt>
      <trkpt lat="46.520531" lon="12.006029"><ele>2097</ele></trkpt>
      <trkpt lat="46.520467" lon="12.006096"><ele>2097</ele></trkpt>
      <trkpt lat="46.520435" lon="12.006153"><ele>2097</ele></trkpt>
      <trkpt lat="46.52045" lon="12.006293"><ele>2100</ele></trkpt>
      <trkpt lat="46.520369" lon="12.006486"><ele>2101</ele></trkpt>
      <trkpt lat="46.520368" lon="12.006666"><ele>2103</ele></trkpt>
      <trkpt lat="46.520434" lon="12.006908"><ele>2104</ele></trkpt>
      <trkpt lat="46.520355" lon="12.007213"><ele>2106</ele></trkpt>
      <trkpt lat="46.520335" lon="12.007341"><ele>2107</ele></trkpt>
      <trkpt lat="46.520363" lon="12.007586"><ele>2109</ele></trkpt>
      <trkpt lat="46.520298" lon="12.007789"><ele>2109</ele></trkpt>
      <trkpt lat="46.519994" lon="12.007846"><ele>2106</ele></trkpt>
      <trkpt lat="46.519997" lon="12.007931"><ele>2107</ele></trkpt>
      <trkpt lat="46.519967" lon="12.007935"><ele>2107</ele></trkpt>
      <trkpt lat="46.519918" lon="12.007958"><ele>2107</ele></trkpt>
      <trkpt lat="46.519866" lon="12.008019"><ele>2107</ele></trkpt>
      <trkpt lat="46.519765" lon="12.008256"><ele>2108</ele></trkpt>
      <trkpt lat="46.519772" lon="12.008326"><ele>2108</ele></trkpt>
      <trkpt lat="46.519709" lon="12.008336"><ele>2108</ele></trkpt>
      <trkpt lat="46.519305" lon="12.008401"><ele>2107</ele></trkpt>
      <trkpt lat="46.51929" lon="12.008355"><ele>2107</ele></trkpt>
      <trkpt lat="46.519227" lon="12.008347"><ele>2107</ele></trkpt>
      <trkpt lat="46.519229" lon="12.008316"><ele>2107</ele></trkpt>
      <trkpt lat="46.519027" lon="12.008296"><ele>2105</ele></trkpt>
      <trkpt lat="46.519014" lon="12.008527"><ele>2106</ele></trkpt>
      <trkpt lat="46.519021" lon="12.008561"><ele>2107</ele></trkpt>
      <trkpt lat="46.519015" lon="12.008629"><ele>2107</ele></trkpt>
      <trkpt lat="46.519019" lon="12.008712"><ele>2107</ele></trkpt>
      <trkpt lat="46.519012" lon="12.008833"><ele>2107</ele></trkpt>
      <trkpt lat="46.51898" lon="12.008965"><ele>2107</ele></trkpt>
      <trkpt lat="46.518918" lon="12.009086"><ele>2106</ele></trkpt>
      <trkpt lat="46.518893" lon="12.009151"><ele>2105</ele></trkpt>
      <trkpt lat="46.518886" lon="12.009191"><ele>2105</ele></trkpt>
      <trkpt lat="46.518879" lon="12.009267"><ele>2105</ele></trkpt>
      <trkpt lat="46.518822" lon="12.009296"><ele>2104</ele></trkpt>
      <trkpt lat="46.518621" lon="12.009432"><ele>2102</ele></trkpt>
      <trkpt lat="46.518565" lon="12.009613"><ele>2102</ele></trkpt>
      <trkpt lat="46.518452" lon="12.009654"><ele>2104</ele></trkpt>
      <trkpt lat="46.518422" lon="12.009673"><ele>2104</ele></trkpt>
      <trkpt lat="46.518358" lon="12.009743"><ele>2104</ele></trkpt>
      <trkpt lat="46.518125" lon="12.010065"><ele>2107</ele></trkpt>
      <trkpt lat="46.517966" lon="12.010261"><ele>2107</ele></trkpt>
      <trkpt lat="46.517904" lon="12.01039"><ele>2107</ele></trkpt>
      <trkpt lat="46.517775" lon="12.010698"><ele>2109</ele></trkpt>
      <trkpt lat="46.517647" lon="12.010923"><ele>2108</ele></trkpt>
      <trkpt lat="46.5176" lon="12.011069"><ele>2109</ele></trkpt>
      <trkpt lat="46.517537" lon="12.011198"><ele>2111</ele></trkpt>
      <trkpt lat="46.517476" lon="12.011236"><ele>2113</ele></trkpt>
      <trkpt lat="46.517351" lon="12.011214"><ele>2112</ele></trkpt>
      <trkpt lat="46.517321" lon="12.011251"><ele>2113</ele></trkpt>
      <trkpt lat="46.517329" lon="12.011286"><ele>2114</ele></trkpt>
      <trkpt lat="46.51735" lon="12.011322"><ele>2114</ele></trkpt>
      <trkpt lat="46.517388" lon="12.011433"><ele>2115</ele></trkpt>
      <trkpt lat="46.517384" lon="12.011477"><ele>2115</ele></trkpt>
      <trkpt lat="46.517239" lon="12.011578"><ele>2119</ele></trkpt>
      <trkpt lat="46.517118" lon="12.011605"><ele>2119</ele></trkpt>
      <trkpt lat="46.516987" lon="12.011792"><ele>2123</ele></trkpt>
      <trkpt lat="46.516938" lon="12.011913"><ele>2125</ele></trkpt>
      <trkpt lat="46.516855" lon="12.012082"><ele>2126</ele></trkpt>
      <trkpt lat="46.516764" lon="12.012237"><ele>2128</ele></trkpt>
      <trkpt lat="46.516717" lon="12.012416"><ele>2131</ele></trkpt>
      <trkpt lat="46.516656" lon="12.012561"><ele>2134</ele></trkpt>
      <trkpt lat="46.516589" lon="12.012849"><ele>2136</ele></trkpt>
      <trkpt lat="46.516477" lon="12.013157"><ele>2140</ele></trkpt>
      <trkpt lat="46.516441" lon="12.013439"><ele>2143</ele></trkpt>
      <trkpt lat="46.516387" lon="12.013685"><ele>2142</ele></trkpt>
      <trkpt lat="46.516281" lon="12.013863"><ele>2140</ele></trkpt>
      <trkpt lat="46.516175" lon="12.013982"><ele>2142</ele></trkpt>
      <trkpt lat="46.516053" lon="12.014101"><ele>2144</ele></trkpt>
      <trkpt lat="46.516022" lon="12.014188"><ele>2145</ele></trkpt>
      <trkpt lat="46.516038" lon="12.014322"><ele>2146</ele></trkpt>
      <trkpt lat="46.516045" lon="12.014464"><ele>2147</ele></trkpt>
      <trkpt lat="46.515925" lon="12.014713"><ele>2151</ele></trkpt>
      <trkpt lat="46.51589" lon="12.014848"><ele>2152</ele></trkpt>
      <trkpt lat="46.515804" lon="12.015015"><ele>2155</ele></trkpt>
      <trkpt lat="46.515686" lon="12.015357"><ele>2157</ele></trkpt>
      <trkpt lat="46.51562" lon="12.015727"><ele>2160</ele></trkpt>
      <trkpt lat="46.515573" lon="12.015925"><ele>2162</ele></trkpt>
      <trkpt lat="46.515422" lon="12.016097"><ele>2164</ele></trkpt>
      <trkpt lat="46.515244" lon="12.016257"><ele>2165</ele></trkpt>
      <trkpt lat="46.515114" lon="12.016272"><ele>2164</ele></trkpt>
      <trkpt lat="46.515" lon="12.016266"><ele>2163</ele></trkpt>
      <trkpt lat="46.514843" lon="12.016125"><ele>2166</ele></trkpt>
      <trkpt lat="46.514526" lon="12.016011"><ele>2173</ele></trkpt>
      <trkpt lat="46.514359" lon="12.015885"><ele>2173</ele></trkpt>
      <trkpt lat="46.514314" lon="12.015697"><ele>2170</ele></trkpt>
      <trkpt lat="46.514328" lon="12.015351"><ele>2168</ele></trkpt>
      <trkpt lat="46.514377" lon="12.015027"><ele>2165</ele></trkpt>
      <trkpt lat="46.514522" lon="12.014843"><ele>2162</ele></trkpt>
      <trkpt lat="46.514564" lon="12.01472"><ele>2161</ele></trkpt>
      <trkpt lat="46.514517" lon="12.014603"><ele>2160</ele></trkpt>
      <trkpt lat="46.514415" lon="12.014519"><ele>2159</ele></trkpt>
      <trkpt lat="46.514145" lon="12.014451"><ele>2155</ele></trkpt>
      <trkpt lat="46.513878" lon="12.014464"><ele>2154</ele></trkpt>
      <trkpt lat="46.513664" lon="12.014357"><ele>2155</ele></trkpt>
      <trkpt lat="46.513234" lon="12.014231"><ele>2166</ele></trkpt>
      <trkpt lat="46.512137" lon="12.014088"><ele>2188</ele></trkpt>
      <trkpt lat="46.511795" lon="12.014151"><ele>2202</ele></trkpt>
      <trkpt lat="46.511371" lon="12.014231"><ele>2202</ele></trkpt>
      <trkpt lat="46.510914" lon="12.014276"><ele>2210</ele></trkpt>
      <trkpt lat="46.510575" lon="12.01447"><ele>2219</ele></trkpt>
      <trkpt lat="46.510174" lon="12.01438"><ele>2233</ele></trkpt>
      <trkpt lat="46.509804" lon="12.014383"><ele>2241</ele></trkpt>
      <trkpt lat="46.509539" lon="12.014312"><ele>2246</ele></trkpt>
      <trkpt lat="46.509042" lon="12.014289"><ele>2258</ele></trkpt>
      <trkpt lat="46.508746" lon="12.01426"><ele>2267</ele></trkpt>
      <trkpt lat="46.508496" lon="12.014095"><ele>2272</ele></trkpt>
      <trkpt lat="46.508398" lon="12.014072"><ele>2274</ele></trkpt>
      <trkpt lat="46.508256" lon="12.014234"><ele>2275</ele></trkpt>
      <trkpt lat="46.508224" lon="12.014331"><ele>2277</ele></trkpt>
      <trkpt lat="46.50833" lon="12.014586"><ele>2284</ele></trkpt>
      <trkpt lat="46.508564" lon="12.014845"><ele>2289</ele></trkpt>
      <trkpt lat="46.508613" lon="12.015052"><ele>2291</ele></trkpt>
      <trkpt lat="46.508564" lon="12.015249"><ele>2291</ele></trkpt>
      <trkpt lat="46.508365" lon="12.015482"><ele>2295</ele></trkpt>
      <trkpt lat="46.508158" lon="12.01569"><ele>2297</ele></trkpt>
      <trkpt lat="46.507881" lon="12.016047"><ele>2298</ele></trkpt>
      <trkpt lat="46.507734" lon="12.016181"><ele>2299</ele></trkpt>
      <trkpt lat="46.507753" lon="12.017791"><ele>2282</ele></trkpt>
      <trkpt lat="46.507781" lon="12.017975"><ele>2281</ele></trkpt>
      <trkpt lat="46.508199" lon="12.017849"><ele>2268</ele></trkpt>
      <trkpt lat="46.508532" lon="12.017887"><ele>2225</ele></trkpt>
      <trkpt lat="46.508199" lon="12.017849"><ele>2268</ele></trkpt>
      <trkpt lat="46.507781" lon="12.017975"><ele>2281</ele></trkpt>
      <trkpt lat="46.507545" lon="12.018112"><ele>2288</ele></trkpt>
      <trkpt lat="46.507294" lon="12.018364"><ele>2297</ele></trkpt>
      <trkpt lat="46.507147" lon="12.018622"><ele>2301</ele></trkpt>
      <trkpt lat="46.506777" lon="12.018976"><ele>2310</ele></trkpt>
      <trkpt lat="46.506549" lon="12.019212"><ele>2317</ele></trkpt>
      <trkpt lat="46.506545" lon="12.019373"><ele>2320</ele></trkpt>
      <trkpt lat="46.506596" lon="12.019505"><ele>2324</ele></trkpt>
      <trkpt lat="46.506925" lon="12.01964"><ele>2321</ele></trkpt>
      <trkpt lat="46.506982" lon="12.019712"><ele>2324</ele></trkpt>
      <trkpt lat="46.507088" lon="12.01973"><ele>2322</ele></trkpt>
      <trkpt lat="46.507223" lon="12.019813"><ele>2325</ele></trkpt>
      <trkpt lat="46.507289" lon="12.019865"><ele>2329</ele></trkpt>
      <trkpt lat="46.507443" lon="12.01986"><ele>2328</ele></trkpt>
      <trkpt lat="46.507496" lon="12.019969"><ele>2334</ele></trkpt>
      <trkpt lat="46.507583" lon="12.020033"><ele>2335</ele></trkpt>
      <trkpt lat="46.507687" lon="12.020048"><ele>2332</ele></trkpt>
      <trkpt lat="46.507832" lon="12.020151"><ele>2333</ele></trkpt>
      <trkpt lat="46.507978" lon="12.02012"><ele>2326</ele></trkpt>
      <trkpt lat="46.508131" lon="12.020235"><ele>2331</ele></trkpt>
      <trkpt lat="46.508349" lon="12.020265"><ele>2331</ele></trkpt>
      <trkpt lat="46.508459" lon="12.020284"><ele>2335</ele></trkpt>
      <trkpt lat="46.50884" lon="12.020454"><ele>2342</ele></trkpt>
      <trkpt lat="46.508835" lon="12.020521"><ele>2343</ele></trkpt>
      <trkpt lat="46.508493" lon="12.020918"><ele>2356</ele></trkpt>
      <trkpt lat="46.508304" lon="12.021095"><ele>2362</ele></trkpt>
      <trkpt lat="46.508131" lon="12.02119"><ele>2367</ele></trkpt>
      <trkpt lat="46.507855" lon="12.021475"><ele>2376</ele></trkpt>
      <trkpt lat="46.507425" lon="12.021616"><ele>2392</ele></trkpt>
      <trkpt lat="46.50707" lon="12.022086"><ele>2406</ele></trkpt>
      <trkpt lat="46.506641" lon="12.022444"><ele>2419</ele></trkpt>
      <trkpt lat="46.50634" lon="12.022865"><ele>2428</ele></trkpt>
      <trkpt lat="46.506179" lon="12.023006"><ele>2437</ele></trkpt>
      <trkpt lat="46.506063" lon="12.023109"><ele>2437</ele></trkpt>
      <trkpt lat="46.505789" lon="12.023302"><ele>2445</ele></trkpt>
      <trkpt lat="46.505399" lon="12.023528"><ele>2457</ele></trkpt>
      <trkpt lat="46.505222" lon="12.023469"><ele>2460</ele></trkpt>
      <trkpt lat="46.504971" lon="12.0236"><ele>2465</ele></trkpt>
      <trkpt lat="46.504714" lon="12.023801"><ele>2475</ele></trkpt>
      <trkpt lat="46.504483" lon="12.023945"><ele>2485</ele></trkpt>
      <trkpt lat="46.50438" lon="12.024047"><ele>2489</ele></trkpt>
      <trkpt lat="46.504169" lon="12.024134"><ele>2494</ele></trkpt>
      <trkpt lat="46.503987" lon="12.024297"><ele>2500</ele></trkpt>
      <trkpt lat="46.503975" lon="12.024415"><ele>2501</ele></trkpt>
      <trkpt lat="46.503927" lon="12.024598"><ele>2505</ele></trkpt>
      <trkpt lat="46.503551" lon="12.024892"><ele>2508</ele></trkpt>
      <trkpt lat="46.503473" lon="12.024954"><ele>2510</ele></trkpt>
      <trkpt lat="46.5034" lon="12.024949"><ele>2511</ele></trkpt>
    </trkseg>
  </trk>
</gpx>
