<?xml version="1.0" encoding="UTF-8"?>
<gpx version="1.1" creator="hike-trip" xmlns="http://www.topografix.com/GPX/1/1">
  <metadata>
    <name>Gran Cir via Passo Gardena</name>
    <desc>Routed with BRouter (hiking-mountain) over OpenStreetMap data through hand-verified anchor points. Schematic in places — verify against signage on the ground. Track traces one direction — return the same way.</desc>
    <copyright author="OpenStreetMap contributors"><license>https://www.openstreetmap.org/copyright</license></copyright>
    <bounds minlat="46.549805" minlon="11.804466" maxlat="46.558276" maxlon="11.808477"/>
  </metadata>
  <wpt lat="46.5498" lon="11.8084"><name>Trailhead — Gran Cir via Passo Gardena</name><sym>Trail Head</sym></wpt>
  <wpt lat="46.5585" lon="11.8055"><ele>2592</ele><name>Gran Cir (Große Cirspitze)</name><sym>Summit</sym></wpt>
  <trk>
    <name>Gran Cir via Passo Gardena (No. 2)</name>
    <type>hiking</type>
    <trkseg>
      <trkpt lat="46.549816" lon="11.808405"><ele>2122</ele></trkpt>
      <trkpt lat="46.549805" lon="11.808471"><ele>2122</ele></trkpt>
      <trkpt lat="46.549865" lon="11.808477"><ele>2124</ele></trkpt>
      <trkpt lat="46.549916" lon="11.808423"><ele>2124</ele></trkpt>
      <trkpt lat="46.550046" lon="11.808245"><ele>2124</ele></trkpt>
      <trkpt lat="46.550129" lon="11.808104"><ele>2126</ele></trkpt>
      <trkpt lat="46.550251" lon="11.807827"><ele>2128</ele></trkpt>
      <trkpt lat="46.550313" lon="11.807658"><ele>2127</ele></trkpt>
      <trkpt lat="46.550373" lon="11.807464"><ele>2126</ele></trkpt>
      <trkpt lat="46.550421" lon="11.807356"><ele>2127</ele></trkpt>
      <trkpt lat="46.550451" lon="11.80732"><ele>2128</ele></trkpt>
      <trkpt lat="46.550484" lon="11.807311"><ele>2129</ele></trkpt>
      <trkpt lat="46.55051" lon="11.807332"><ele>2130</ele></trkpt>
      <trkpt lat="46.550544" lon="11.807313"><ele>2130</ele></trkpt>
      <trkpt lat="46.550574" lon="11.807326"><ele>2131</ele></trkpt>
      <trkpt lat="46.550602" lon="11.807373"><ele>2132</ele></trkpt>
      <trkpt lat="46.550654" lon="11.807566"><ele>2134</ele></trkpt>
      <trkpt lat="46.550682" lon="11.807623"><ele>2135</ele></trkpt>
      <trkpt lat="46.550727" lon="11.80766"><ele>2136</ele></trkpt>
      <trkpt lat="46.550775" lon="11.807669"><ele>2137</ele></trkpt>
      <trkpt lat="46.550825" lon="11.807659"><ele>2138</ele></trkpt>
      <trkpt lat="46.550901" lon="11.807614"><ele>2140</ele></trkpt>
      <trkpt lat="46.551014" lon="11.807489"><ele>2142</ele></trkpt>
      <trkpt lat="46.551076" lon="11.807461"><ele>2144</ele></trkpt>
      <trkpt lat="46.551141" lon="11.807463"><ele>2145</ele></trkpt>
      <trkpt lat="46.551266" lon="11.807583"><ele>2147</ele></trkpt>
      <trkpt lat="46.551325" lon="11.80769"><ele>2147</ele></trkpt>
      <trkpt lat="46.55137" lon="11.807752"><ele>2148</ele></trkpt>
      <trkpt lat="46.551403" lon="11.807776"><ele>2148</ele></trkpt>
      <trkpt lat="46.551434" lon="11.807779"><ele>2149</ele></trkpt>
      <trkpt lat="46.551466" lon="11.807764"><ele>2149</ele></trkpt>
      <trkpt lat="46.551489" lon="11.807725"><ele>2150</ele></trkpt>
      <trkpt lat="46.551527" lon="11.807729"><ele>2151</ele></trkpt>
      <trkpt lat="46.551779" lon="11.807572"><ele>2157</ele></trkpt>
      <trkpt lat="46.551823" lon="11.807552"><ele>2158</ele></trkpt>
      <trkpt lat="46.552" lon="11.807605"><ele>2161</ele></trkpt>
      <trkpt lat="46.552067" lon="11.807587"><ele>2162</ele></trkpt>
      <trkpt lat="46.552075" lon="11.807475"><ele>2164</ele></trkpt>
      <trkpt lat="46.552062" lon="11.807329"><ele>2165</ele></trkpt>
      <trkpt lat="46.552072" lon="11.807243"><ele>2166</ele></trkpt>
      <trkpt lat="46.552062" lon="11.807329"><ele>2165</ele></trkpt>
      <trkpt lat="46.552075" lon="11.807475"><ele>2164</ele></trkpt>
      <trkpt lat="46.552098" lon="11.80746"><ele>2164</ele></trkpt>
      <trkpt lat="46.552182" lon="11.807361"><ele>2166</ele></trkpt>
      <trkpt lat="46.552204" lon="11.807348"><ele>2167</ele></trkpt>
      <trkpt lat="46.55234" lon="11.807421"><ele>2167</ele></trkpt>
      <trkpt lat="46.552383" lon="11.807419"><ele>2167</ele></trkpt>
      <trkpt lat="46.552503" lon="11.807341"><ele>2171</ele></trkpt>
      <trkpt lat="46.552573" lon="11.807274"><ele>2172</ele></trkpt>
      <trkpt lat="46.552632" lon="11.807185"><ele>2174</ele></trkpt>
      <trkpt lat="46.552669" lon="11.807172"><ele>2174</ele></trkpt>
      <trkpt lat="46.552765" lon="11.807096"><ele>2174</ele></trkpt>
      <trkpt lat="46.552786" lon="11.807094"><ele>2175</ele></trkpt>
      <trkpt lat="46.552819" lon="11.807114"><ele>2175</ele></trkpt>
      <trkpt lat="46.552829" lon="11.807109"><ele>2176</ele></trkpt>
      <trkpt lat="46.552865" lon="11.806982"><ele>2179</ele></trkpt>
      <trkpt lat="46.552867" lon="11.806955"><ele>2180</ele></trkpt>
      <trkpt lat="46.552875" lon="11.80695"><ele>2180</ele></trkpt>
      <trkpt lat="46.552919" lon="11.806995"><ele>2181</ele></trkpt>
      <trkpt lat="46.552926" lon="11.807014"><ele>2181</ele></trkpt>
      <trkpt lat="46.552954" lon="11.80703"><ele>2182</ele></trkpt>
      <trkpt lat="46.552987" lon="11.806921"><ele>2185</ele></trkpt>
      <trkpt lat="46.553059" lon="11.806816"><ele>2189</ele></trkpt>
      <trkpt lat="46.553111" lon="11.806761"><ele>2191</ele></trkpt>
      <trkpt lat="46.553158" lon="11.806736"><ele>2192</ele></trkpt>
      <trkpt lat="46.553237" lon="11.806678"><ele>2193</ele></trkpt>
      <trkpt lat="46.553254" lon="11.806671"><ele>2194</ele></trkpt>
      <trkpt lat="46.553311" lon="11.806676"><ele>2195</ele></trkpt>
      <trkpt lat="46.55333" lon="11.806693"><ele>2194</ele></trkpt>
      <trkpt lat="46.553347" lon="11.806694"><ele>2195</ele></trkpt>
      <trkpt lat="46.553561" lon="11.806613"><ele>2199</ele></trkpt>
      <trkpt lat="46.5536" lon="11.806564"><ele>2200</ele></trkpt>
      <trkpt lat="46.553734" lon="11.806507"><ele>2204</ele></trkpt>
      <trkpt lat="46.553805" lon="11.806508"><ele>2207</ele></trkpt>
      <trkpt lat="46.553866" lon="11.806559"><ele>2209</ele></trkpt>
      <trkpt lat="46.554035" lon="11.806639"><ele>2213</ele></trkpt>
      <trkpt lat="46.554113" lon="11.806666"><ele>2215</ele></trkpt>
      <trkpt lat="46.554179" lon="11.806671"><ele>2216</ele></trkpt>
      <trkpt lat="46.554289" lon="11.806632"><ele>2221</ele></trkpt>
      <trkpt lat="46.55436" lon="11.806607"><ele>2221</ele></trkpt>
      <trkpt lat="46.554467" lon="11.806596"><ele>2224</ele></trkpt>
      <trkpt lat="46.554526" lon="11.806575"><ele>2226</ele></trkpt>
      <trkpt lat="46.554637" lon="11.806655"><ele>2228</ele></trkpt>
      <trkpt lat="46.554769" lon="11.806591"><ele>2234</ele></trkpt>
      <trkpt lat="46.554828" lon="11.806639"><ele>2234</ele></trkpt>
      <trkpt lat="46.554936" lon="11.806632"><ele>2237</ele></trkpt>
      <trkpt lat="46.554967" lon="11.806642"><ele>2238</ele></trkpt>
      <trkpt lat="46.555014" lon="11.806638"><ele>2239</ele></trkpt>
      <trkpt lat="46.555042" lon="11.806602"><ele>2239</ele></trkpt>
      <trkpt lat="46.554907" lon="11.806395"><ele>2240</ele></trkpt>
      <trkpt lat="46.554866" lon="11.806287"><ele>2242</ele></trkpt>
      <trkpt lat="46.554874" lon="11.806099"><ele>2245</ele></trkpt>
      <trkpt lat="46.554841" lon="11.805963"><ele>2247</ele></trkpt>
      <trkpt lat="46.554818" lon="11.805756"><ele>2251</ele></trkpt>
      <trkpt lat="46.554845" lon="11.805569"><ele>2254</ele></trkpt>
      <trkpt lat="46.554842" lon="11.805486"><ele>2255</ele></trkpt>
      <trkpt lat="46.554881" lon="11.805249"><ele>2259</ele></trkpt>
      <trkpt lat="46.554902" lon="11.804905"><ele>2262</ele></trkpt>
      <trkpt lat="46.554932" lon="11.804881"><ele>2262</ele></trkpt>
      <trkpt lat="46.555014" lon="11.804772"><ele>2263</ele></trkpt>
      <trkpt lat="46.555036" lon="11.804768"><ele>2264</ele></trkpt>
      <trkpt lat="46.555062" lon="11.804806"><ele>2264</ele></trkpt>
      <trkpt lat="46.55512" lon="11.804816"><ele>2266</ele></trkpt>
      <trkpt lat="46.555143" lon="11.804856"><ele>2267</ele></trkpt>
      <trkpt lat="46.55516" lon="11.804843"><ele>2267</ele></trkpt>
      <trkpt lat="46.555189" lon="11.804871"><ele>2268</ele></trkpt>
      <trkpt lat="46.555211" lon="11.804855"><ele>2269</ele></trkpt>
      <trkpt lat="46.555232" lon="11.804893"><ele>2269</ele></trkpt>
      <trkpt lat="46.55525" lon="11.804857"><ele>2270</ele></trkpt>
      <trkpt lat="46.555277" lon="11.804895"><ele>2271</ele></trkpt>
      <trkpt lat="46.555322" lon="11.804865"><ele>2274</ele></trkpt>
      <trkpt lat="46.555345" lon="11.804896"><ele>2275</ele></trkpt>
      <trkpt lat="46.555366" lon="11.805032"><ele>2275</ele></trkpt>
      <trkpt lat="46.555387" lon="11.804975"><ele>2277</ele></trkpt>
      <trkpt lat="46.555408" lon="11.805004"><ele>2277</ele></trkpt>
      <trkpt lat="46.555415" lon="11.805073"><ele>2277</ele></trkpt>
      <trkpt lat="46.555628" lon="11.804811"><ele>2292</ele></trkpt>
      <trkpt lat="46.556034" lon="11.8049"><ele>2313</ele></trkpt>
      <trkpt lat="46.556056" lon="11.804918"><ele>2314</ele></trkpt>
      <trkpt lat="46.556073" lon="11.805009"><ele>2299</ele></trkpt>
      <trkpt lat="46.556056" lon="11.804918"><ele>2314</ele></trkpt>
      <trkpt lat="46.556034" lon="11.8049"><ele>2313</ele></trkpt>
      <trkpt lat="46.5561" lon="11.804914"><ele>2316</ele></trkpt>
      <trkpt lat="46.556444" lon="11.804941"><ele>2326</ele></trkpt>
      <trkpt lat="46.556439" lon="11.804831"><ele>2331</ele></trkpt>
      <trkpt lat="46.556625" lon="11.804944"><ele>2336</ele></trkpt>
      <trkpt lat="46.55657" lon="11.804763"><ele>2341</ele></trkpt>
      <trkpt lat="46.556686" lon="11.804794"><ele>2347</ele></trkpt>
      <trkpt lat="46.556831" lon="11.804595"><ele>2362</ele></trkpt>
      <trkpt lat="46.556939" lon="11.804466"><ele>2370</ele></trkpt>
      <trkpt lat="46.557131" lon="11.804578"><ele>2380</ele></trkpt>
      <trkpt lat="46.557369" lon="11.804545"><ele>2400</ele></trkpt>
      <trkpt lat="46.557574" lon="11.804709"><ele>2414</ele></trkpt>
      <trkpt lat="46.557293" lon="11.804889"><ele>2416</ele></trkpt>
      <trkpt lat="46.557122" lon="11.805296"><ele>2437</ele></trkpt>
      <trkpt lat="46.557138" lon="11.805499"><ele>2442</ele></trkpt>
      <trkpt lat="46.557292" lon="11.805472"><ele>2465</ele></trkpt>
      <trkpt lat="46.557366" lon="11.805448"><ele>2470</ele></trkpt>
      <trkpt lat="46.557408" lon="11.805309"><ele>2467</ele></trkpt>
      <trkpt lat="46.557441" lon="11.805267"><ele>2468</ele></trkpt>
      <trkpt lat="46.557499" lon="11.805269"><ele>2475</ele></trkpt>
      <trkpt lat="46.55752" lon="11.80527"><ele>2475</ele></trkpt>
      <trkpt lat="46.557669" lon="11.805483"><ele>2494</ele></trkpt>
      <trkpt lat="46.557788" lon="11.805597"><ele>2507</ele></trkpt>
      <trkpt lat="46.557775" lon="11.805863"><ele>2514</ele></trkpt>
      <trkpt lat="46.557825" lon="11.805858"><ele>2519</ele></trkpt>
      <trkpt lat="46.557855" lon="11.805909"><ele>2524</ele></trkpt>
      <trkpt lat="46.557894" lon="11.805896"><ele>2527</ele></trkpt>
      <trkpt lat="46.557991" lon="11.805675"><ele>2531</ele></trkpt>
      <trkpt lat="46.55806" lon="11.805583"><ele>2536</ele></trkpt>
      <trkpt lat="46.55812" lon="11.805564"><ele>2539</ele></trkpt>
      <trkpt lat="46.558139" lon="11.805729"><ele>2546</ele></trkpt>
      <trkpt lat="46.558276" lon="11.805652"><ele>2553</ele></trkpt>
    </trkseg>
  </trk>
</gpx>
