<?xml version="1.0" encoding="UTF-8"?>
<gpx version="1.1" creator="hike-trip" xmlns="http://www.topografix.com/GPX/1/1">
  <metadata>
    <name>Krnica Valley to Koča v Krnici</name>
    <desc>Routed with BRouter (hiking-mountain) over OpenStreetMap data through hand-verified anchor points. Schematic in places — verify against signage on the ground. Track traces one direction — return the same way.</desc>
    <copyright author="OpenStreetMap contributors"><license>https://www.openstreetmap.org/copyright</license></copyright>
    <bounds minlat="46.432437" minlon="13.780403" maxlat="46.475404" maxlon="13.788281"/>
  </metadata>
  <wpt lat="46.4741" lon="13.784"><name>Trailhead — Krnica Valley to Koča v Krnici</name><sym>Trail Head</sym></wpt>
  <wpt lat="46.4324" lon="13.7876"><ele>1113</ele><name>Koča v Krnici</name><sym>Summit</sym></wpt>
  <trk>
    <name>Krnica Valley to Koča v Krnici (Valley trail via Lake Jasna)</name>
    <type>hiking</type>
    <trkseg>
      <trkpt lat="46.47442" lon="13.783882"><ele>833</ele></trkpt>
      <trkpt lat="46.474354" lon="13.783498"><ele>833</ele></trkpt>
      <trkpt lat="46.474219" lon="13.782934"><ele>833</ele></trkpt>
      <trkpt lat="46.474313" lon="13.782868"><ele>833</ele></trkpt>
      <trkpt lat="46.474503" lon="13.782816"><ele>833</ele></trkpt>
      <trkpt lat="46.474776" lon="13.782762"><ele>832</ele></trkpt>
      <trkpt lat="46.475049" lon="13.782692"><ele>832</ele></trkpt>
      <trkpt lat="46.47512" lon="13.782684"><ele>832</ele></trkpt>
      <trkpt lat="46.475135" lon="13.782681"><ele>832</ele></trkpt>
      <trkpt lat="46.47513" lon="13.782565"><ele>832</ele></trkpt>
      <trkpt lat="46.475167" lon="13.782352"><ele>832</ele></trkpt>
      <trkpt lat="46.475209" lon="13.782326"><ele>832</ele></trkpt>
      <trkpt lat="46.475341" lon="13.781982"><ele>833</ele></trkpt>
      <trkpt lat="46.475404" lon="13.78192"><ele>834</ele></trkpt>
      <trkpt lat="46.475355" lon="13.781633"><ele>832</ele></trkpt>
      <trkpt lat="46.475325" lon="13.781456"><ele>831</ele></trkpt>
      <trkpt lat="46.475248" lon="13.781501"><ele>831</ele></trkpt>
      <trkpt lat="46.475236" lon="13.781488"><ele>831</ele></trkpt>
      <trkpt lat="46.475226" lon="13.78147"><ele>832</ele></trkpt>
      <trkpt lat="46.475179" lon="13.78146"><ele>832</ele></trkpt>
      <trkpt lat="46.475113" lon="13.781472"><ele>833</ele></trkpt>
      <trkpt lat="46.475061" lon="13.781498"><ele>833</ele></trkpt>
      <trkpt lat="46.474932" lon="13.781528"><ele>832</ele></trkpt>
      <trkpt lat="46.474894" lon="13.781517"><ele>832</ele></trkpt>
      <trkpt lat="46.474872" lon="13.781492"><ele>832</ele></trkpt>
      <trkpt lat="46.474839" lon="13.781486"><ele>832</ele></trkpt>
      <trkpt lat="46.474765" lon="13.781503"><ele>831</ele></trkpt>
      <trkpt lat="46.474638" lon="13.781512"><ele>831</ele></trkpt>
      <trkpt lat="46.474617" lon="13.781514"><ele>831</ele></trkpt>
      <trkpt lat="46.474468" lon="13.781479"><ele>833</ele></trkpt>
      <trkpt lat="46.474448" lon="13.781408"><ele>834</ele></trkpt>
      <trkpt lat="46.474443" lon="13.781365"><ele>835</ele></trkpt>
      <trkpt lat="46.474404" lon="13.781366"><ele>835</ele></trkpt>
      <trkpt lat="46.474329" lon="13.781351"><ele>836</ele></trkpt>
      <trkpt lat="46.474176" lon="13.781399"><ele>836</ele></trkpt>
      <trkpt lat="46.474042" lon="13.781336"><ele>836</ele></trkpt>
      <trkpt lat="46.473911" lon="13.781201"><ele>835</ele></trkpt>
      <trkpt lat="46.473772" lon="13.781014"><ele>837</ele></trkpt>
      <trkpt lat="46.473669" lon="13.780962"><ele>835</ele></trkpt>
      <trkpt lat="46.473645" lon="13.780968"><ele>834</ele></trkpt>
      <trkpt lat="46.473627" lon="13.780975"><ele>834</ele></trkpt>
      <trkpt lat="46.473531" lon="13.781281"><ele>833</ele></trkpt>
      <trkpt lat="46.473339" lon="13.781576"><ele>834</ele></trkpt>
      <trkpt lat="46.473325" lon="13.781595"><ele>834</ele></trkpt>
      <trkpt lat="46.473202" lon="13.78167"><ele>836</ele></trkpt>
      <trkpt lat="46.473126" lon="13.781686"><ele>837</ele></trkpt>
      <trkpt lat="46.473007" lon="13.781673"><ele>840</ele></trkpt>
      <trkpt lat="46.472319" lon="13.781797"><ele>865</ele></trkpt>
      <trkpt lat="46.472183" lon="13.781812"><ele>869</ele></trkpt>
      <trkpt lat="46.472045" lon="13.781788"><ele>873</ele></trkpt>
      <trkpt lat="46.471888" lon="13.781819"><ele>874</ele></trkpt>
      <trkpt lat="46.471711" lon="13.781815"><ele>876</ele></trkpt>
      <trkpt lat="46.47149" lon="13.78184"><ele>875</ele></trkpt>
      <trkpt lat="46.471277" lon="13.781875"><ele>871</ele></trkpt>
      <trkpt lat="46.47114" lon="13.781845"><ele>870</ele></trkpt>
      <trkpt lat="46.470947" lon="13.781857"><ele>871</ele></trkpt>
      <trkpt lat="46.470823" lon="13.781885"><ele>871</ele></trkpt>
      <trkpt lat="46.470635" lon="13.781892"><ele>872</ele></trkpt>
      <trkpt lat="46.470462" lon="13.781934"><ele>870</ele></trkpt>
      <trkpt lat="46.469648" lon="13.782007"><ele>860</ele></trkpt>
      <trkpt lat="46.469213" lon="13.78198"><ele>858</ele></trkpt>
      <trkpt lat="46.468991" lon="13.781741"><ele>859</ele></trkpt>
      <trkpt lat="46.46884" lon="13.781633"><ele>859</ele></trkpt>
      <trkpt lat="46.468701" lon="13.781484"><ele>858</ele></trkpt>
      <trkpt lat="46.468607" lon="13.781249"><ele>858</ele></trkpt>
      <trkpt lat="46.46846" lon="13.781196"><ele>856</ele></trkpt>
      <trkpt lat="46.468229" lon="13.781191"><ele>854</ele></trkpt>
      <trkpt lat="46.468103" lon="13.781248"><ele>855</ele></trkpt>
      <trkpt lat="46.467988" lon="13.781268"><ele>856</ele></trkpt>
      <trkpt lat="46.467675" lon="13.781399"><ele>856</ele></trkpt>
      <trkpt lat="46.46755" lon="13.781514"><ele>856</ele></trkpt>
      <trkpt lat="46.467447" lon="13.781656"><ele>855</ele></trkpt>
      <trkpt lat="46.467347" lon="13.781732"><ele>854</ele></trkpt>
      <trkpt lat="46.466932" lon="13.781725"><ele>857</ele></trkpt>
      <trkpt lat="46.466828" lon="13.781833"><ele>856</ele></trkpt>
      <trkpt lat="46.466651" lon="13.782069"><ele>854</ele></trkpt>
      <trkpt lat="46.466772" lon="13.782335"><ele>853</ele></trkpt>
      <trkpt lat="46.466852" lon="13.782543"><ele>853</ele></trkpt>
      <trkpt lat="46.466933" lon="13.782707"><ele>852</ele></trkpt>
      <trkpt lat="46.466999" lon="13.782803"><ele>852</ele></trkpt>
      <trkpt lat="46.467048" lon="13.782857"><ele>852</ele></trkpt>
      <trkpt lat="46.467112" lon="13.78291"><ele>852</ele></trkpt>
      <trkpt lat="46.46608" lon="13.783466"><ele>855</ele></trkpt>
      <trkpt lat="46.465859" lon="13.783634"><ele>854</ele></trkpt>
      <trkpt lat="46.465515" lon="13.783972"><ele>860</ele></trkpt>
      <trkpt lat="46.46518" lon="13.784304"><ele>860</ele></trkpt>
      <trkpt lat="46.46504" lon="13.784399"><ele>860</ele></trkpt>
      <trkpt lat="46.464961" lon="13.784434"><ele>860</ele></trkpt>
      <trkpt lat="46.464877" lon="13.784448"><ele>860</ele></trkpt>
      <trkpt lat="46.464733" lon="13.784418"><ele>860</ele></trkpt>
      <trkpt lat="46.464582" lon="13.784318"><ele>862</ele></trkpt>
      <trkpt lat="46.464289" lon="13.784092"><ele>864</ele></trkpt>
      <trkpt lat="46.464141" lon="13.784083"><ele>866</ele></trkpt>
      <trkpt lat="46.4639" lon="13.784186"><ele>868</ele></trkpt>
      <trkpt lat="46.463724" lon="13.784272"><ele>868</ele></trkpt>
      <trkpt lat="46.463606" lon="13.784319"><ele>868</ele></trkpt>
      <trkpt lat="46.463442" lon="13.784463"><ele>867</ele></trkpt>
      <trkpt lat="46.463312" lon="13.784541"><ele>866</ele></trkpt>
      <trkpt lat="46.463047" lon="13.784657"><ele>864</ele></trkpt>
      <trkpt lat="46.462739" lon="13.784702"><ele>865</ele></trkpt>
      <trkpt lat="46.462646" lon="13.784674"><ele>865</ele></trkpt>
      <trkpt lat="46.462524" lon="13.784606"><ele>865</ele></trkpt>
      <trkpt lat="46.462328" lon="13.784526"><ele>866</ele></trkpt>
      <trkpt lat="46.461917" lon="13.784443"><ele>868</ele></trkpt>
      <trkpt lat="46.461793" lon="13.784433"><ele>868</ele></trkpt>
      <trkpt lat="46.46164" lon="13.784529"><ele>869</ele></trkpt>
      <trkpt lat="46.461484" lon="13.784591"><ele>870</ele></trkpt>
      <trkpt lat="46.460995" lon="13.784636"><ele>871</ele></trkpt>
      <trkpt lat="46.460699" lon="13.784605"><ele>873</ele></trkpt>
      <trkpt lat="46.460141" lon="13.784324"><ele>875</ele></trkpt>
      <trkpt lat="46.459831" lon="13.784098"><ele>874</ele></trkpt>
      <trkpt lat="46.459612" lon="13.783866"><ele>876</ele></trkpt>
      <trkpt lat="46.45949" lon="13.783646"><ele>877</ele></trkpt>
      <trkpt lat="46.459389" lon="13.783276"><ele>877</ele></trkpt>
      <trkpt lat="46.459296" lon="13.783066"><ele>878</ele></trkpt>
      <trkpt lat="46.459192" lon="13.782875"><ele>879</ele></trkpt>
      <trkpt lat="46.459041" lon="13.782636"><ele>879</ele></trkpt>
      <trkpt lat="46.458959" lon="13.78257"><ele>879</ele></trkpt>
      <trkpt lat="46.458876" lon="13.782556"><ele>880</ele></trkpt>
      <trkpt lat="46.4588" lon="13.782568"><ele>879</ele></trkpt>
      <trkpt lat="46.458715" lon="13.782624"><ele>880</ele></trkpt>
      <trkpt lat="46.458566" lon="13.782743"><ele>881</ele></trkpt>
      <trkpt lat="46.458342" lon="13.782966"><ele>884</ele></trkpt>
      <trkpt lat="46.458206" lon="13.783052"><ele>885</ele></trkpt>
      <trkpt lat="46.458106" lon="13.783049"><ele>884</ele></trkpt>
      <trkpt lat="46.458025" lon="13.783016"><ele>885</ele></trkpt>
      <trkpt lat="46.457878" lon="13.782901"><ele>887</ele></trkpt>
      <trkpt lat="46.457802" lon="13.782786"><ele>886</ele></trkpt>
      <trkpt lat="46.457719" lon="13.78262"><ele>887</ele></trkpt>
      <trkpt lat="46.457642" lon="13.782504"><ele>888</ele></trkpt>
      <trkpt lat="46.457577" lon="13.782435"><ele>889</ele></trkpt>
      <trkpt lat="46.457496" lon="13.782408"><ele>890</ele></trkpt>
      <trkpt lat="46.457428" lon="13.782436"><ele>890</ele></trkpt>
      <trkpt lat="46.457322" lon="13.782541"><ele>890</ele></trkpt>
      <trkpt lat="46.457198" lon="13.7827"><ele>893</ele></trkpt>
      <trkpt lat="46.456995" lon="13.782923"><ele>895</ele></trkpt>
      <trkpt lat="46.456795" lon="13.783182"><ele>898</ele></trkpt>
      <trkpt lat="46.456728" lon="13.783227"><ele>898</ele></trkpt>
      <trkpt lat="46.4563" lon="13.783377"><ele>898</ele></trkpt>
      <trkpt lat="46.456218" lon="13.783463"><ele>898</ele></trkpt>
      <trkpt lat="46.456155" lon="13.78358"><ele>898</ele></trkpt>
      <trkpt lat="46.456001" lon="13.783741"><ele>901</ele></trkpt>
      <trkpt lat="46.455809" lon="13.78372"><ele>900</ele></trkpt>
      <trkpt lat="46.455261" lon="13.783726"><ele>901</ele></trkpt>
      <trkpt lat="46.455102" lon="13.783761"><ele>902</ele></trkpt>
      <trkpt lat="46.454945" lon="13.783755"><ele>903</ele></trkpt>
      <trkpt lat="46.454635" lon="13.783613"><ele>900</ele></trkpt>
      <trkpt lat="46.454532" lon="13.783603"><ele>901</ele></trkpt>
      <trkpt lat="46.454436" lon="13.783533"><ele>901</ele></trkpt>
      <trkpt lat="46.454329" lon="13.783405"><ele>902</ele></trkpt>
      <trkpt lat="46.454177" lon="13.783242"><ele>902</ele></trkpt>
      <trkpt lat="46.454126" lon="13.783108"><ele>902</ele></trkpt>
      <trkpt lat="46.454095" lon="13.782979"><ele>902</ele></trkpt>
      <trkpt lat="46.453995" lon="13.782876"><ele>902</ele></trkpt>
      <trkpt lat="46.453828" lon="13.782827"><ele>903</ele></trkpt>
      <trkpt lat="46.45321" lon="13.783027"><ele>909</ele></trkpt>
      <trkpt lat="46.453148" lon="13.783048"><ele>910</ele></trkpt>
      <trkpt lat="46.453079" lon="13.783042"><ele>911</ele></trkpt>
      <trkpt lat="46.452824" lon="13.782978"><ele>912</ele></trkpt>
      <trkpt lat="46.452607" lon="13.783014"><ele>913</ele></trkpt>
      <trkpt lat="46.45254" lon="13.783033"><ele>914</ele></trkpt>
      <trkpt lat="46.452395" lon="13.782928"><ele>914</ele></trkpt>
      <trkpt lat="46.452254" lon="13.782842"><ele>913</ele></trkpt>
      <trkpt lat="46.452101" lon="13.782779"><ele>915</ele></trkpt>
      <trkpt lat="46.451631" lon="13.782338"><ele>916</ele></trkpt>
      <trkpt lat="46.451538" lon="13.782234"><ele>916</ele></trkpt>
      <trkpt lat="46.45146" lon="13.782161"><ele>916</ele></trkpt>
      <trkpt lat="46.451397" lon="13.782142"><ele>917</ele></trkpt>
      <trkpt lat="46.451238" lon="13.782018"><ele>917</ele></trkpt>
      <trkpt lat="46.451034" lon="13.781774"><ele>916</ele></trkpt>
      <trkpt lat="46.450931" lon="13.781655"><ele>917</ele></trkpt>
      <trkpt lat="46.450807" lon="13.78153"><ele>917</ele></trkpt>
      <trkpt lat="46.450708" lon="13.78113"><ele>917</ele></trkpt>
      <trkpt lat="46.45065" lon="13.78106"><ele>918</ele></trkpt>
      <trkpt lat="46.450456" lon="13.780973"><ele>918</ele></trkpt>
      <trkpt lat="46.450254" lon="13.780932"><ele>919</ele></trkpt>
      <trkpt lat="46.449815" lon="13.780801"><ele>920</ele></trkpt>
      <trkpt lat="46.449643" lon="13.780777"><ele>922</ele></trkpt>
      <trkpt lat="46.448987" lon="13.780608"><ele>926</ele></trkpt>
      <trkpt lat="46.448705" lon="13.780415"><ele>926</ele></trkpt>
      <trkpt lat="46.448522" lon="13.780436"><ele>928</ele></trkpt>
      <trkpt lat="46.448316" lon="13.780403"><ele>927</ele></trkpt>
      <trkpt lat="46.448051" lon="13.780476"><ele>929</ele></trkpt>
      <trkpt lat="46.44774" lon="13.7805"><ele>930</ele></trkpt>
      <trkpt lat="46.447424" lon="13.780928"><ele>933</ele></trkpt>
      <trkpt lat="46.447333" lon="13.781034"><ele>933</ele></trkpt>
      <trkpt lat="46.447238" lon="13.781124"><ele>933</ele></trkpt>
      <trkpt lat="46.447085" lon="13.781129"><ele>933</ele></trkpt>
      <trkpt lat="46.446863" lon="13.781085"><ele>933</ele></trkpt>
      <trkpt lat="46.446753" lon="13.781072"><ele>934</ele></trkpt>
      <trkpt lat="46.446133" lon="13.781203"><ele>939</ele></trkpt>
      <trkpt lat="46.445832" lon="13.781245"><ele>941</ele></trkpt>
      <trkpt lat="46.445184" lon="13.781232"><ele>949</ele></trkpt>
      <trkpt lat="46.445027" lon="13.78125"><ele>952</ele></trkpt>
      <trkpt lat="46.444876" lon="13.781316"><ele>955</ele></trkpt>
      <trkpt lat="46.444663" lon="13.781382"><ele>958</ele></trkpt>
      <trkpt lat="46.444401" lon="13.78131"><ele>960</ele></trkpt>
      <trkpt lat="46.444125" lon="13.781434"><ele>963</ele></trkpt>
      <trkpt lat="46.443987" lon="13.78157"><ele>966</ele></trkpt>
      <trkpt lat="46.443886" lon="13.781561"><ele>967</ele></trkpt>
      <trkpt lat="46.443724" lon="13.781538"><ele>968</ele></trkpt>
      <trkpt lat="46.443554" lon="13.781457"><ele>970</ele></trkpt>
      <trkpt lat="46.443409" lon="13.781478"><ele>970</ele></trkpt>
      <trkpt lat="46.443263" lon="13.78156"><ele>970</ele></trkpt>
      <trkpt lat="46.443216" lon="13.781551"><ele>970</ele></trkpt>
      <trkpt lat="46.443151" lon="13.781779"><ele>971</ele></trkpt>
      <trkpt lat="46.443116" lon="13.781944"><ele>972</ele></trkpt>
      <trkpt lat="46.443041" lon="13.782203"><ele>973</ele></trkpt>
      <trkpt lat="46.44291" lon="13.782418"><ele>976</ele></trkpt>
      <trkpt lat="46.442818" lon="13.782651"><ele>980</ele></trkpt>
      <trkpt lat="46.44279" lon="13.782891"><ele>983</ele></trkpt>
      <trkpt lat="46.442702" lon="13.783134"><ele>989</ele></trkpt>
      <trkpt lat="46.442685" lon="13.7834"><ele>994</ele></trkpt>
      <trkpt lat="46.442711" lon="13.783668"><ele>1000</ele></trkpt>
      <trkpt lat="46.442808" lon="13.783902"><ele>1005</ele></trkpt>
      <trkpt lat="46.442949" lon="13.784053"><ele>1010</ele></trkpt>
      <trkpt lat="46.442877" lon="13.784244"><ele>1014</ele></trkpt>
      <trkpt lat="46.442815" lon="13.784547"><ele>1023</ele></trkpt>
      <trkpt lat="46.44262" lon="13.784457"><ele>1024</ele></trkpt>
      <trkpt lat="46.44261" lon="13.784709"><ele>1034</ele></trkpt>
      <trkpt lat="46.442758" lon="13.784881"><ele>1036</ele></trkpt>
      <trkpt lat="46.44269" lon="13.785132"><ele>1048</ele></trkpt>
      <trkpt lat="46.442523" lon="13.785174"><ele>1057</ele></trkpt>
      <trkpt lat="46.442448" lon="13.785438"><ele>1066</ele></trkpt>
      <trkpt lat="46.442628" lon="13.785854"><ele>1076</ele></trkpt>
      <trkpt lat="46.442645" lon="13.786135"><ele>1082</ele></trkpt>
      <trkpt lat="46.442816" lon="13.786042"><ele>1084</ele></trkpt>
      <trkpt lat="46.442891" lon="13.78625"><ele>1089</ele></trkpt>
      <trkpt lat="46.442724" lon="13.786193"><ele>1087</ele></trkpt>
      <trkpt lat="46.442837" lon="13.786359"><ele>1092</ele></trkpt>
      <trkpt lat="46.44288" lon="13.786644"><ele>1095</ele></trkpt>
      <trkpt lat="46.443056" lon="13.78707"><ele>1110</ele></trkpt>
      <trkpt lat="46.443042" lon="13.787373"><ele>1120</ele></trkpt>
      <trkpt lat="46.44316" lon="13.787571"><ele>1127</ele></trkpt>
      <trkpt lat="46.443283" lon="13.787745"><ele>1134</ele></trkpt>
      <trkpt lat="46.44316" lon="13.787571"><ele>1127</ele></trkpt>
      <trkpt lat="46.443042" lon="13.787373"><ele>1120</ele></trkpt>
      <trkpt lat="46.443056" lon="13.78707"><ele>1110</ele></trkpt>
      <trkpt lat="46.44288" lon="13.786644"><ele>1095</ele></trkpt>
      <trkpt lat="46.442837" lon="13.786359"><ele>1092</ele></trkpt>
      <trkpt lat="46.442724" lon="13.786193"><ele>1087</ele></trkpt>
      <trkpt lat="46.442891" lon="13.78625"><ele>1089</ele></trkpt>
      <trkpt lat="46.442816" lon="13.786042"><ele>1084</ele></trkpt>
      <trkpt lat="46.442645" lon="13.786135"><ele>1082</ele></trkpt>
      <trkpt lat="46.442628" lon="13.785854"><ele>1076</ele></trkpt>
      <trkpt lat="46.442448" lon="13.785438"><ele>1066</ele></trkpt>
      <trkpt lat="46.442523" lon="13.785174"><ele>1057</ele></trkpt>
      <trkpt lat="46.44269" lon="13.785132"><ele>1048</ele></trkpt>
      <trkpt lat="46.442758" lon="13.784881"><ele>1036</ele></trkpt>
      <trkpt lat="46.44261" lon="13.784709"><ele>1034</ele></trkpt>
      <trkpt lat="46.44262" lon="13.784457"><ele>1024</ele></trkpt>
      <trkpt lat="46.442815" lon="13.784547"><ele>1023</ele></trkpt>
      <trkpt lat="46.442877" lon="13.784244"><ele>1014</ele></trkpt>
      <trkpt lat="46.442949" lon="13.784053"><ele>1010</ele></trkpt>
      <trkpt lat="46.442808" lon="13.783902"><ele>1005</ele></trkpt>
      <trkpt lat="46.442711" lon="13.783668"><ele>1000</ele></trkpt>
      <trkpt lat="46.442685" lon="13.7834"><ele>994</ele></trkpt>
      <trkpt lat="46.442702" lon="13.783134"><ele>989</ele></trkpt>
      <trkpt lat="46.44279" lon="13.782891"><ele>983</ele></trkpt>
      <trkpt lat="46.442818" lon="13.782651"><ele>980</ele></trkpt>
      <trkpt lat="46.44291" lon="13.782418"><ele>976</ele></trkpt>
      <trkpt lat="46.443041" lon="13.782203"><ele>973</ele></trkpt>
      <trkpt lat="46.443116" lon="13.781944"><ele>972</ele></trkpt>
      <trkpt lat="46.443151" lon="13.781779"><ele>971</ele></trkpt>
      <trkpt lat="46.443216" lon="13.781551"><ele>970</ele></trkpt>
      <trkpt lat="46.442975" lon="13.781507"><ele>970</ele></trkpt>
      <trkpt lat="46.442838" lon="13.781482"><ele>970</ele></trkpt>
      <trkpt lat="46.442742" lon="13.781511"><ele>970</ele></trkpt>
      <trkpt lat="46.442626" lon="13.781685"><ele>971</ele></trkpt>
      <trkpt lat="46.442507" lon="13.78166"><ele>970</ele></trkpt>
      <trkpt lat="46.442456" lon="13.781565"><ele>970</ele></trkpt>
      <trkpt lat="46.442435" lon="13.781525"><ele>971</ele></trkpt>
      <trkpt lat="46.442383" lon="13.781379"><ele>971</ele></trkpt>
      <trkpt lat="46.442324" lon="13.781127"><ele>973</ele></trkpt>
      <trkpt lat="46.442229" lon="13.780931"><ele>974</ele></trkpt>
      <trkpt lat="46.442108" lon="13.780787"><ele>974</ele></trkpt>
      <trkpt lat="46.441976" lon="13.780777"><ele>975</ele></trkpt>
      <trkpt lat="46.441426" lon="13.780806"><ele>979</ele></trkpt>
      <trkpt lat="46.441362" lon="13.78082"><ele>979</ele></trkpt>
      <trkpt lat="46.441311" lon="13.780852"><ele>979</ele></trkpt>
      <trkpt lat="46.441282" lon="13.78093"><ele>979</ele></trkpt>
      <trkpt lat="46.441215" lon="13.781011"><ele>980</ele></trkpt>
      <trkpt lat="46.441145" lon="13.781114"><ele>980</ele></trkpt>
      <trkpt lat="46.441086" lon="13.781348"><ele>980</ele></trkpt>
      <trkpt lat="46.441004" lon="13.781648"><ele>983</ele></trkpt>
      <trkpt lat="46.440928" lon="13.781765"><ele>983</ele></trkpt>
      <trkpt lat="46.440799" lon="13.782013"><ele>985</ele></trkpt>
      <trkpt lat="46.440558" lon="13.782245"><ele>987</ele></trkpt>
      <trkpt lat="46.440504" lon="13.782476"><ele>988</ele></trkpt>
      <trkpt lat="46.440513" lon="13.782691"><ele>990</ele></trkpt>
      <trkpt lat="46.440443" lon="13.782908"><ele>991</ele></trkpt>
      <trkpt lat="46.440325" lon="13.783078"><ele>994</ele></trkpt>
      <trkpt lat="46.440271" lon="13.783341"><ele>997</ele></trkpt>
      <trkpt lat="46.440262" lon="13.783508"><ele>997</ele></trkpt>
      <trkpt lat="46.440063" lon="13.783794"><ele>1000</ele></trkpt>
      <trkpt lat="46.439901" lon="13.784165"><ele>1003</ele></trkpt>
      <trkpt lat="46.439728" lon="13.784353"><ele>1006</ele></trkpt>
      <trkpt lat="46.439571" lon="13.784541"><ele>1009</ele></trkpt>
      <trkpt lat="46.439425" lon="13.784832"><ele>1011</ele></trkpt>
      <trkpt lat="46.439228" lon="13.785182"><ele>1013</ele></trkpt>
      <trkpt lat="46.438914" lon="13.785509"><ele>1016</ele></trkpt>
      <trkpt lat="46.438725" lon="13.785857"><ele>1018</ele></trkpt>
      <trkpt lat="46.438458" lon="13.786151"><ele>1024</ele></trkpt>
      <trkpt lat="46.438186" lon="13.786544"><ele>1027</ele></trkpt>
      <trkpt lat="46.437527" lon="13.78683"><ele>1036</ele></trkpt>
      <trkpt lat="46.437279" lon="13.787057"><ele>1039</ele></trkpt>
      <trkpt lat="46.437059" lon="13.787213"><ele>1042</ele></trkpt>
      <trkpt lat="46.43688" lon="13.787245"><ele>1045</ele></trkpt>
      <trkpt lat="46.436463" lon="13.787472"><ele>1054</ele></trkpt>
      <trkpt lat="46.435924" lon="13.787828"><ele>1064</ele></trkpt>
      <trkpt lat="46.435602" lon="13.788098"><ele>1068</ele></trkpt>
      <trkpt lat="46.435213" lon="13.788161"><ele>1073</ele></trkpt>
      <trkpt lat="46.434915" lon="13.788281"><ele>1078</ele></trkpt>
      <trkpt lat="46.43454" lon="13.787893"><ele>1083</ele></trkpt>
      <trkpt lat="46.434247" lon="13.788021"><ele>1088</ele></trkpt>
      <trkpt lat="46.433999" lon="13.787811"><ele>1092</ele></trkpt>
      <trkpt lat="46.43374" lon="13.78773"><ele>1095</ele></trkpt>
      <trkpt lat="46.433553" lon="13.787577"><ele>1096</ele></trkpt>
      <trkpt lat="46.433369" lon="13.787494"><ele>1099</ele></trkpt>
      <trkpt lat="46.433155" lon="13.787505"><ele>1102</ele></trkpt>
      <trkpt lat="46.432841" lon="13.787393"><ele>1105</ele></trkpt>
      <trkpt lat="46.432727" lon="13.787391"><ele>1106</ele></trkpt>
      <trkpt lat="46.432578" lon="13.787428"><ele>1108</ele></trkpt>
      <trkpt lat="46.432534" lon="13.787477"><ele>1109</ele></trkpt>
      <trkpt lat="46.432437" lon="13.787637"><ele>1111</ele></trkpt>
    </trkseg>
  </trk>
</gpx>
