<?xml version="1.0" encoding="UTF-8"?>
<gpx version="1.1" creator="hike-trip" xmlns="http://www.topografix.com/GPX/1/1">
  <metadata>
    <name>Lago di Sorapis</name>
    <desc>Routed with BRouter (hiking-mountain) over OpenStreetMap data through hand-verified anchor points. Schematic in places — verify against signage on the ground. Track traces one direction — return the same way.</desc>
    <copyright author="OpenStreetMap contributors"><license>https://www.openstreetmap.org/copyright</license></copyright>
    <bounds minlat="46.520854" minlon="12.200656" maxlat="46.557025" maxlon="12.228883"/>
  </metadata>
  <wpt lat="46.557" lon="12.2019"><name>Trailhead — Lago di Sorapis</name><sym>Trail Head</sym></wpt>
  <wpt lat="46.5206" lon="12.2233"><ele>1925</ele><name>Lago di Sorapis</name><sym>Summit</sym></wpt>
  <trk>
    <name>Lago di Sorapis (No. 215)</name>
    <type>hiking</type>
    <trkseg>
      <trkpt lat="46.557005" lon="12.201904"><ele>1805</ele></trkpt>
      <trkpt lat="46.557025" lon="12.201853"><ele>1805</ele></trkpt>
      <trkpt lat="46.556961" lon="12.201757"><ele>1804</ele></trkpt>
      <trkpt lat="46.556664" lon="12.201483"><ele>1802</ele></trkpt>
      <trkpt lat="46.556386" lon="12.201335"><ele>1803</ele></trkpt>
      <trkpt lat="46.556231" lon="12.201309"><ele>1802</ele></trkpt>
      <trkpt lat="46.556161" lon="12.201311"><ele>1801</ele></trkpt>
      <trkpt lat="46.556079" lon="12.201333"><ele>1801</ele></trkpt>
      <trkpt lat="46.556031" lon="12.201333"><ele>1801</ele></trkpt>
      <trkpt lat="46.555978" lon="12.201298"><ele>1801</ele></trkpt>
      <trkpt lat="46.555755" lon="12.201091"><ele>1802</ele></trkpt>
      <trkpt lat="46.555672" lon="12.201067"><ele>1803</ele></trkpt>
      <trkpt lat="46.555583" lon="12.201086"><ele>1804</ele></trkpt>
      <trkpt lat="46.55551" lon="12.201157"><ele>1805</ele></trkpt>
      <trkpt lat="46.55546" lon="12.20125"><ele>1805</ele></trkpt>
      <trkpt lat="46.555275" lon="12.201875"><ele>1798</ele></trkpt>
      <trkpt lat="46.55515" lon="12.202167"><ele>1801</ele></trkpt>
      <trkpt lat="46.554989" lon="12.202435"><ele>1804</ele></trkpt>
      <trkpt lat="46.554842" lon="12.202628"><ele>1805</ele></trkpt>
      <trkpt lat="46.554578" lon="12.20284"><ele>1809</ele></trkpt>
      <trkpt lat="46.554449" lon="12.202982"><ele>1810</ele></trkpt>
      <trkpt lat="46.554124" lon="12.203527"><ele>1809</ele></trkpt>
      <trkpt lat="46.554078" lon="12.203626"><ele>1809</ele></trkpt>
      <trkpt lat="46.554058" lon="12.203763"><ele>1807</ele></trkpt>
      <trkpt lat="46.554041" lon="12.203999"><ele>1806</ele></trkpt>
      <trkpt lat="46.554021" lon="12.204112"><ele>1806</ele></trkpt>
      <trkpt lat="46.553955" lon="12.204246"><ele>1807</ele></trkpt>
      <trkpt lat="46.553811" lon="12.204452"><ele>1809</ele></trkpt>
      <trkpt lat="46.5537" lon="12.204557"><ele>1811</ele></trkpt>
      <trkpt lat="46.553583" lon="12.204606"><ele>1813</ele></trkpt>
      <trkpt lat="46.553473" lon="12.204595"><ele>1813</ele></trkpt>
      <trkpt lat="46.553194" lon="12.204447"><ele>1815</ele></trkpt>
      <trkpt lat="46.552961" lon="12.204336"><ele>1817</ele></trkpt>
      <trkpt lat="46.552874" lon="12.204315"><ele>1817</ele></trkpt>
      <trkpt lat="46.552628" lon="12.204296"><ele>1818</ele></trkpt>
      <trkpt lat="46.552028" lon="12.204176"><ele>1823</ele></trkpt>
      <trkpt lat="46.551449" lon="12.204291"><ele>1825</ele></trkpt>
      <trkpt lat="46.551215" lon="12.204313"><ele>1826</ele></trkpt>
      <trkpt lat="46.551129" lon="12.204339"><ele>1826</ele></trkpt>
      <trkpt lat="46.551058" lon="12.204409"><ele>1826</ele></trkpt>
      <trkpt lat="46.551004" lon="12.204519"><ele>1826</ele></trkpt>
      <trkpt lat="46.55097" lon="12.204691"><ele>1827</ele></trkpt>
      <trkpt lat="46.550904" lon="12.20493"><ele>1827</ele></trkpt>
      <trkpt lat="46.550838" lon="12.205016"><ele>1828</ele></trkpt>
      <trkpt lat="46.550785" lon="12.205035"><ele>1830</ele></trkpt>
      <trkpt lat="46.550713" lon="12.205014"><ele>1833</ele></trkpt>
      <trkpt lat="46.550645" lon="12.204927"><ele>1835</ele></trkpt>
      <trkpt lat="46.550469" lon="12.204563"><ele>1837</ele></trkpt>
      <trkpt lat="46.5504" lon="12.20447"><ele>1839</ele></trkpt>
      <trkpt lat="46.550319" lon="12.204402"><ele>1840</ele></trkpt>
      <trkpt lat="46.550177" lon="12.204327"><ele>1844</ele></trkpt>
      <trkpt lat="46.550073" lon="12.20422"><ele>1845</ele></trkpt>
      <trkpt lat="46.549803" lon="12.203824"><ele>1846</ele></trkpt>
      <trkpt lat="46.549637" lon="12.203524"><ele>1848</ele></trkpt>
      <trkpt lat="46.549353" lon="12.203079"><ele>1855</ele></trkpt>
      <trkpt lat="46.549285" lon="12.202946"><ele>1859</ele></trkpt>
      <trkpt lat="46.549151" lon="12.202517"><ele>1866</ele></trkpt>
      <trkpt lat="46.549096" lon="12.202299"><ele>1870</ele></trkpt>
      <trkpt lat="46.549029" lon="12.201928"><ele>1872</ele></trkpt>
      <trkpt lat="46.548945" lon="12.201529"><ele>1877</ele></trkpt>
      <trkpt lat="46.548919" lon="12.201464"><ele>1879</ele></trkpt>
      <trkpt lat="46.548862" lon="12.201399"><ele>1883</ele></trkpt>
      <trkpt lat="46.548565" lon="12.201167"><ele>1890</ele></trkpt>
      <trkpt lat="46.548452" lon="12.201104"><ele>1890</ele></trkpt>
      <trkpt lat="46.548318" lon="12.200984"><ele>1890</ele></trkpt>
      <trkpt lat="46.548205" lon="12.200943"><ele>1891</ele></trkpt>
      <trkpt lat="46.547872" lon="12.2009"><ele>1898</ele></trkpt>
      <trkpt lat="46.547742" lon="12.200891"><ele>1900</ele></trkpt>
      <trkpt lat="46.547703" lon="12.200867"><ele>1900</ele></trkpt>
      <trkpt lat="46.547579" lon="12.20069"><ele>1899</ele></trkpt>
      <trkpt lat="46.547525" lon="12.200661"><ele>1899</ele></trkpt>
      <trkpt lat="46.547479" lon="12.200656"><ele>1899</ele></trkpt>
      <trkpt lat="46.547353" lon="12.200696"><ele>1899</ele></trkpt>
      <trkpt lat="46.54732" lon="12.200738"><ele>1899</ele></trkpt>
      <trkpt lat="46.547275" lon="12.200893"><ele>1901</ele></trkpt>
      <trkpt lat="46.547246" lon="12.200957"><ele>1902</ele></trkpt>
      <trkpt lat="46.547216" lon="12.200989"><ele>1902</ele></trkpt>
      <trkpt lat="46.547183" lon="12.200994"><ele>1902</ele></trkpt>
      <trkpt lat="46.547095" lon="12.200967"><ele>1901</ele></trkpt>
      <trkpt lat="46.547035" lon="12.20097"><ele>1901</ele></trkpt>
      <trkpt lat="46.546923" lon="12.201004"><ele>1902</ele></trkpt>
      <trkpt lat="46.546797" lon="12.201094"><ele>1905</ele></trkpt>
      <trkpt lat="46.546736" lon="12.20111"><ele>1905</ele></trkpt>
      <trkpt lat="46.546673" lon="12.201104"><ele>1906</ele></trkpt>
      <trkpt lat="46.546417" lon="12.200978"><ele>1906</ele></trkpt>
      <trkpt lat="46.54636" lon="12.200983"><ele>1907</ele></trkpt>
      <trkpt lat="46.546268" lon="12.201015"><ele>1911</ele></trkpt>
      <trkpt lat="46.546188" lon="12.201027"><ele>1913</ele></trkpt>
      <trkpt lat="46.546018" lon="12.201011"><ele>1915</ele></trkpt>
      <trkpt lat="46.545847" lon="12.201038"><ele>1917</ele></trkpt>
      <trkpt lat="46.545654" lon="12.201023"><ele>1918</ele></trkpt>
      <trkpt lat="46.545366" lon="12.201027"><ele>1923</ele></trkpt>
      <trkpt lat="46.545301" lon="12.201041"><ele>1924</ele></trkpt>
      <trkpt lat="46.545215" lon="12.201104"><ele>1924</ele></trkpt>
      <trkpt lat="46.545058" lon="12.201503"><ele>1926</ele></trkpt>
      <trkpt lat="46.545014" lon="12.201523"><ele>1925</ele></trkpt>
      <trkpt lat="46.544784" lon="12.201465"><ele>1925</ele></trkpt>
      <trkpt lat="46.544739" lon="12.201468"><ele>1925</ele></trkpt>
      <trkpt lat="46.544697" lon="12.201494"><ele>1926</ele></trkpt>
      <trkpt lat="46.544665" lon="12.201553"><ele>1927</ele></trkpt>
      <trkpt lat="46.544624" lon="12.201705"><ele>1929</ele></trkpt>
      <trkpt lat="46.544532" lon="12.201869"><ele>1931</ele></trkpt>
      <trkpt lat="46.54446" lon="12.201913"><ele>1931</ele></trkpt>
      <trkpt lat="46.544354" lon="12.201936"><ele>1933</ele></trkpt>
      <trkpt lat="46.54427" lon="12.201978"><ele>1934</ele></trkpt>
      <trkpt lat="46.544211" lon="12.202053"><ele>1935</ele></trkpt>
      <trkpt lat="46.544143" lon="12.202224"><ele>1934</ele></trkpt>
      <trkpt lat="46.54409" lon="12.202275"><ele>1933</ele></trkpt>
      <trkpt lat="46.544035" lon="12.202278"><ele>1933</ele></trkpt>
      <trkpt lat="46.543924" lon="12.20216"><ele>1934</ele></trkpt>
      <trkpt lat="46.543805" lon="12.202058"><ele>1934</ele></trkpt>
      <trkpt lat="46.543716" lon="12.202022"><ele>1935</ele></trkpt>
      <trkpt lat="46.54354" lon="12.20203"><ele>1936</ele></trkpt>
      <trkpt lat="46.543154" lon="12.202001"><ele>1939</ele></trkpt>
      <trkpt lat="46.543045" lon="12.202037"><ele>1939</ele></trkpt>
      <trkpt lat="46.542946" lon="12.202218"><ele>1942</ele></trkpt>
      <trkpt lat="46.54282" lon="12.202275"><ele>1944</ele></trkpt>
      <trkpt lat="46.542693" lon="12.202249"><ele>1947</ele></trkpt>
      <trkpt lat="46.542454" lon="12.201998"><ele>1947</ele></trkpt>
      <trkpt lat="46.542334" lon="12.201929"><ele>1948</ele></trkpt>
      <trkpt lat="46.542134" lon="12.201898"><ele>1954</ele></trkpt>
      <trkpt lat="46.541985" lon="12.20181"><ele>1956</ele></trkpt>
      <trkpt lat="46.541707" lon="12.201556"><ele>1958</ele></trkpt>
      <trkpt lat="46.541535" lon="12.201293"><ele>1957</ele></trkpt>
      <trkpt lat="46.541448" lon="12.2012"><ele>1958</ele></trkpt>
      <trkpt lat="46.541384" lon="12.201152"><ele>1960</ele></trkpt>
      <trkpt lat="46.541289" lon="12.201156"><ele>1961</ele></trkpt>
      <trkpt lat="46.541172" lon="12.201251"><ele>1965</ele></trkpt>
      <trkpt lat="46.541107" lon="12.201339"><ele>1968</ele></trkpt>
      <trkpt lat="46.541054" lon="12.201359"><ele>1969</ele></trkpt>
      <trkpt lat="46.54095" lon="12.201326"><ele>1971</ele></trkpt>
      <trkpt lat="46.540771" lon="12.201212"><ele>1972</ele></trkpt>
      <trkpt lat="46.540699" lon="12.201278"><ele>1973</ele></trkpt>
      <trkpt lat="46.540692" lon="12.201484"><ele>1977</ele></trkpt>
      <trkpt lat="46.540622" lon="12.201584"><ele>1980</ele></trkpt>
      <trkpt lat="46.540229" lon="12.201619"><ele>1989</ele></trkpt>
      <trkpt lat="46.540081" lon="12.20157"><ele>1989</ele></trkpt>
      <trkpt lat="46.539891" lon="12.201463"><ele>1992</ele></trkpt>
      <trkpt lat="46.539837" lon="12.20142"><ele>1992</ele></trkpt>
      <trkpt lat="46.539666" lon="12.201466"><ele>2001</ele></trkpt>
      <trkpt lat="46.539591" lon="12.20146"><ele>2004</ele></trkpt>
      <trkpt lat="46.539488" lon="12.201466"><ele>2008</ele></trkpt>
      <trkpt lat="46.53944" lon="12.201547"><ele>2011</ele></trkpt>
      <trkpt lat="46.539301" lon="12.201606"><ele>2015</ele></trkpt>
      <trkpt lat="46.539203" lon="12.2017"><ele>2018</ele></trkpt>
      <trkpt lat="46.538967" lon="12.201758"><ele>2017</ele></trkpt>
      <trkpt lat="46.538812" lon="12.20177"><ele>2017</ele></trkpt>
      <trkpt lat="46.538718" lon="12.201836"><ele>2018</ele></trkpt>
      <trkpt lat="46.53863" lon="12.201959"><ele>2019</ele></trkpt>
      <trkpt lat="46.538496" lon="12.202107"><ele>2023</ele></trkpt>
      <trkpt lat="46.538369" lon="12.202279"><ele>2025</ele></trkpt>
      <trkpt lat="46.538245" lon="12.202364"><ele>2028</ele></trkpt>
      <trkpt lat="46.538174" lon="12.202536"><ele>2030</ele></trkpt>
      <trkpt lat="46.538093" lon="12.202651"><ele>2032</ele></trkpt>
      <trkpt lat="46.538021" lon="12.202849"><ele>2036</ele></trkpt>
      <trkpt lat="46.538069" lon="12.203076"><ele>2037</ele></trkpt>
      <trkpt lat="46.538095" lon="12.203288"><ele>2041</ele></trkpt>
      <trkpt lat="46.538229" lon="12.20353"><ele>2046</ele></trkpt>
      <trkpt lat="46.538318" lon="12.203663"><ele>2048</ele></trkpt>
      <trkpt lat="46.53821" lon="12.203697"><ele>2052</ele></trkpt>
      <trkpt lat="46.538107" lon="12.203744"><ele>2055</ele></trkpt>
      <trkpt lat="46.538005" lon="12.203855"><ele>2061</ele></trkpt>
      <trkpt lat="46.537878" lon="12.203869"><ele>2062</ele></trkpt>
      <trkpt lat="46.537801" lon="12.203917"><ele>2063</ele></trkpt>
      <trkpt lat="46.537717" lon="12.203918"><ele>2064</ele></trkpt>
      <trkpt lat="46.537617" lon="12.203962"><ele>2064</ele></trkpt>
      <trkpt lat="46.537541" lon="12.20404"><ele>2065</ele></trkpt>
      <trkpt lat="46.537488" lon="12.204114"><ele>2065</ele></trkpt>
      <trkpt lat="46.537362" lon="12.204383"><ele>2068</ele></trkpt>
      <trkpt lat="46.53725" lon="12.204555"><ele>2069</ele></trkpt>
      <trkpt lat="46.537178" lon="12.204624"><ele>2070</ele></trkpt>
      <trkpt lat="46.53707" lon="12.204679"><ele>2072</ele></trkpt>
      <trkpt lat="46.537009" lon="12.204759"><ele>2073</ele></trkpt>
      <trkpt lat="46.536891" lon="12.205036"><ele>2075</ele></trkpt>
      <trkpt lat="46.536839" lon="12.205095"><ele>2076</ele></trkpt>
      <trkpt lat="46.536756" lon="12.205162"><ele>2077</ele></trkpt>
      <trkpt lat="46.536728" lon="12.205212"><ele>2077</ele></trkpt>
      <trkpt lat="46.536711" lon="12.205267"><ele>2078</ele></trkpt>
      <trkpt lat="46.536686" lon="12.205351"><ele>2079</ele></trkpt>
      <trkpt lat="46.536505" lon="12.205698"><ele>2090</ele></trkpt>
      <trkpt lat="46.536403" lon="12.205874"><ele>2096</ele></trkpt>
      <trkpt lat="46.536295" lon="12.206004"><ele>2101</ele></trkpt>
      <trkpt lat="46.536206" lon="12.206012"><ele>2103</ele></trkpt>
      <trkpt lat="46.536" lon="12.206231"><ele>2111</ele></trkpt>
      <trkpt lat="46.536019" lon="12.206269"><ele>2110</ele></trkpt>
      <trkpt lat="46.535951" lon="12.206356"><ele>2113</ele></trkpt>
      <trkpt lat="46.535838" lon="12.20654"><ele>2119</ele></trkpt>
      <trkpt lat="46.535678" lon="12.206835"><ele>2125</ele></trkpt>
      <trkpt lat="46.535652" lon="12.20684"><ele>2125</ele></trkpt>
      <trkpt lat="46.535529" lon="12.206912"><ele>2125</ele></trkpt>
      <trkpt lat="46.535483" lon="12.206976"><ele>2127</ele></trkpt>
      <trkpt lat="46.53545" lon="12.207076"><ele>2130</ele></trkpt>
      <trkpt lat="46.535713" lon="12.207389"><ele>2132</ele></trkpt>
      <trkpt lat="46.535885" lon="12.207877"><ele>2130</ele></trkpt>
      <trkpt lat="46.536102" lon="12.20831"><ele>2136</ele></trkpt>
      <trkpt lat="46.536076" lon="12.208493"><ele>2135</ele></trkpt>
      <trkpt lat="46.536142" lon="12.208679"><ele>2133</ele></trkpt>
      <trkpt lat="46.536151" lon="12.208764"><ele>2134</ele></trkpt>
      <trkpt lat="46.536115" lon="12.208925"><ele>2136</ele></trkpt>
      <trkpt lat="46.536126" lon="12.209076"><ele>2135</ele></trkpt>
      <trkpt lat="46.536216" lon="12.209506"><ele>2135</ele></trkpt>
      <trkpt lat="46.53621" lon="12.209675"><ele>2138</ele></trkpt>
      <trkpt lat="46.53633" lon="12.20987"><ele>2137</ele></trkpt>
      <trkpt lat="46.536337" lon="12.210057"><ele>2140</ele></trkpt>
      <trkpt lat="46.536412" lon="12.210418"><ele>2143</ele></trkpt>
      <trkpt lat="46.536408" lon="12.210563"><ele>2146</ele></trkpt>
      <trkpt lat="46.536587" lon="12.210894"><ele>2151</ele></trkpt>
      <trkpt lat="46.536683" lon="12.211148"><ele>2159</ele></trkpt>
      <trkpt lat="46.536781" lon="12.21121"><ele>2158</ele></trkpt>
      <trkpt lat="46.536891" lon="12.21153"><ele>2166</ele></trkpt>
      <trkpt lat="46.537051" lon="12.211704"><ele>2166</ele></trkpt>
      <trkpt lat="46.537113" lon="12.211947"><ele>2177</ele></trkpt>
      <trkpt lat="46.537136" lon="12.212377"><ele>2205</ele></trkpt>
      <trkpt lat="46.537186" lon="12.212529"><ele>2215</ele></trkpt>
      <trkpt lat="46.537287" lon="12.212552"><ele>2209</ele></trkpt>
      <trkpt lat="46.537326" lon="12.212595"><ele>2209</ele></trkpt>
      <trkpt lat="46.537263" lon="12.21279"><ele>2228</ele></trkpt>
      <trkpt lat="46.537244" lon="12.212871"><ele>2230</ele></trkpt>
      <trkpt lat="46.537191" lon="12.212924"><ele>2235</ele></trkpt>
      <trkpt lat="46.537237" lon="12.212981"><ele>2229</ele></trkpt>
      <trkpt lat="46.537164" lon="12.213046"><ele>2237</ele></trkpt>
      <trkpt lat="46.537225" lon="12.213143"><ele>2233</ele></trkpt>
      <trkpt lat="46.537151" lon="12.213284"><ele>2247</ele></trkpt>
      <trkpt lat="46.53715" lon="12.213349"><ele>2250</ele></trkpt>
      <trkpt lat="46.537106" lon="12.213456"><ele>2260</ele></trkpt>
      <trkpt lat="46.537044" lon="12.213473"><ele>2265</ele></trkpt>
      <trkpt lat="46.536963" lon="12.213596"><ele>2276</ele></trkpt>
      <trkpt lat="46.536975" lon="12.213666"><ele>2278</ele></trkpt>
      <trkpt lat="46.536844" lon="12.213876"><ele>2294</ele></trkpt>
      <trkpt lat="46.536892" lon="12.213999"><ele>2292</ele></trkpt>
      <trkpt lat="46.536824" lon="12.214292"><ele>2304</ele></trkpt>
      <trkpt lat="46.536755" lon="12.214483"><ele>2307</ele></trkpt>
      <trkpt lat="46.536727" lon="12.214592"><ele>2306</ele></trkpt>
      <trkpt lat="46.536739" lon="12.214705"><ele>2306</ele></trkpt>
      <trkpt lat="46.536716" lon="12.214797"><ele>2303</ele></trkpt>
      <trkpt lat="46.536677" lon="12.214778"><ele>2302</ele></trkpt>
      <trkpt lat="46.536633" lon="12.214667"><ele>2302</ele></trkpt>
      <trkpt lat="46.53634" lon="12.214624"><ele>2294</ele></trkpt>
      <trkpt lat="46.53598" lon="12.214533"><ele>2286</ele></trkpt>
      <trkpt lat="46.535901" lon="12.214453"><ele>2287</ele></trkpt>
      <trkpt lat="46.535777" lon="12.214396"><ele>2284</ele></trkpt>
      <trkpt lat="46.535784" lon="12.214474"><ele>2280</ele></trkpt>
      <trkpt lat="46.535835" lon="12.214537"><ele>2280</ele></trkpt>
      <trkpt lat="46.535892" lon="12.214741"><ele>2273</ele></trkpt>
      <trkpt lat="46.535987" lon="12.214832"><ele>2273</ele></trkpt>
      <trkpt lat="46.536009" lon="12.215099"><ele>2264</ele></trkpt>
      <trkpt lat="46.535968" lon="12.215236"><ele>2257</ele></trkpt>
      <trkpt lat="46.535895" lon="12.215356"><ele>2251</ele></trkpt>
      <trkpt lat="46.535893" lon="12.215523"><ele>2247</ele></trkpt>
      <trkpt lat="46.535843" lon="12.215618"><ele>2245</ele></trkpt>
      <trkpt lat="46.535752" lon="12.215902"><ele>2239</ele></trkpt>
      <trkpt lat="46.535741" lon="12.216122"><ele>2235</ele></trkpt>
      <trkpt lat="46.535543" lon="12.216226"><ele>2232</ele></trkpt>
      <trkpt lat="46.535394" lon="12.21661"><ele>2224</ele></trkpt>
      <trkpt lat="46.535312" lon="12.216939"><ele>2217</ele></trkpt>
      <trkpt lat="46.535273" lon="12.217136"><ele>2214</ele></trkpt>
      <trkpt lat="46.535164" lon="12.217271"><ele>2213</ele></trkpt>
      <trkpt lat="46.534635" lon="12.217587"><ele>2213</ele></trkpt>
      <trkpt lat="46.53452" lon="12.217514"><ele>2215</ele></trkpt>
      <trkpt lat="46.53438" lon="12.217498"><ele>2216</ele></trkpt>
      <trkpt lat="46.534329" lon="12.217574"><ele>2216</ele></trkpt>
      <trkpt lat="46.534275" lon="12.217823"><ele>2214</ele></trkpt>
      <trkpt lat="46.534242" lon="12.217929"><ele>2214</ele></trkpt>
      <trkpt lat="46.534243" lon="12.218117"><ele>2212</ele></trkpt>
      <trkpt lat="46.53426" lon="12.218248"><ele>2210</ele></trkpt>
      <trkpt lat="46.534225" lon="12.2184"><ele>2210</ele></trkpt>
      <trkpt lat="46.534152" lon="12.218422"><ele>2211</ele></trkpt>
      <trkpt lat="46.534099" lon="12.218521"><ele>2212</ele></trkpt>
      <trkpt lat="46.534099" lon="12.218521"><ele>2212</ele></trkpt>
      <trkpt lat="46.534152" lon="12.218422"><ele>2211</ele></trkpt>
      <trkpt lat="46.534225" lon="12.2184"><ele>2210</ele></trkpt>
      <trkpt lat="46.53426" lon="12.218248"><ele>2210</ele></trkpt>
      <trkpt lat="46.534243" lon="12.218117"><ele>2212</ele></trkpt>
      <trkpt lat="46.534242" lon="12.217929"><ele>2214</ele></trkpt>
      <trkpt lat="46.534275" lon="12.217823"><ele>2214</ele></trkpt>
      <trkpt lat="46.534329" lon="12.217574"><ele>2216</ele></trkpt>
      <trkpt lat="46.53438" lon="12.217498"><ele>2216</ele></trkpt>
      <trkpt lat="46.53452" lon="12.217514"><ele>2215</ele></trkpt>
      <trkpt lat="46.534635" lon="12.217587"><ele>2213</ele></trkpt>
      <trkpt lat="46.535164" lon="12.217271"><ele>2213</ele></trkpt>
      <trkpt lat="46.535273" lon="12.217136"><ele>2214</ele></trkpt>
      <trkpt lat="46.535312" lon="12.216939"><ele>2217</ele></trkpt>
      <trkpt lat="46.535394" lon="12.21661"><ele>2224</ele></trkpt>
      <trkpt lat="46.535543" lon="12.216226"><ele>2232</ele></trkpt>
      <trkpt lat="46.535741" lon="12.216122"><ele>2235</ele></trkpt>
      <trkpt lat="46.535752" lon="12.215902"><ele>2239</ele></trkpt>
      <trkpt lat="46.535843" lon="12.215618"><ele>2245</ele></trkpt>
      <trkpt lat="46.535893" lon="12.215523"><ele>2247</ele></trkpt>
      <trkpt lat="46.535895" lon="12.215356"><ele>2251</ele></trkpt>
      <trkpt lat="46.535968" lon="12.215236"><ele>2257</ele></trkpt>
      <trkpt lat="46.536009" lon="12.215099"><ele>2264</ele></trkpt>
      <trkpt lat="46.535987" lon="12.214832"><ele>2273</ele></trkpt>
      <trkpt lat="46.535892" lon="12.214741"><ele>2273</ele></trkpt>
      <trkpt lat="46.535835" lon="12.214537"><ele>2280</ele></trkpt>
      <trkpt lat="46.535784" lon="12.214474"><ele>2280</ele></trkpt>
      <trkpt lat="46.535777" lon="12.214396"><ele>2284</ele></trkpt>
      <trkpt lat="46.535901" lon="12.214453"><ele>2287</ele></trkpt>
      <trkpt lat="46.53598" lon="12.214533"><ele>2286</ele></trkpt>
      <trkpt lat="46.53634" lon="12.214624"><ele>2294</ele></trkpt>
      <trkpt lat="46.536633" lon="12.214667"><ele>2302</ele></trkpt>
      <trkpt lat="46.536677" lon="12.214778"><ele>2302</ele></trkpt>
      <trkpt lat="46.536716" lon="12.214797"><ele>2303</ele></trkpt>
      <trkpt lat="46.536739" lon="12.214705"><ele>2306</ele></trkpt>
      <trkpt lat="46.536727" lon="12.214592"><ele>2306</ele></trkpt>
      <trkpt lat="46.536755" lon="12.214483"><ele>2307</ele></trkpt>
      <trkpt lat="46.536824" lon="12.214292"><ele>2304</ele></trkpt>
      <trkpt lat="46.536892" lon="12.213999"><ele>2292</ele></trkpt>
      <trkpt lat="46.536844" lon="12.213876"><ele>2294</ele></trkpt>
      <trkpt lat="46.536975" lon="12.213666"><ele>2278</ele></trkpt>
      <trkpt lat="46.536963" lon="12.213596"><ele>2276</ele></trkpt>
      <trkpt lat="46.537044" lon="12.213473"><ele>2265</ele></trkpt>
      <trkpt lat="46.537106" lon="12.213456"><ele>2260</ele></trkpt>
      <trkpt lat="46.53715" lon="12.213349"><ele>2250</ele></trkpt>
      <trkpt lat="46.537151" lon="12.213284"><ele>2247</ele></trkpt>
      <trkpt lat="46.537225" lon="12.213143"><ele>2233</ele></trkpt>
      <trkpt lat="46.537164" lon="12.213046"><ele>2237</ele></trkpt>
      <trkpt lat="46.537237" lon="12.212981"><ele>2229</ele></trkpt>
      <trkpt lat="46.537191" lon="12.212924"><ele>2235</ele></trkpt>
      <trkpt lat="46.537244" lon="12.212871"><ele>2230</ele></trkpt>
      <trkpt lat="46.537263" lon="12.21279"><ele>2228</ele></trkpt>
      <trkpt lat="46.537326" lon="12.212595"><ele>2209</ele></trkpt>
      <trkpt lat="46.537287" lon="12.212552"><ele>2209</ele></trkpt>
      <trkpt lat="46.537186" lon="12.212529"><ele>2215</ele></trkpt>
      <trkpt lat="46.537136" lon="12.212377"><ele>2205</ele></trkpt>
      <trkpt lat="46.537113" lon="12.211947"><ele>2177</ele></trkpt>
      <trkpt lat="46.537051" lon="12.211704"><ele>2166</ele></trkpt>
      <trkpt lat="46.536891" lon="12.21153"><ele>2166</ele></trkpt>
      <trkpt lat="46.536781" lon="12.21121"><ele>2158</ele></trkpt>
      <trkpt lat="46.536683" lon="12.211148"><ele>2159</ele></trkpt>
      <trkpt lat="46.536587" lon="12.210894"><ele>2151</ele></trkpt>
      <trkpt lat="46.536408" lon="12.210563"><ele>2146</ele></trkpt>
      <trkpt lat="46.536412" lon="12.210418"><ele>2143</ele></trkpt>
      <trkpt lat="46.536337" lon="12.210057"><ele>2140</ele></trkpt>
      <trkpt lat="46.53633" lon="12.20987"><ele>2137</ele></trkpt>
      <trkpt lat="46.53621" lon="12.209675"><ele>2138</ele></trkpt>
      <trkpt lat="46.536216" lon="12.209506"><ele>2135</ele></trkpt>
      <trkpt lat="46.536126" lon="12.209076"><ele>2135</ele></trkpt>
      <trkpt lat="46.536115" lon="12.208925"><ele>2136</ele></trkpt>
      <trkpt lat="46.536151" lon="12.208764"><ele>2134</ele></trkpt>
      <trkpt lat="46.536142" lon="12.208679"><ele>2133</ele></trkpt>
      <trkpt lat="46.536076" lon="12.208493"><ele>2135</ele></trkpt>
      <trkpt lat="46.536102" lon="12.20831"><ele>2136</ele></trkpt>
      <trkpt lat="46.535885" lon="12.207877"><ele>2130</ele></trkpt>
      <trkpt lat="46.535713" lon="12.207389"><ele>2132</ele></trkpt>
      <trkpt lat="46.53545" lon="12.207076"><ele>2130</ele></trkpt>
      <trkpt lat="46.535483" lon="12.206976"><ele>2127</ele></trkpt>
      <trkpt lat="46.535529" lon="12.206912"><ele>2125</ele></trkpt>
      <trkpt lat="46.535652" lon="12.20684"><ele>2125</ele></trkpt>
      <trkpt lat="46.535678" lon="12.206835"><ele>2125</ele></trkpt>
      <trkpt lat="46.535838" lon="12.20654"><ele>2119</ele></trkpt>
      <trkpt lat="46.535951" lon="12.206356"><ele>2113</ele></trkpt>
      <trkpt lat="46.536019" lon="12.206269"><ele>2110</ele></trkpt>
      <trkpt lat="46.536" lon="12.206231"><ele>2111</ele></trkpt>
      <trkpt lat="46.536206" lon="12.206012"><ele>2103</ele></trkpt>
      <trkpt lat="46.536295" lon="12.206004"><ele>2101</ele></trkpt>
      <trkpt lat="46.536403" lon="12.205874"><ele>2096</ele></trkpt>
      <trkpt lat="46.536505" lon="12.205698"><ele>2090</ele></trkpt>
      <trkpt lat="46.536686" lon="12.205351"><ele>2079</ele></trkpt>
      <trkpt lat="46.536711" lon="12.205267"><ele>2078</ele></trkpt>
      <trkpt lat="46.536728" lon="12.205212"><ele>2077</ele></trkpt>
      <trkpt lat="46.536756" lon="12.205162"><ele>2077</ele></trkpt>
      <trkpt lat="46.536839" lon="12.205095"><ele>2076</ele></trkpt>
      <trkpt lat="46.536891" lon="12.205036"><ele>2075</ele></trkpt>
      <trkpt lat="46.537009" lon="12.204759"><ele>2073</ele></trkpt>
      <trkpt lat="46.53707" lon="12.204679"><ele>2072</ele></trkpt>
      <trkpt lat="46.537178" lon="12.204624"><ele>2070</ele></trkpt>
      <trkpt lat="46.53725" lon="12.204555"><ele>2069</ele></trkpt>
      <trkpt lat="46.537362" lon="12.204383"><ele>2068</ele></trkpt>
      <trkpt lat="46.537488" lon="12.204114"><ele>2065</ele></trkpt>
      <trkpt lat="46.537541" lon="12.20404"><ele>2065</ele></trkpt>
      <trkpt lat="46.537617" lon="12.203962"><ele>2064</ele></trkpt>
      <trkpt lat="46.537717" lon="12.203918"><ele>2064</ele></trkpt>
      <trkpt lat="46.537801" lon="12.203917"><ele>2063</ele></trkpt>
      <trkpt lat="46.537878" lon="12.203869"><ele>2062</ele></trkpt>
      <trkpt lat="46.538005" lon="12.203855"><ele>2061</ele></trkpt>
      <trkpt lat="46.538107" lon="12.203744"><ele>2055</ele></trkpt>
      <trkpt lat="46.53821" lon="12.203697"><ele>2052</ele></trkpt>
      <trkpt lat="46.538318" lon="12.203663"><ele>2048</ele></trkpt>
      <trkpt lat="46.538229" lon="12.20353"><ele>2046</ele></trkpt>
      <trkpt lat="46.538095" lon="12.203288"><ele>2041</ele></trkpt>
      <trkpt lat="46.538069" lon="12.203076"><ele>2037</ele></trkpt>
      <trkpt lat="46.538021" lon="12.202849"><ele>2036</ele></trkpt>
      <trkpt lat="46.538093" lon="12.202651"><ele>2032</ele></trkpt>
      <trkpt lat="46.538174" lon="12.202536"><ele>2030</ele></trkpt>
      <trkpt lat="46.538245" lon="12.202364"><ele>2028</ele></trkpt>
      <trkpt lat="46.538369" lon="12.202279"><ele>2025</ele></trkpt>
      <trkpt lat="46.538496" lon="12.202107"><ele>2023</ele></trkpt>
      <trkpt lat="46.53863" lon="12.201959"><ele>2019</ele></trkpt>
      <trkpt lat="46.538718" lon="12.201836"><ele>2018</ele></trkpt>
      <trkpt lat="46.538812" lon="12.20177"><ele>2017</ele></trkpt>
      <trkpt lat="46.538967" lon="12.201758"><ele>2017</ele></trkpt>
      <trkpt lat="46.539203" lon="12.2017"><ele>2018</ele></trkpt>
      <trkpt lat="46.539301" lon="12.201606"><ele>2015</ele></trkpt>
      <trkpt lat="46.53944" lon="12.201547"><ele>2011</ele></trkpt>
      <trkpt lat="46.539488" lon="12.201466"><ele>2008</ele></trkpt>
      <trkpt lat="46.539591" lon="12.20146"><ele>2004</ele></trkpt>
      <trkpt lat="46.539666" lon="12.201466"><ele>2001</ele></trkpt>
      <trkpt lat="46.539837" lon="12.20142"><ele>1992</ele></trkpt>
      <trkpt lat="46.539891" lon="12.201463"><ele>1992</ele></trkpt>
      <trkpt lat="46.540081" lon="12.20157"><ele>1989</ele></trkpt>
      <trkpt lat="46.540229" lon="12.201619"><ele>1989</ele></trkpt>
      <trkpt lat="46.540622" lon="12.201584"><ele>1980</ele></trkpt>
      <trkpt lat="46.540692" lon="12.201484"><ele>1977</ele></trkpt>
      <trkpt lat="46.540699" lon="12.201278"><ele>1973</ele></trkpt>
      <trkpt lat="46.540771" lon="12.201212"><ele>1972</ele></trkpt>
      <trkpt lat="46.54095" lon="12.201326"><ele>1971</ele></trkpt>
      <trkpt lat="46.541054" lon="12.201359"><ele>1969</ele></trkpt>
      <trkpt lat="46.541107" lon="12.201339"><ele>1968</ele></trkpt>
      <trkpt lat="46.541172" lon="12.201251"><ele>1965</ele></trkpt>
      <trkpt lat="46.541289" lon="12.201156"><ele>1961</ele></trkpt>
      <trkpt lat="46.541384" lon="12.201152"><ele>1960</ele></trkpt>
      <trkpt lat="46.541448" lon="12.2012"><ele>1958</ele></trkpt>
      <trkpt lat="46.541535" lon="12.201293"><ele>1957</ele></trkpt>
      <trkpt lat="46.541707" lon="12.201556"><ele>1958</ele></trkpt>
      <trkpt lat="46.541985" lon="12.20181"><ele>1956</ele></trkpt>
      <trkpt lat="46.542134" lon="12.201898"><ele>1954</ele></trkpt>
      <trkpt lat="46.542334" lon="12.201929"><ele>1948</ele></trkpt>
      <trkpt lat="46.542454" lon="12.201998"><ele>1947</ele></trkpt>
      <trkpt lat="46.542693" lon="12.202249"><ele>1947</ele></trkpt>
      <trkpt lat="46.54282" lon="12.202275"><ele>1944</ele></trkpt>
      <trkpt lat="46.542946" lon="12.202218"><ele>1942</ele></trkpt>
      <trkpt lat="46.543045" lon="12.202037"><ele>1939</ele></trkpt>
      <trkpt lat="46.543154" lon="12.202001"><ele>1939</ele></trkpt>
      <trkpt lat="46.54354" lon="12.20203"><ele>1936</ele></trkpt>
      <trkpt lat="46.543716" lon="12.202022"><ele>1935</ele></trkpt>
      <trkpt lat="46.543805" lon="12.202058"><ele>1934</ele></trkpt>
      <trkpt lat="46.543924" lon="12.20216"><ele>1934</ele></trkpt>
      <trkpt lat="46.544035" lon="12.202278"><ele>1933</ele></trkpt>
      <trkpt lat="46.54409" lon="12.202275"><ele>1933</ele></trkpt>
      <trkpt lat="46.544143" lon="12.202224"><ele>1934</ele></trkpt>
      <trkpt lat="46.544211" lon="12.202053"><ele>1935</ele></trkpt>
      <trkpt lat="46.54427" lon="12.201978"><ele>1934</ele></trkpt>
      <trkpt lat="46.544354" lon="12.201936"><ele>1933</ele></trkpt>
      <trkpt lat="46.54446" lon="12.201913"><ele>1931</ele></trkpt>
      <trkpt lat="46.544532" lon="12.201869"><ele>1931</ele></trkpt>
      <trkpt lat="46.544624" lon="12.201705"><ele>1929</ele></trkpt>
      <trkpt lat="46.544665" lon="12.201553"><ele>1927</ele></trkpt>
      <trkpt lat="46.544697" lon="12.201494"><ele>1926</ele></trkpt>
      <trkpt lat="46.544739" lon="12.201468"><ele>1925</ele></trkpt>
      <trkpt lat="46.544784" lon="12.201465"><ele>1925</ele></trkpt>
      <trkpt lat="46.545014" lon="12.201523"><ele>1925</ele></trkpt>
      <trkpt lat="46.545058" lon="12.201503"><ele>1926</ele></trkpt>
      <trkpt lat="46.545215" lon="12.201104"><ele>1924</ele></trkpt>
      <trkpt lat="46.545301" lon="12.201041"><ele>1924</ele></trkpt>
      <trkpt lat="46.545366" lon="12.201027"><ele>1923</ele></trkpt>
      <trkpt lat="46.545654" lon="12.201023"><ele>1918</ele></trkpt>
      <trkpt lat="46.545847" lon="12.201038"><ele>1917</ele></trkpt>
      <trkpt lat="46.546018" lon="12.201011"><ele>1915</ele></trkpt>
      <trkpt lat="46.546188" lon="12.201027"><ele>1913</ele></trkpt>
      <trkpt lat="46.546268" lon="12.201015"><ele>1911</ele></trkpt>
      <trkpt lat="46.54636" lon="12.200983"><ele>1907</ele></trkpt>
      <trkpt lat="46.546417" lon="12.200978"><ele>1906</ele></trkpt>
      <trkpt lat="46.546673" lon="12.201104"><ele>1906</ele></trkpt>
      <trkpt lat="46.546736" lon="12.20111"><ele>1905</ele></trkpt>
      <trkpt lat="46.546797" lon="12.201094"><ele>1905</ele></trkpt>
      <trkpt lat="46.546923" lon="12.201004"><ele>1902</ele></trkpt>
      <trkpt lat="46.547035" lon="12.20097"><ele>1901</ele></trkpt>
      <trkpt lat="46.547095" lon="12.200967"><ele>1901</ele></trkpt>
      <trkpt lat="46.547183" lon="12.200994"><ele>1902</ele></trkpt>
      <trkpt lat="46.547216" lon="12.200989"><ele>1902</ele></trkpt>
      <trkpt lat="46.547246" lon="12.200957"><ele>1902</ele></trkpt>
      <trkpt lat="46.547275" lon="12.200893"><ele>1901</ele></trkpt>
      <trkpt lat="46.54732" lon="12.200738"><ele>1899</ele></trkpt>
      <trkpt lat="46.547353" lon="12.200696"><ele>1899</ele></trkpt>
      <trkpt lat="46.547479" lon="12.200656"><ele>1899</ele></trkpt>
      <trkpt lat="46.547525" lon="12.200661"><ele>1899</ele></trkpt>
      <trkpt lat="46.547579" lon="12.20069"><ele>1899</ele></trkpt>
      <trkpt lat="46.547703" lon="12.200867"><ele>1900</ele></trkpt>
      <trkpt lat="46.547742" lon="12.200891"><ele>1900</ele></trkpt>
      <trkpt lat="46.547872" lon="12.2009"><ele>1898</ele></trkpt>
      <trkpt lat="46.548205" lon="12.200943"><ele>1891</ele></trkpt>
      <trkpt lat="46.548318" lon="12.200984"><ele>1890</ele></trkpt>
      <trkpt lat="46.548452" lon="12.201104"><ele>1890</ele></trkpt>
      <trkpt lat="46.548565" lon="12.201167"><ele>1890</ele></trkpt>
      <trkpt lat="46.548862" lon="12.201399"><ele>1883</ele></trkpt>
      <trkpt lat="46.548919" lon="12.201464"><ele>1879</ele></trkpt>
      <trkpt lat="46.548945" lon="12.201529"><ele>1877</ele></trkpt>
      <trkpt lat="46.549029" lon="12.201928"><ele>1872</ele></trkpt>
      <trkpt lat="46.549096" lon="12.202299"><ele>1870</ele></trkpt>
      <trkpt lat="46.549151" lon="12.202517"><ele>1866</ele></trkpt>
      <trkpt lat="46.549285" lon="12.202946"><ele>1859</ele></trkpt>
      <trkpt lat="46.549353" lon="12.203079"><ele>1855</ele></trkpt>
      <trkpt lat="46.549637" lon="12.203524"><ele>1848</ele></trkpt>
      <trkpt lat="46.549803" lon="12.203824"><ele>1846</ele></trkpt>
      <trkpt lat="46.550073" lon="12.20422"><ele>1845</ele></trkpt>
      <trkpt lat="46.550177" lon="12.204327"><ele>1844</ele></trkpt>
      <trkpt lat="46.550319" lon="12.204402"><ele>1840</ele></trkpt>
      <trkpt lat="46.5504" lon="12.20447"><ele>1839</ele></trkpt>
      <trkpt lat="46.550469" lon="12.204563"><ele>1837</ele></trkpt>
      <trkpt lat="46.550645" lon="12.204927"><ele>1835</ele></trkpt>
      <trkpt lat="46.550713" lon="12.205014"><ele>1833</ele></trkpt>
      <trkpt lat="46.550785" lon="12.205035"><ele>1830</ele></trkpt>
      <trkpt lat="46.550838" lon="12.205016"><ele>1828</ele></trkpt>
      <trkpt lat="46.550904" lon="12.20493"><ele>1827</ele></trkpt>
      <trkpt lat="46.55097" lon="12.204691"><ele>1827</ele></trkpt>
      <trkpt lat="46.551004" lon="12.204519"><ele>1826</ele></trkpt>
      <trkpt lat="46.551058" lon="12.204409"><ele>1826</ele></trkpt>
      <trkpt lat="46.551129" lon="12.204339"><ele>1826</ele></trkpt>
      <trkpt lat="46.551215" lon="12.204313"><ele>1826</ele></trkpt>
      <trkpt lat="46.551449" lon="12.204291"><ele>1825</ele></trkpt>
      <trkpt lat="46.552028" lon="12.204176"><ele>1823</ele></trkpt>
      <trkpt lat="46.552628" lon="12.204296"><ele>1818</ele></trkpt>
      <trkpt lat="46.552874" lon="12.204315"><ele>1817</ele></trkpt>
      <trkpt lat="46.552961" lon="12.204336"><ele>1817</ele></trkpt>
      <trkpt lat="46.553194" lon="12.204447"><ele>1815</ele></trkpt>
      <trkpt lat="46.553473" lon="12.204595"><ele>1813</ele></trkpt>
      <trkpt lat="46.553583" lon="12.204606"><ele>1813</ele></trkpt>
      <trkpt lat="46.5537" lon="12.204557"><ele>1811</ele></trkpt>
      <trkpt lat="46.553811" lon="12.204452"><ele>1809</ele></trkpt>
      <trkpt lat="46.553955" lon="12.204246"><ele>1807</ele></trkpt>
      <trkpt lat="46.554021" lon="12.204112"><ele>1806</ele></trkpt>
      <trkpt lat="46.554041" lon="12.203999"><ele>1806</ele></trkpt>
      <trkpt lat="46.554058" lon="12.203763"><ele>1807</ele></trkpt>
      <trkpt lat="46.554078" lon="12.203626"><ele>1809</ele></trkpt>
      <trkpt lat="46.554124" lon="12.203527"><ele>1809</ele></trkpt>
      <trkpt lat="46.554449" lon="12.202982"><ele>1810</ele></trkpt>
      <trkpt lat="46.554578" lon="12.20284"><ele>1809</ele></trkpt>
      <trkpt lat="46.554842" lon="12.202628"><ele>1805</ele></trkpt>
      <trkpt lat="46.554989" lon="12.202435"><ele>1804</ele></trkpt>
      <trkpt lat="46.55515" lon="12.202167"><ele>1801</ele></trkpt>
      <trkpt lat="46.555275" lon="12.201875"><ele>1798</ele></trkpt>
      <trkpt lat="46.55546" lon="12.20125"><ele>1805</ele></trkpt>
      <trkpt lat="46.55551" lon="12.201157"><ele>1805</ele></trkpt>
      <trkpt lat="46.555583" lon="12.201086"><ele>1804</ele></trkpt>
      <trkpt lat="46.555672" lon="12.201067"><ele>1803</ele></trkpt>
      <trkpt lat="46.555755" lon="12.201091"><ele>1802</ele></trkpt>
      <trkpt lat="46.555978" lon="12.201298"><ele>1801</ele></trkpt>
      <trkpt lat="46.556031" lon="12.201333"><ele>1801</ele></trkpt>
      <trkpt lat="46.556079" lon="12.201333"><ele>1801</ele></trkpt>
      <trkpt lat="46.555965" lon="12.201628"><ele>1798</ele></trkpt>
      <trkpt lat="46.555695" lon="12.202803"><ele>1789</ele></trkpt>
      <trkpt lat="46.555644" lon="12.203124"><ele>1787</ele></trkpt>
      <trkpt lat="46.555299" lon="12.2036"><ele>1783</ele></trkpt>
      <trkpt lat="46.555232" lon="12.203807"><ele>1782</ele></trkpt>
      <trkpt lat="46.555225" lon="12.203955"><ele>1781</ele></trkpt>
      <trkpt lat="46.555227" lon="12.20407"><ele>1780</ele></trkpt>
      <trkpt lat="46.555253" lon="12.204478"><ele>1778</ele></trkpt>
      <trkpt lat="46.555234" lon="12.204824"><ele>1777</ele></trkpt>
      <trkpt lat="46.555133" lon="12.205092"><ele>1776</ele></trkpt>
      <trkpt lat="46.554967" lon="12.205303"><ele>1774</ele></trkpt>
      <trkpt lat="46.554828" lon="12.205317"><ele>1775</ele></trkpt>
      <trkpt lat="46.554708" lon="12.205308"><ele>1776</ele></trkpt>
      <trkpt lat="46.554606" lon="12.205398"><ele>1776</ele></trkpt>
      <trkpt lat="46.554553" lon="12.205545"><ele>1775</ele></trkpt>
      <trkpt lat="46.554543" lon="12.205738"><ele>1773</ele></trkpt>
      <trkpt lat="46.554547" lon="12.205995"><ele>1769</ele></trkpt>
      <trkpt lat="46.55445" lon="12.206207"><ele>1768</ele></trkpt>
      <trkpt lat="46.554345" lon="12.206325"><ele>1770</ele></trkpt>
      <trkpt lat="46.55417" lon="12.206612"><ele>1771</ele></trkpt>
      <trkpt lat="46.553993" lon="12.20694"><ele>1772</ele></trkpt>
      <trkpt lat="46.553725" lon="12.207382"><ele>1773</ele></trkpt>
      <trkpt lat="46.553569" lon="12.20762"><ele>1771</ele></trkpt>
      <trkpt lat="46.553353" lon="12.207872"><ele>1769</ele></trkpt>
      <trkpt lat="46.553252" lon="12.207763"><ele>1769</ele></trkpt>
      <trkpt lat="46.553214" lon="12.207582"><ele>1769</ele></trkpt>
      <trkpt lat="46.553189" lon="12.207365"><ele>1769</ele></trkpt>
      <trkpt lat="46.553171" lon="12.207132"><ele>1771</ele></trkpt>
      <trkpt lat="46.55312" lon="12.206982"><ele>1771</ele></trkpt>
      <trkpt lat="46.552993" lon="12.206843"><ele>1771</ele></trkpt>
      <trkpt lat="46.552915" lon="12.206824"><ele>1771</ele></trkpt>
      <trkpt lat="46.552794" lon="12.206922"><ele>1769</ele></trkpt>
      <trkpt lat="46.55251" lon="12.207189"><ele>1771</ele></trkpt>
      <trkpt lat="46.55228" lon="12.207548"><ele>1772</ele></trkpt>
      <trkpt lat="46.552169" lon="12.207814"><ele>1770</ele></trkpt>
      <trkpt lat="46.552104" lon="12.20803"><ele>1766</ele></trkpt>
      <trkpt lat="46.552044" lon="12.208195"><ele>1765</ele></trkpt>
      <trkpt lat="46.55172" lon="12.208889"><ele>1755</ele></trkpt>
      <trkpt lat="46.551616" lon="12.209138"><ele>1753</ele></trkpt>
      <trkpt lat="46.551578" lon="12.209351"><ele>1749</ele></trkpt>
      <trkpt lat="46.551437" lon="12.209841"><ele>1752</ele></trkpt>
      <trkpt lat="46.551246" lon="12.210258"><ele>1759</ele></trkpt>
      <trkpt lat="46.551237" lon="12.210482"><ele>1755</ele></trkpt>
      <trkpt lat="46.551146" lon="12.210923"><ele>1748</ele></trkpt>
      <trkpt lat="46.551059" lon="12.211093"><ele>1748</ele></trkpt>
      <trkpt lat="46.550986" lon="12.21115"><ele>1751</ele></trkpt>
      <trkpt lat="46.550832" lon="12.211479"><ele>1754</ele></trkpt>
      <trkpt lat="46.550788" lon="12.21167"><ele>1752</ele></trkpt>
      <trkpt lat="46.550766" lon="12.211828"><ele>1749</ele></trkpt>
      <trkpt lat="46.550611" lon="12.212226"><ele>1746</ele></trkpt>
      <trkpt lat="46.55049" lon="12.212419"><ele>1746</ele></trkpt>
      <trkpt lat="46.55027" lon="12.212795"><ele>1739</ele></trkpt>
      <trkpt lat="46.550138" lon="12.212944"><ele>1736</ele></trkpt>
      <trkpt lat="46.550022" lon="12.212942"><ele>1739</ele></trkpt>
      <trkpt lat="46.549779" lon="12.213093"><ele>1738</ele></trkpt>
      <trkpt lat="46.549647" lon="12.2131"><ele>1741</ele></trkpt>
      <trkpt lat="46.549431" lon="12.213172"><ele>1743</ele></trkpt>
      <trkpt lat="46.549191" lon="12.213283"><ele>1741</ele></trkpt>
      <trkpt lat="46.54893" lon="12.21339"><ele>1738</ele></trkpt>
      <trkpt lat="46.548707" lon="12.213418"><ele>1739</ele></trkpt>
      <trkpt lat="46.54853" lon="12.213456"><ele>1739</ele></trkpt>
      <trkpt lat="46.548367" lon="12.213456"><ele>1741</ele></trkpt>
      <trkpt lat="46.548027" lon="12.213402"><ele>1745</ele></trkpt>
      <trkpt lat="46.547826" lon="12.213283"><ele>1747</ele></trkpt>
      <trkpt lat="46.547663" lon="12.213207"><ele>1743</ele></trkpt>
      <trkpt lat="46.5475" lon="12.213027"><ele>1741</ele></trkpt>
      <trkpt lat="46.547332" lon="12.21297"><ele>1737</ele></trkpt>
      <trkpt lat="46.547187" lon="12.21288"><ele>1736</ele></trkpt>
      <trkpt lat="46.547103" lon="12.212777"><ele>1736</ele></trkpt>
      <trkpt lat="46.546935" lon="12.212492"><ele>1737</ele></trkpt>
      <trkpt lat="46.546804" lon="12.212419"><ele>1735</ele></trkpt>
      <trkpt lat="46.546675" lon="12.212393"><ele>1732</ele></trkpt>
      <trkpt lat="46.546605" lon="12.212425"><ele>1732</ele></trkpt>
      <trkpt lat="46.546583" lon="12.212554"><ele>1730</ele></trkpt>
      <trkpt lat="46.546567" lon="12.212729"><ele>1728</ele></trkpt>
      <trkpt lat="46.546553" lon="12.213053"><ele>1726</ele></trkpt>
      <trkpt lat="46.546531" lon="12.213271"><ele>1726</ele></trkpt>
      <trkpt lat="46.546524" lon="12.213597"><ele>1725</ele></trkpt>
      <trkpt lat="46.546421" lon="12.213866"><ele>1735</ele></trkpt>
      <trkpt lat="46.546316" lon="12.214183"><ele>1737</ele></trkpt>
      <trkpt lat="46.546274" lon="12.21434"><ele>1737</ele></trkpt>
      <trkpt lat="46.546171" lon="12.214436"><ele>1742</ele></trkpt>
      <trkpt lat="46.54603" lon="12.214675"><ele>1748</ele></trkpt>
      <trkpt lat="46.546007" lon="12.214756"><ele>1750</ele></trkpt>
      <trkpt lat="46.546117" lon="12.214942"><ele>1739</ele></trkpt>
      <trkpt lat="46.546165" lon="12.215013"><ele>1736</ele></trkpt>
      <trkpt lat="46.546193" lon="12.215033"><ele>1735</ele></trkpt>
      <trkpt lat="46.546231" lon="12.2152"><ele>1735</ele></trkpt>
      <trkpt lat="46.546259" lon="12.215394"><ele>1739</ele></trkpt>
      <trkpt lat="46.546179" lon="12.215292"><ele>1741</ele></trkpt>
      <trkpt lat="46.546193" lon="12.215455"><ele>1746</ele></trkpt>
      <trkpt lat="46.546192" lon="12.215595"><ele>1751</ele></trkpt>
      <trkpt lat="46.546238" lon="12.215799"><ele>1756</ele></trkpt>
      <trkpt lat="46.546244" lon="12.216051"><ele>1764</ele></trkpt>
      <trkpt lat="46.546298" lon="12.216209"><ele>1765</ele></trkpt>
      <trkpt lat="46.546364" lon="12.216297"><ele>1763</ele></trkpt>
      <trkpt lat="46.546416" lon="12.216334"><ele>1760</ele></trkpt>
      <trkpt lat="46.546434" lon="12.216503"><ele>1764</ele></trkpt>
      <trkpt lat="46.546364" lon="12.216633"><ele>1771</ele></trkpt>
      <trkpt lat="46.546335" lon="12.216755"><ele>1776</ele></trkpt>
      <trkpt lat="46.54633" lon="12.216882"><ele>1778</ele></trkpt>
      <trkpt lat="46.546267" lon="12.216983"><ele>1783</ele></trkpt>
      <trkpt lat="46.546222" lon="12.217225"><ele>1785</ele></trkpt>
      <trkpt lat="46.546181" lon="12.217313"><ele>1786</ele></trkpt>
      <trkpt lat="46.546201" lon="12.217688"><ele>1785</ele></trkpt>
      <trkpt lat="46.546172" lon="12.217868"><ele>1785</ele></trkpt>
      <trkpt lat="46.546172" lon="12.218032"><ele>1784</ele></trkpt>
      <trkpt lat="46.546136" lon="12.218153"><ele>1785</ele></trkpt>
      <trkpt lat="46.546012" lon="12.218249"><ele>1787</ele></trkpt>
      <trkpt lat="46.545904" lon="12.218379"><ele>1787</ele></trkpt>
      <trkpt lat="46.545829" lon="12.218452"><ele>1787</ele></trkpt>
      <trkpt lat="46.545735" lon="12.2186"><ele>1788</ele></trkpt>
      <trkpt lat="46.545681" lon="12.218714"><ele>1788</ele></trkpt>
      <trkpt lat="46.545649" lon="12.218825"><ele>1787</ele></trkpt>
      <trkpt lat="46.54559" lon="12.218898"><ele>1788</ele></trkpt>
      <trkpt lat="46.545559" lon="12.219081"><ele>1785</ele></trkpt>
      <trkpt lat="46.545496" lon="12.219239"><ele>1785</ele></trkpt>
      <trkpt lat="46.545412" lon="12.219301"><ele>1787</ele></trkpt>
      <trkpt lat="46.545344" lon="12.21958"><ele>1783</ele></trkpt>
      <trkpt lat="46.545266" lon="12.219606"><ele>1786</ele></trkpt>
      <trkpt lat="46.545205" lon="12.219829"><ele>1783</ele></trkpt>
      <trkpt lat="46.545227" lon="12.219885"><ele>1780</ele></trkpt>
      <trkpt lat="46.545189" lon="12.21996"><ele>1779</ele></trkpt>
      <trkpt lat="46.545099" lon="12.220058"><ele>1780</ele></trkpt>
      <trkpt lat="46.545047" lon="12.22037"><ele>1774</ele></trkpt>
      <trkpt lat="46.544988" lon="12.220458"><ele>1773</ele></trkpt>
      <trkpt lat="46.544857" lon="12.220927"><ele>1769</ele></trkpt>
      <trkpt lat="46.544819" lon="12.220963"><ele>1770</ele></trkpt>
      <trkpt lat="46.544787" lon="12.221019"><ele>1770</ele></trkpt>
      <trkpt lat="46.54472" lon="12.221089"><ele>1771</ele></trkpt>
      <trkpt lat="46.544652" lon="12.221252"><ele>1770</ele></trkpt>
      <trkpt lat="46.544659" lon="12.221344"><ele>1768</ele></trkpt>
      <trkpt lat="46.544612" lon="12.221416"><ele>1768</ele></trkpt>
      <trkpt lat="46.544564" lon="12.221442"><ele>1769</ele></trkpt>
      <trkpt lat="46.544483" lon="12.221419"><ele>1771</ele></trkpt>
      <trkpt lat="46.544327" lon="12.221665"><ele>1771</ele></trkpt>
      <trkpt lat="46.544352" lon="12.221866"><ele>1766</ele></trkpt>
      <trkpt lat="46.544296" lon="12.222059"><ele>1763</ele></trkpt>
      <trkpt lat="46.544293" lon="12.22211"><ele>1762</ele></trkpt>
      <trkpt lat="46.544225" lon="12.222299"><ele>1760</ele></trkpt>
      <trkpt lat="46.544106" lon="12.222426"><ele>1761</ele></trkpt>
      <trkpt lat="46.543962" lon="12.222354"><ele>1768</ele></trkpt>
      <trkpt lat="46.543802" lon="12.222423"><ele>1771</ele></trkpt>
      <trkpt lat="46.543759" lon="12.222542"><ele>1769</ele></trkpt>
      <trkpt lat="46.543873" lon="12.222714"><ele>1761</ele></trkpt>
      <trkpt lat="46.543905" lon="12.222843"><ele>1756</ele></trkpt>
      <trkpt lat="46.543851" lon="12.222945"><ele>1755</ele></trkpt>
      <trkpt lat="46.543795" lon="12.22298"><ele>1756</ele></trkpt>
      <trkpt lat="46.543698" lon="12.223082"><ele>1757</ele></trkpt>
      <trkpt lat="46.543177" lon="12.223241"><ele>1768</ele></trkpt>
      <trkpt lat="46.542961" lon="12.223333"><ele>1770</ele></trkpt>
      <trkpt lat="46.542873" lon="12.223386"><ele>1770</ele></trkpt>
      <trkpt lat="46.542783" lon="12.223484"><ele>1769</ele></trkpt>
      <trkpt lat="46.542585" lon="12.223664"><ele>1768</ele></trkpt>
      <trkpt lat="46.54232" lon="12.223872"><ele>1768</ele></trkpt>
      <trkpt lat="46.542275" lon="12.223951"><ele>1765</ele></trkpt>
      <trkpt lat="46.54218" lon="12.223951"><ele>1767</ele></trkpt>
      <trkpt lat="46.542095" lon="12.223974"><ele>1767</ele></trkpt>
      <trkpt lat="46.542022" lon="12.223967"><ele>1769</ele></trkpt>
      <trkpt lat="46.541804" lon="12.224059"><ele>1766</ele></trkpt>
      <trkpt lat="46.541624" lon="12.224089"><ele>1765</ele></trkpt>
      <trkpt lat="46.541449" lon="12.224103"><ele>1765</ele></trkpt>
      <trkpt lat="46.541297" lon="12.224059"><ele>1766</ele></trkpt>
      <trkpt lat="46.541107" lon="12.224045"><ele>1767</ele></trkpt>
      <trkpt lat="46.540937" lon="12.224137"><ele>1766</ele></trkpt>
      <trkpt lat="46.540838" lon="12.224151"><ele>1768</ele></trkpt>
      <trkpt lat="46.540671" lon="12.224223"><ele>1767</ele></trkpt>
      <trkpt lat="46.54057" lon="12.224318"><ele>1762</ele></trkpt>
      <trkpt lat="46.540476" lon="12.224482"><ele>1754</ele></trkpt>
      <trkpt lat="46.540322" lon="12.224583"><ele>1752</ele></trkpt>
      <trkpt lat="46.540189" lon="12.224711"><ele>1748</ele></trkpt>
      <trkpt lat="46.53985" lon="12.224652"><ele>1755</ele></trkpt>
      <trkpt lat="46.539679" lon="12.224715"><ele>1751</ele></trkpt>
      <trkpt lat="46.539522" lon="12.224762"><ele>1750</ele></trkpt>
      <trkpt lat="46.539404" lon="12.224787"><ele>1749</ele></trkpt>
      <trkpt lat="46.53919" lon="12.224787"><ele>1752</ele></trkpt>
      <trkpt lat="46.539033" lon="12.224939"><ele>1748</ele></trkpt>
      <trkpt lat="46.538885" lon="12.225135"><ele>1744</ele></trkpt>
      <trkpt lat="46.538608" lon="12.22537"><ele>1741</ele></trkpt>
      <trkpt lat="46.538392" lon="12.225504"><ele>1739</ele></trkpt>
      <trkpt lat="46.538176" lon="12.225562"><ele>1741</ele></trkpt>
      <trkpt lat="46.537914" lon="12.22572"><ele>1745</ele></trkpt>
      <trkpt lat="46.537812" lon="12.225818"><ele>1745</ele></trkpt>
      <trkpt lat="46.537668" lon="12.225877"><ele>1747</ele></trkpt>
      <trkpt lat="46.537441" lon="12.225848"><ele>1758</ele></trkpt>
      <trkpt lat="46.53737" lon="12.225889"><ele>1762</ele></trkpt>
      <trkpt lat="46.53732" lon="12.226008"><ele>1758</ele></trkpt>
      <trkpt lat="46.53725" lon="12.226208"><ele>1754</ele></trkpt>
      <trkpt lat="46.537173" lon="12.226304"><ele>1763</ele></trkpt>
      <trkpt lat="46.537138" lon="12.226437"><ele>1766</ele></trkpt>
      <trkpt lat="46.537113" lon="12.226568"><ele>1769</ele></trkpt>
      <trkpt lat="46.537025" lon="12.226685"><ele>1776</ele></trkpt>
      <trkpt lat="46.53698" lon="12.226822"><ele>1776</ele></trkpt>
      <trkpt lat="46.536916" lon="12.226945"><ele>1775</ele></trkpt>
      <trkpt lat="46.536819" lon="12.227037"><ele>1778</ele></trkpt>
      <trkpt lat="46.536693" lon="12.227186"><ele>1778</ele></trkpt>
      <trkpt lat="46.536504" lon="12.227329"><ele>1778</ele></trkpt>
      <trkpt lat="46.536482" lon="12.227165"><ele>1791</ele></trkpt>
      <trkpt lat="46.536363" lon="12.227164"><ele>1801</ele></trkpt>
      <trkpt lat="46.536209" lon="12.227227"><ele>1812</ele></trkpt>
      <trkpt lat="46.536067" lon="12.227371"><ele>1814</ele></trkpt>
      <trkpt lat="46.535851" lon="12.227396"><ele>1841</ele></trkpt>
      <trkpt lat="46.535708" lon="12.2275"><ele>1843</ele></trkpt>
      <trkpt lat="46.535534" lon="12.227603"><ele>1853</ele></trkpt>
      <trkpt lat="46.535407" lon="12.227724"><ele>1851</ele></trkpt>
      <trkpt lat="46.535317" lon="12.227871"><ele>1846</ele></trkpt>
      <trkpt lat="46.535075" lon="12.228179"><ele>1837</ele></trkpt>
      <trkpt lat="46.534916" lon="12.228283"><ele>1833</ele></trkpt>
      <trkpt lat="46.534762" lon="12.228352"><ele>1831</ele></trkpt>
      <trkpt lat="46.534717" lon="12.228333"><ele>1833</ele></trkpt>
      <trkpt lat="46.534605" lon="12.228352"><ele>1836</ele></trkpt>
      <trkpt lat="46.534489" lon="12.228476"><ele>1833</ele></trkpt>
      <trkpt lat="46.534292" lon="12.228535"><ele>1836</ele></trkpt>
      <trkpt lat="46.534096" lon="12.228614"><ele>1835</ele></trkpt>
      <trkpt lat="46.533871" lon="12.22862"><ele>1839</ele></trkpt>
      <trkpt lat="46.533774" lon="12.228676"><ele>1835</ele></trkpt>
      <trkpt lat="46.533349" lon="12.228804"><ele>1827</ele></trkpt>
      <trkpt lat="46.533238" lon="12.228748"><ele>1834</ele></trkpt>
      <trkpt lat="46.533093" lon="12.228706"><ele>1838</ele></trkpt>
      <trkpt lat="46.532914" lon="12.228883"><ele>1828</ele></trkpt>
      <trkpt lat="46.532764" lon="12.228868"><ele>1831</ele></trkpt>
      <trkpt lat="46.532628" lon="12.228783"><ele>1837</ele></trkpt>
      <trkpt lat="46.532466" lon="12.228732"><ele>1840</ele></trkpt>
      <trkpt lat="46.532477" lon="12.22862"><ele>1847</ele></trkpt>
      <trkpt lat="46.532585" lon="12.228557"><ele>1851</ele></trkpt>
      <trkpt lat="46.532618" lon="12.228553"><ele>1852</ele></trkpt>
      <trkpt lat="46.53274" lon="12.228519"><ele>1855</ele></trkpt>
      <trkpt lat="46.532772" lon="12.228495"><ele>1857</ele></trkpt>
      <trkpt lat="46.53284" lon="12.228436"><ele>1863</ele></trkpt>
      <trkpt lat="46.532815" lon="12.228406"><ele>1865</ele></trkpt>
      <trkpt lat="46.532843" lon="12.228382"><ele>1868</ele></trkpt>
      <trkpt lat="46.532811" lon="12.228374"><ele>1868</ele></trkpt>
      <trkpt lat="46.532741" lon="12.228364"><ele>1868</ele></trkpt>
      <trkpt lat="46.532657" lon="12.228306"><ele>1872</ele></trkpt>
      <trkpt lat="46.532508" lon="12.228316"><ele>1868</ele></trkpt>
      <trkpt lat="46.532454" lon="12.22825"><ele>1872</ele></trkpt>
      <trkpt lat="46.532358" lon="12.228179"><ele>1878</ele></trkpt>
      <trkpt lat="46.532254" lon="12.228145"><ele>1881</ele></trkpt>
      <trkpt lat="46.532128" lon="12.228172"><ele>1877</ele></trkpt>
      <trkpt lat="46.532022" lon="12.228099"><ele>1877</ele></trkpt>
      <trkpt lat="46.531891" lon="12.227953"><ele>1884</ele></trkpt>
      <trkpt lat="46.531751" lon="12.227889"><ele>1888</ele></trkpt>
      <trkpt lat="46.531553" lon="12.227984"><ele>1881</ele></trkpt>
      <trkpt lat="46.531465" lon="12.227972"><ele>1884</ele></trkpt>
      <trkpt lat="46.531434" lon="12.227888"><ele>1890</ele></trkpt>
      <trkpt lat="46.531368" lon="12.227799"><ele>1896</ele></trkpt>
      <trkpt lat="46.531295" lon="12.227779"><ele>1898</ele></trkpt>
      <trkpt lat="46.531218" lon="12.227915"><ele>1890</ele></trkpt>
      <trkpt lat="46.531105" lon="12.228088"><ele>1880</ele></trkpt>
      <trkpt lat="46.531009" lon="12.22816"><ele>1874</ele></trkpt>
      <trkpt lat="46.530887" lon="12.22823"><ele>1868</ele></trkpt>
      <trkpt lat="46.530709" lon="12.228214"><ele>1868</ele></trkpt>
      <trkpt lat="46.530547" lon="12.228157"><ele>1873</ele></trkpt>
      <trkpt lat="46.530447" lon="12.228137"><ele>1879</ele></trkpt>
      <trkpt lat="46.530393" lon="12.228135"><ele>1882</ele></trkpt>
      <trkpt lat="46.530276" lon="12.228275"><ele>1876</ele></trkpt>
      <trkpt lat="46.530132" lon="12.228418"><ele>1852</ele></trkpt>
      <trkpt lat="46.530008" lon="12.228436"><ele>1850</ele></trkpt>
      <trkpt lat="46.529792" lon="12.228381"><ele>1870</ele></trkpt>
      <trkpt lat="46.529529" lon="12.228386"><ele>1879</ele></trkpt>
      <trkpt lat="46.529334" lon="12.228372"><ele>1883</ele></trkpt>
      <trkpt lat="46.52919" lon="12.228408"><ele>1879</ele></trkpt>
      <trkpt lat="46.529079" lon="12.22844"><ele>1872</ele></trkpt>
      <trkpt lat="46.528747" lon="12.228436"><ele>1866</ele></trkpt>
      <trkpt lat="46.528609" lon="12.228482"><ele>1863</ele></trkpt>
      <trkpt lat="46.528536" lon="12.228492"><ele>1865</ele></trkpt>
      <trkpt lat="46.52844" lon="12.228533"><ele>1865</ele></trkpt>
      <trkpt lat="46.528353" lon="12.228524"><ele>1869</ele></trkpt>
      <trkpt lat="46.528203" lon="12.228588"><ele>1866</ele></trkpt>
      <trkpt lat="46.52815" lon="12.228543"><ele>1869</ele></trkpt>
      <trkpt lat="46.528079" lon="12.228568"><ele>1868</ele></trkpt>
      <trkpt lat="46.528002" lon="12.228552"><ele>1870</ele></trkpt>
      <trkpt lat="46.527854" lon="12.228489"><ele>1874</ele></trkpt>
      <trkpt lat="46.527572" lon="12.228502"><ele>1875</ele></trkpt>
      <trkpt lat="46.527363" lon="12.228616"><ele>1871</ele></trkpt>
      <trkpt lat="46.527281" lon="12.228684"><ele>1869</ele></trkpt>
      <trkpt lat="46.527198" lon="12.228636"><ele>1870</ele></trkpt>
      <trkpt lat="46.527026" lon="12.228517"><ele>1873</ele></trkpt>
      <trkpt lat="46.526933" lon="12.228542"><ele>1872</ele></trkpt>
      <trkpt lat="46.526878" lon="12.228425"><ele>1876</ele></trkpt>
      <trkpt lat="46.526813" lon="12.228387"><ele>1877</ele></trkpt>
      <trkpt lat="46.526758" lon="12.228299"><ele>1880</ele></trkpt>
      <trkpt lat="46.526634" lon="12.228317"><ele>1879</ele></trkpt>
      <trkpt lat="46.526519" lon="12.228311"><ele>1878</ele></trkpt>
      <trkpt lat="46.526454" lon="12.228337"><ele>1876</ele></trkpt>
      <trkpt lat="46.52615" lon="12.228513"><ele>1866</ele></trkpt>
      <trkpt lat="46.526092" lon="12.228585"><ele>1863</ele></trkpt>
      <trkpt lat="46.525985" lon="12.228668"><ele>1861</ele></trkpt>
      <trkpt lat="46.525841" lon="12.228606"><ele>1865</ele></trkpt>
      <trkpt lat="46.525686" lon="12.228478"><ele>1869</ele></trkpt>
      <trkpt lat="46.525529" lon="12.228336"><ele>1875</ele></trkpt>
      <trkpt lat="46.525508" lon="12.228309"><ele>1875</ele></trkpt>
      <trkpt lat="46.525504" lon="12.228263"><ele>1877</ele></trkpt>
      <trkpt lat="46.52537" lon="12.228076"><ele>1882</ele></trkpt>
      <trkpt lat="46.525252" lon="12.228003"><ele>1883</ele></trkpt>
      <trkpt lat="46.525076" lon="12.227888"><ele>1885</ele></trkpt>
      <trkpt lat="46.525027" lon="12.22782"><ele>1886</ele></trkpt>
      <trkpt lat="46.525004" lon="12.227742"><ele>1888</ele></trkpt>
      <trkpt lat="46.525233" lon="12.227615"><ele>1893</ele></trkpt>
      <trkpt lat="46.525456" lon="12.227786"><ele>1888</ele></trkpt>
      <trkpt lat="46.525556" lon="12.227686"><ele>1892</ele></trkpt>
      <trkpt lat="46.525971" lon="12.227408"><ele>1906</ele></trkpt>
      <trkpt lat="46.526662" lon="12.2269"><ele>1921</ele></trkpt>
      <trkpt lat="46.526716" lon="12.226742"><ele>1925</ele></trkpt>
      <trkpt lat="46.526616" lon="12.226631"><ele>1927</ele></trkpt>
      <trkpt lat="46.52656" lon="12.226456"><ele>1930</ele></trkpt>
      <trkpt lat="46.526693" lon="12.226327"><ele>1936</ele></trkpt>
      <trkpt lat="46.526842" lon="12.226252"><ele>1940</ele></trkpt>
      <trkpt lat="46.52686" lon="12.226105"><ele>1945</ele></trkpt>
      <trkpt lat="46.526952" lon="12.226045"><ele>1949</ele></trkpt>
      <trkpt lat="46.526902" lon="12.225932"><ele>1955</ele></trkpt>
      <trkpt lat="46.52686" lon="12.225872"><ele>1958</ele></trkpt>
      <trkpt lat="46.526768" lon="12.225818"><ele>1960</ele></trkpt>
      <trkpt lat="46.526667" lon="12.225738"><ele>1963</ele></trkpt>
      <trkpt lat="46.526511" lon="12.225691"><ele>1962</ele></trkpt>
      <trkpt lat="46.526378" lon="12.225531"><ele>1966</ele></trkpt>
      <trkpt lat="46.526557" lon="12.225297"><ele>1979</ele></trkpt>
      <trkpt lat="46.526548" lon="12.22523"><ele>1981</ele></trkpt>
      <trkpt lat="46.526754" lon="12.225117"><ele>1990</ele></trkpt>
      <trkpt lat="46.526713" lon="12.224983"><ele>1994</ele></trkpt>
      <trkpt lat="46.526741" lon="12.224876"><ele>1999</ele></trkpt>
      <trkpt lat="46.527087" lon="12.224701"><ele>2018</ele></trkpt>
      <trkpt lat="46.527249" lon="12.224651"><ele>2026</ele></trkpt>
      <trkpt lat="46.527367" lon="12.224647"><ele>2031</ele></trkpt>
      <trkpt lat="46.527482" lon="12.224663"><ele>2035</ele></trkpt>
      <trkpt lat="46.527595" lon="12.224612"><ele>2045</ele></trkpt>
      <trkpt lat="46.527683" lon="12.224588"><ele>2051</ele></trkpt>
      <trkpt lat="46.527778" lon="12.224645"><ele>2055</ele></trkpt>
      <trkpt lat="46.527837" lon="12.224716"><ele>2055</ele></trkpt>
      <trkpt lat="46.527912" lon="12.224732"><ele>2057</ele></trkpt>
      <trkpt lat="46.527945" lon="12.224632"><ele>2062</ele></trkpt>
      <trkpt lat="46.527977" lon="12.224577"><ele>2066</ele></trkpt>
      <trkpt lat="46.528053" lon="12.224559"><ele>2070</ele></trkpt>
      <trkpt lat="46.528109" lon="12.224409"><ele>2078</ele></trkpt>
      <trkpt lat="46.528122" lon="12.22432"><ele>2082</ele></trkpt>
      <trkpt lat="46.528086" lon="12.224205"><ele>2085</ele></trkpt>
      <trkpt lat="46.528175" lon="12.224139"><ele>2091</ele></trkpt>
      <trkpt lat="46.528268" lon="12.224147"><ele>2094</ele></trkpt>
      <trkpt lat="46.528228" lon="12.223987"><ele>2099</ele></trkpt>
      <trkpt lat="46.528281" lon="12.223969"><ele>2101</ele></trkpt>
      <trkpt lat="46.528345" lon="12.223965"><ele>2103</ele></trkpt>
      <trkpt lat="46.528409" lon="12.223912"><ele>2107</ele></trkpt>
      <trkpt lat="46.528522" lon="12.22388"><ele>2112</ele></trkpt>
      <trkpt lat="46.528595" lon="12.223767"><ele>2119</ele></trkpt>
      <trkpt lat="46.528625" lon="12.223693"><ele>2124</ele></trkpt>
      <trkpt lat="46.528707" lon="12.223655"><ele>2128</ele></trkpt>
      <trkpt lat="46.528827" lon="12.223632"><ele>2133</ele></trkpt>
      <trkpt lat="46.528899" lon="12.223697"><ele>2132</ele></trkpt>
      <trkpt lat="46.528827" lon="12.223632"><ele>2133</ele></trkpt>
      <trkpt lat="46.528707" lon="12.223655"><ele>2128</ele></trkpt>
      <trkpt lat="46.528625" lon="12.223693"><ele>2124</ele></trkpt>
      <trkpt lat="46.528595" lon="12.223767"><ele>2119</ele></trkpt>
      <trkpt lat="46.528522" lon="12.22388"><ele>2112</ele></trkpt>
      <trkpt lat="46.528409" lon="12.223912"><ele>2107</ele></trkpt>
      <trkpt lat="46.528345" lon="12.223965"><ele>2103</ele></trkpt>
      <trkpt lat="46.528281" lon="12.223969"><ele>2101</ele></trkpt>
      <trkpt lat="46.528228" lon="12.223987"><ele>2099</ele></trkpt>
      <trkpt lat="46.528268" lon="12.224147"><ele>2094</ele></trkpt>
      <trkpt lat="46.528175" lon="12.224139"><ele>2091</ele></trkpt>
      <trkpt lat="46.528086" lon="12.224205"><ele>2085</ele></trkpt>
      <trkpt lat="46.528122" lon="12.22432"><ele>2082</ele></trkpt>
      <trkpt lat="46.528109" lon="12.224409"><ele>2078</ele></trkpt>
      <trkpt lat="46.528053" lon="12.224559"><ele>2070</ele></trkpt>
      <trkpt lat="46.527977" lon="12.224577"><ele>2066</ele></trkpt>
      <trkpt lat="46.527945" lon="12.224632"><ele>2062</ele></trkpt>
      <trkpt lat="46.527912" lon="12.224732"><ele>2057</ele></trkpt>
      <trkpt lat="46.527837" lon="12.224716"><ele>2055</ele></trkpt>
      <trkpt lat="46.527778" lon="12.224645"><ele>2055</ele></trkpt>
      <trkpt lat="46.527683" lon="12.224588"><ele>2051</ele></trkpt>
      <trkpt lat="46.527595" lon="12.224612"><ele>2045</ele></trkpt>
      <trkpt lat="46.527482" lon="12.224663"><ele>2035</ele></trkpt>
      <trkpt lat="46.527367" lon="12.224647"><ele>2031</ele></trkpt>
      <trkpt lat="46.527249" lon="12.224651"><ele>2026</ele></trkpt>
      <trkpt lat="46.527087" lon="12.224701"><ele>2018</ele></trkpt>
      <trkpt lat="46.526741" lon="12.224876"><ele>1999</ele></trkpt>
      <trkpt lat="46.526713" lon="12.224983"><ele>1994</ele></trkpt>
      <trkpt lat="46.526754" lon="12.225117"><ele>1990</ele></trkpt>
      <trkpt lat="46.526548" lon="12.22523"><ele>1981</ele></trkpt>
      <trkpt lat="46.526557" lon="12.225297"><ele>1979</ele></trkpt>
      <trkpt lat="46.526378" lon="12.225531"><ele>1966</ele></trkpt>
      <trkpt lat="46.526511" lon="12.225691"><ele>1962</ele></trkpt>
      <trkpt lat="46.526667" lon="12.225738"><ele>1963</ele></trkpt>
      <trkpt lat="46.526768" lon="12.225818"><ele>1960</ele></trkpt>
      <trkpt lat="46.52686" lon="12.225872"><ele>1958</ele></trkpt>
      <trkpt lat="46.526902" lon="12.225932"><ele>1955</ele></trkpt>
      <trkpt lat="46.526952" lon="12.226045"><ele>1949</ele></trkpt>
      <trkpt lat="46.52686" lon="12.226105"><ele>1945</ele></trkpt>
      <trkpt lat="46.526842" lon="12.226252"><ele>1940</ele></trkpt>
      <trkpt lat="46.526693" lon="12.226327"><ele>1936</ele></trkpt>
      <trkpt lat="46.52656" lon="12.226456"><ele>1930</ele></trkpt>
      <trkpt lat="46.526616" lon="12.226631"><ele>1927</ele></trkpt>
      <trkpt lat="46.526716" lon="12.226742"><ele>1925</ele></trkpt>
      <trkpt lat="46.526662" lon="12.2269"><ele>1921</ele></trkpt>
      <trkpt lat="46.525971" lon="12.227408"><ele>1906</ele></trkpt>
      <trkpt lat="46.525556" lon="12.227686"><ele>1892</ele></trkpt>
      <trkpt lat="46.525456" lon="12.227786"><ele>1888</ele></trkpt>
      <trkpt lat="46.525233" lon="12.227615"><ele>1893</ele></trkpt>
      <trkpt lat="46.525004" lon="12.227742"><ele>1888</ele></trkpt>
      <trkpt lat="46.524924" lon="12.227621"><ele>1890</ele></trkpt>
      <trkpt lat="46.524886" lon="12.227665"><ele>1888</ele></trkpt>
      <trkpt lat="46.524858" lon="12.227657"><ele>1888</ele></trkpt>
      <trkpt lat="46.524818" lon="12.227562"><ele>1889</ele></trkpt>
      <trkpt lat="46.524752" lon="12.227576"><ele>1888</ele></trkpt>
      <trkpt lat="46.524724" lon="12.227469"><ele>1890</ele></trkpt>
      <trkpt lat="46.52468" lon="12.227457"><ele>1889</ele></trkpt>
      <trkpt lat="46.524612" lon="12.227372"><ele>1891</ele></trkpt>
      <trkpt lat="46.524581" lon="12.227376"><ele>1890</ele></trkpt>
      <trkpt lat="46.524554" lon="12.227344"><ele>1890</ele></trkpt>
      <trkpt lat="46.524507" lon="12.227331"><ele>1890</ele></trkpt>
      <trkpt lat="46.524475" lon="12.227311"><ele>1890</ele></trkpt>
      <trkpt lat="46.524292" lon="12.227241"><ele>1889</ele></trkpt>
      <trkpt lat="46.524136" lon="12.227136"><ele>1891</ele></trkpt>
      <trkpt lat="46.524036" lon="12.227053"><ele>1894</ele></trkpt>
      <trkpt lat="46.524079" lon="12.226986"><ele>1896</ele></trkpt>
      <trkpt lat="46.524057" lon="12.226913"><ele>1898</ele></trkpt>
      <trkpt lat="46.523964" lon="12.226889"><ele>1899</ele></trkpt>
      <trkpt lat="46.523686" lon="12.226882"><ele>1898</ele></trkpt>
      <trkpt lat="46.523413" lon="12.226787"><ele>1900</ele></trkpt>
      <trkpt lat="46.523256" lon="12.226722"><ele>1901</ele></trkpt>
      <trkpt lat="46.523148" lon="12.226657"><ele>1902</ele></trkpt>
      <trkpt lat="46.523019" lon="12.226728"><ele>1898</ele></trkpt>
      <trkpt lat="46.52288" lon="12.226546"><ele>1903</ele></trkpt>
      <trkpt lat="46.522651" lon="12.226429"><ele>1905</ele></trkpt>
      <trkpt lat="46.522271" lon="12.226097"><ele>1910</ele></trkpt>
      <trkpt lat="46.522197" lon="12.225978"><ele>1914</ele></trkpt>
      <trkpt lat="46.522107" lon="12.225904"><ele>1915</ele></trkpt>
      <trkpt lat="46.522021" lon="12.225797"><ele>1916</ele></trkpt>
      <trkpt lat="46.521957" lon="12.225699"><ele>1916</ele></trkpt>
      <trkpt lat="46.521798" lon="12.225597"><ele>1918</ele></trkpt>
      <trkpt lat="46.521753" lon="12.22561"><ele>1918</ele></trkpt>
      <trkpt lat="46.521844" lon="12.225825"><ele>1917</ele></trkpt>
      <trkpt lat="46.521813" lon="12.226031"><ele>1920</ele></trkpt>
      <trkpt lat="46.521721" lon="12.226176"><ele>1926</ele></trkpt>
      <trkpt lat="46.521779" lon="12.226442"><ele>1925</ele></trkpt>
      <trkpt lat="46.521763" lon="12.226612"><ele>1925</ele></trkpt>
      <trkpt lat="46.521779" lon="12.226442"><ele>1925</ele></trkpt>
      <trkpt lat="46.521721" lon="12.226176"><ele>1926</ele></trkpt>
      <trkpt lat="46.521813" lon="12.226031"><ele>1920</ele></trkpt>
      <trkpt lat="46.521844" lon="12.225825"><ele>1917</ele></trkpt>
      <trkpt lat="46.521753" lon="12.22561"><ele>1918</ele></trkpt>
      <trkpt lat="46.521626" lon="12.225594"><ele>1918</ele></trkpt>
      <trkpt lat="46.521521" lon="12.225499"><ele>1919</ele></trkpt>
      <trkpt lat="46.521253" lon="12.225139"><ele>1925</ele></trkpt>
      <trkpt lat="46.520937" lon="12.224845"><ele>1923</ele></trkpt>
      <trkpt lat="46.520854" lon="12.224542"><ele>1923</ele></trkpt>
      <trkpt lat="46.520921" lon="12.224412"><ele>1925</ele></trkpt>
      <trkpt lat="46.520956" lon="12.224093"><ele>1925</ele></trkpt>
      <trkpt lat="46.521089" lon="12.223896"><ele>1925</ele></trkpt>
      <trkpt lat="46.521127" lon="12.223736"><ele>1925</ele></trkpt>
      <trkpt lat="46.52113" lon="12.223516"><ele>1924</ele></trkpt>
    </trkseg>
  </trk>
</gpx>
