<?xml version="1.0" encoding="UTF-8"?>
<gpx version="1.1" creator="hike-trip" xmlns="http://www.topografix.com/GPX/1/1">
  <metadata>
    <name>Lake Jasna Walk</name>
    <desc>Routed with BRouter (hiking-mountain) over OpenStreetMap data through hand-verified anchor points. Schematic in places — verify against signage on the ground.</desc>
    <copyright author="OpenStreetMap contributors"><license>https://www.openstreetmap.org/copyright</license></copyright>
    <bounds minlat="46.474219" minlon="13.782104" maxlat="46.485312" maxlon="13.786627"/>
  </metadata>
  <wpt lat="46.4851" lon="13.7844"><name>Trailhead — Lake Jasna Walk</name><sym>Trail Head</sym></wpt>
  <wpt lat="46.4741" lon="13.784"><ele>837</ele><name>Lake Jasna</name><sym>Summit</sym></wpt>
  <trk>
    <name>Lake Jasna Walk (Circular trail)</name>
    <type>hiking</type>
    <trkseg>
      <trkpt lat="46.485312" lon="13.784608"><ele>807</ele></trkpt>
      <trkpt lat="46.485311" lon="13.784625"><ele>807</ele></trkpt>
      <trkpt lat="46.485211" lon="13.785229"><ele>807</ele></trkpt>
      <trkpt lat="46.485195" lon="13.785224"><ele>807</ele></trkpt>
      <trkpt lat="46.485079" lon="13.785192"><ele>807</ele></trkpt>
      <trkpt lat="46.485025" lon="13.785517"><ele>808</ele></trkpt>
      <trkpt lat="46.485011" lon="13.785669"><ele>808</ele></trkpt>
      <trkpt lat="46.484935" lon="13.785646"><ele>809</ele></trkpt>
      <trkpt lat="46.48489" lon="13.785641"><ele>809</ele></trkpt>
      <trkpt lat="46.484683" lon="13.78569"><ele>810</ele></trkpt>
      <trkpt lat="46.484548" lon="13.785743"><ele>809</ele></trkpt>
      <trkpt lat="46.484502" lon="13.785661"><ele>809</ele></trkpt>
      <trkpt lat="46.48444" lon="13.785401"><ele>810</ele></trkpt>
      <trkpt lat="46.484401" lon="13.785264"><ele>810</ele></trkpt>
      <trkpt lat="46.484337" lon="13.785127"><ele>810</ele></trkpt>
      <trkpt lat="46.484242" lon="13.784909"><ele>810</ele></trkpt>
      <trkpt lat="46.484179" lon="13.784975"><ele>810</ele></trkpt>
      <trkpt lat="46.484161" lon="13.784998"><ele>810</ele></trkpt>
      <trkpt lat="46.484145" lon="13.785041"><ele>810</ele></trkpt>
      <trkpt lat="46.484006" lon="13.785204"><ele>808</ele></trkpt>
      <trkpt lat="46.483826" lon="13.78541"><ele>808</ele></trkpt>
      <trkpt lat="46.48365" lon="13.785555"><ele>806</ele></trkpt>
      <trkpt lat="46.483298" lon="13.785811"><ele>804</ele></trkpt>
      <trkpt lat="46.483261" lon="13.785837"><ele>804</ele></trkpt>
      <trkpt lat="46.483179" lon="13.78592"><ele>804</ele></trkpt>
      <trkpt lat="46.483008" lon="13.786054"><ele>804</ele></trkpt>
      <trkpt lat="46.482939" lon="13.786117"><ele>805</ele></trkpt>
      <trkpt lat="46.482831" lon="13.785892"><ele>806</ele></trkpt>
      <trkpt lat="46.482685" lon="13.785396"><ele>809</ele></trkpt>
      <trkpt lat="46.482589" lon="13.785221"><ele>812</ele></trkpt>
      <trkpt lat="46.482537" lon="13.785009"><ele>808</ele></trkpt>
      <trkpt lat="46.482408" lon="13.784661"><ele>807</ele></trkpt>
      <trkpt lat="46.482297" lon="13.784403"><ele>807</ele></trkpt>
      <trkpt lat="46.482183" lon="13.784194"><ele>807</ele></trkpt>
      <trkpt lat="46.482068" lon="13.783963"><ele>808</ele></trkpt>
      <trkpt lat="46.481969" lon="13.783907"><ele>809</ele></trkpt>
      <trkpt lat="46.482068" lon="13.783963"><ele>808</ele></trkpt>
      <trkpt lat="46.482183" lon="13.784194"><ele>807</ele></trkpt>
      <trkpt lat="46.482297" lon="13.784403"><ele>807</ele></trkpt>
      <trkpt lat="46.482408" lon="13.784661"><ele>807</ele></trkpt>
      <trkpt lat="46.482537" lon="13.785009"><ele>808</ele></trkpt>
      <trkpt lat="46.482589" lon="13.785221"><ele>812</ele></trkpt>
      <trkpt lat="46.482685" lon="13.785396"><ele>809</ele></trkpt>
      <trkpt lat="46.482831" lon="13.785892"><ele>806</ele></trkpt>
      <trkpt lat="46.482939" lon="13.786117"><ele>805</ele></trkpt>
      <trkpt lat="46.482898" lon="13.786163"><ele>805</ele></trkpt>
      <trkpt lat="46.48283" lon="13.786251"><ele>806</ele></trkpt>
      <trkpt lat="46.482799" lon="13.786246"><ele>806</ele></trkpt>
      <trkpt lat="46.482777" lon="13.786232"><ele>807</ele></trkpt>
      <trkpt lat="46.482803" lon="13.786216"><ele>806</ele></trkpt>
      <trkpt lat="46.48279" lon="13.786199"><ele>807</ele></trkpt>
      <trkpt lat="46.48271" lon="13.786222"><ele>810</ele></trkpt>
      <trkpt lat="46.482698" lon="13.786238"><ele>810</ele></trkpt>
      <trkpt lat="46.482677" lon="13.78624"><ele>811</ele></trkpt>
      <trkpt lat="46.482663" lon="13.786215"><ele>812</ele></trkpt>
      <trkpt lat="46.482661" lon="13.786152"><ele>813</ele></trkpt>
      <trkpt lat="46.48257" lon="13.78622"><ele>816</ele></trkpt>
      <trkpt lat="46.482427" lon="13.786307"><ele>819</ele></trkpt>
      <trkpt lat="46.48242" lon="13.786276"><ele>820</ele></trkpt>
      <trkpt lat="46.48243" lon="13.786229"><ele>822</ele></trkpt>
      <trkpt lat="46.482365" lon="13.786314"><ele>821</ele></trkpt>
      <trkpt lat="46.482335" lon="13.78633"><ele>821</ele></trkpt>
      <trkpt lat="46.482332" lon="13.786278"><ele>824</ele></trkpt>
      <trkpt lat="46.482389" lon="13.786152"><ele>827</ele></trkpt>
      <trkpt lat="46.482452" lon="13.785908"><ele>830</ele></trkpt>
      <trkpt lat="46.482439" lon="13.785814"><ele>832</ele></trkpt>
      <trkpt lat="46.482391" lon="13.785756"><ele>835</ele></trkpt>
      <trkpt lat="46.482343" lon="13.785801"><ele>838</ele></trkpt>
      <trkpt lat="46.482269" lon="13.785836"><ele>841</ele></trkpt>
      <trkpt lat="46.482229" lon="13.785809"><ele>844</ele></trkpt>
      <trkpt lat="46.482232" lon="13.78572"><ele>845</ele></trkpt>
      <trkpt lat="46.482193" lon="13.785518"><ele>848</ele></trkpt>
      <trkpt lat="46.482152" lon="13.785534"><ele>849</ele></trkpt>
      <trkpt lat="46.482145" lon="13.785459"><ele>847</ele></trkpt>
      <trkpt lat="46.482106" lon="13.785499"><ele>849</ele></trkpt>
      <trkpt lat="46.482067" lon="13.785494"><ele>850</ele></trkpt>
      <trkpt lat="46.482018" lon="13.785396"><ele>850</ele></trkpt>
      <trkpt lat="46.481945" lon="13.785305"><ele>852</ele></trkpt>
      <trkpt lat="46.481862" lon="13.785298"><ele>852</ele></trkpt>
      <trkpt lat="46.481814" lon="13.78523"><ele>851</ele></trkpt>
      <trkpt lat="46.481754" lon="13.785178"><ele>851</ele></trkpt>
      <trkpt lat="46.481675" lon="13.785136"><ele>852</ele></trkpt>
      <trkpt lat="46.481562" lon="13.785158"><ele>850</ele></trkpt>
      <trkpt lat="46.481492" lon="13.7851"><ele>850</ele></trkpt>
      <trkpt lat="46.481464" lon="13.785015"><ele>853</ele></trkpt>
      <trkpt lat="46.481411" lon="13.784967"><ele>853</ele></trkpt>
      <trkpt lat="46.481263" lon="13.784955"><ele>855</ele></trkpt>
      <trkpt lat="46.481214" lon="13.784903"><ele>857</ele></trkpt>
      <trkpt lat="46.481192" lon="13.784847"><ele>858</ele></trkpt>
      <trkpt lat="46.481144" lon="13.784826"><ele>859</ele></trkpt>
      <trkpt lat="46.481092" lon="13.784855"><ele>861</ele></trkpt>
      <trkpt lat="46.481002" lon="13.784929"><ele>864</ele></trkpt>
      <trkpt lat="46.480894" lon="13.784945"><ele>870</ele></trkpt>
      <trkpt lat="46.480836" lon="13.785117"><ele>873</ele></trkpt>
      <trkpt lat="46.480756" lon="13.785197"><ele>877</ele></trkpt>
      <trkpt lat="46.480718" lon="13.785292"><ele>878</ele></trkpt>
      <trkpt lat="46.480699" lon="13.785368"><ele>878</ele></trkpt>
      <trkpt lat="46.480658" lon="13.785393"><ele>879</ele></trkpt>
      <trkpt lat="46.480572" lon="13.785355"><ele>884</ele></trkpt>
      <trkpt lat="46.480425" lon="13.78537"><ele>884</ele></trkpt>
      <trkpt lat="46.480252" lon="13.785366"><ele>884</ele></trkpt>
      <trkpt lat="46.48009" lon="13.785254"><ele>885</ele></trkpt>
      <trkpt lat="46.479883" lon="13.785227"><ele>886</ele></trkpt>
      <trkpt lat="46.479525" lon="13.785079"><ele>887</ele></trkpt>
      <trkpt lat="46.479305" lon="13.784974"><ele>890</ele></trkpt>
      <trkpt lat="46.479085" lon="13.784827"><ele>892</ele></trkpt>
      <trkpt lat="46.478738" lon="13.784621"><ele>892</ele></trkpt>
      <trkpt lat="46.478445" lon="13.78459"><ele>892</ele></trkpt>
      <trkpt lat="46.4784" lon="13.784586"><ele>892</ele></trkpt>
      <trkpt lat="46.477923" lon="13.784655"><ele>891</ele></trkpt>
      <trkpt lat="46.477707" lon="13.784749"><ele>890</ele></trkpt>
      <trkpt lat="46.477271" lon="13.785237"><ele>890</ele></trkpt>
      <trkpt lat="46.477031" lon="13.785463"><ele>890</ele></trkpt>
      <trkpt lat="46.47692" lon="13.785616"><ele>890</ele></trkpt>
      <trkpt lat="46.476756" lon="13.786059"><ele>892</ele></trkpt>
      <trkpt lat="46.476556" lon="13.786242"><ele>893</ele></trkpt>
      <trkpt lat="46.47652" lon="13.786271"><ele>892</ele></trkpt>
      <trkpt lat="46.476336" lon="13.786439"><ele>890</ele></trkpt>
      <trkpt lat="46.476158" lon="13.78653"><ele>887</ele></trkpt>
      <trkpt lat="46.476011" lon="13.786587"><ele>885</ele></trkpt>
      <trkpt lat="46.475887" lon="13.786627"><ele>883</ele></trkpt>
      <trkpt lat="46.475793" lon="13.786622"><ele>881</ele></trkpt>
      <trkpt lat="46.475716" lon="13.786593"><ele>880</ele></trkpt>
      <trkpt lat="46.475652" lon="13.786556"><ele>879</ele></trkpt>
      <trkpt lat="46.475766" lon="13.786426"><ele>878</ele></trkpt>
      <trkpt lat="46.475805" lon="13.786308"><ele>876</ele></trkpt>
      <trkpt lat="46.475869" lon="13.78589"><ele>873</ele></trkpt>
      <trkpt lat="46.475896" lon="13.785674"><ele>870</ele></trkpt>
      <trkpt lat="46.475927" lon="13.785492"><ele>869</ele></trkpt>
      <trkpt lat="46.476018" lon="13.785112"><ele>866</ele></trkpt>
      <trkpt lat="46.476068" lon="13.784762"><ele>862</ele></trkpt>
      <trkpt lat="46.476136" lon="13.784462"><ele>859</ele></trkpt>
      <trkpt lat="46.476158" lon="13.784273"><ele>857</ele></trkpt>
      <trkpt lat="46.476165" lon="13.783985"><ele>854</ele></trkpt>
      <trkpt lat="46.476177" lon="13.78383"><ele>849</ele></trkpt>
      <trkpt lat="46.476202" lon="13.78353"><ele>849</ele></trkpt>
      <trkpt lat="46.476185" lon="13.783021"><ele>844</ele></trkpt>
      <trkpt lat="46.476144" lon="13.782835"><ele>843</ele></trkpt>
      <trkpt lat="46.476085" lon="13.782705"><ele>843</ele></trkpt>
      <trkpt lat="46.476029" lon="13.782633"><ele>842</ele></trkpt>
      <trkpt lat="46.475937" lon="13.782549"><ele>842</ele></trkpt>
      <trkpt lat="46.475846" lon="13.782499"><ele>841</ele></trkpt>
      <trkpt lat="46.475796" lon="13.782437"><ele>840</ele></trkpt>
      <trkpt lat="46.475742" lon="13.782337"><ele>839</ele></trkpt>
      <trkpt lat="46.475718" lon="13.782276"><ele>838</ele></trkpt>
      <trkpt lat="46.475501" lon="13.78211"><ele>835</ele></trkpt>
      <trkpt lat="46.475471" lon="13.782104"><ele>834</ele></trkpt>
      <trkpt lat="46.475441" lon="13.782123"><ele>834</ele></trkpt>
      <trkpt lat="46.47547" lon="13.782258"><ele>834</ele></trkpt>
      <trkpt lat="46.475318" lon="13.782809"><ele>832</ele></trkpt>
      <trkpt lat="46.4753" lon="13.782759"><ele>832</ele></trkpt>
      <trkpt lat="46.475257" lon="13.782697"><ele>832</ele></trkpt>
      <trkpt lat="46.475209" lon="13.782669"><ele>832</ele></trkpt>
      <trkpt lat="46.475135" lon="13.782681"><ele>832</ele></trkpt>
      <trkpt lat="46.47512" lon="13.782684"><ele>832</ele></trkpt>
      <trkpt lat="46.475049" lon="13.782692"><ele>832</ele></trkpt>
      <trkpt lat="46.474776" lon="13.782762"><ele>832</ele></trkpt>
      <trkpt lat="46.474503" lon="13.782816"><ele>833</ele></trkpt>
      <trkpt lat="46.474313" lon="13.782868"><ele>833</ele></trkpt>
      <trkpt lat="46.474219" lon="13.782934"><ele>833</ele></trkpt>
      <trkpt lat="46.474354" lon="13.783498"><ele>833</ele></trkpt>
      <trkpt lat="46.47442" lon="13.783882"><ele>833</ele></trkpt>
    </trkseg>
  </trk>
</gpx>
