<?xml version="1.0" encoding="UTF-8"?>
<gpx version="1.1" creator="hike-trip" xmlns="http://www.topografix.com/GPX/1/1">
  <metadata>
    <name>Mala Mojstrovka via Vratca</name>
    <desc>Routed with BRouter (hiking-mountain) over OpenStreetMap data through hand-verified anchor points. Schematic in places — verify against signage on the ground. Track traces one direction — return the same way.</desc>
    <copyright author="OpenStreetMap contributors"><license>https://www.openstreetmap.org/copyright</license></copyright>
    <bounds minlat="46.430189" minlon="13.730735" maxlat="46.43739" maxlon="13.743772"/>
  </metadata>
  <wpt lat="46.4348" lon="13.7437"><name>Trailhead — Mala Mojstrovka via Vratca</name><sym>Trail Head</sym></wpt>
  <wpt lat="46.4374" lon="13.7311"><ele>2332</ele><name>Mala Mojstrovka</name><sym>Summit</sym></wpt>
  <trk>
    <name>Mala Mojstrovka via Vratca (South route (cabled))</name>
    <type>hiking</type>
    <trkseg>
      <trkpt lat="46.434791" lon="13.743721"><ele>1614</ele></trkpt>
      <trkpt lat="46.434855" lon="13.743772"><ele>1614</ele></trkpt>
      <trkpt lat="46.434909" lon="13.743718"><ele>1614</ele></trkpt>
      <trkpt lat="46.434935" lon="13.743692"><ele>1614</ele></trkpt>
      <trkpt lat="46.435018" lon="13.743689"><ele>1615</ele></trkpt>
      <trkpt lat="46.435054" lon="13.743712"><ele>1616</ele></trkpt>
      <trkpt lat="46.435108" lon="13.743491"><ele>1623</ele></trkpt>
      <trkpt lat="46.435122" lon="13.743445"><ele>1624</ele></trkpt>
      <trkpt lat="46.435102" lon="13.743412"><ele>1625</ele></trkpt>
      <trkpt lat="46.435105" lon="13.743349"><ele>1627</ele></trkpt>
      <trkpt lat="46.435092" lon="13.743272"><ele>1629</ele></trkpt>
      <trkpt lat="46.435074" lon="13.743243"><ele>1630</ele></trkpt>
      <trkpt lat="46.435038" lon="13.743223"><ele>1630</ele></trkpt>
      <trkpt lat="46.435065" lon="13.743155"><ele>1633</ele></trkpt>
      <trkpt lat="46.435024" lon="13.743056"><ele>1637</ele></trkpt>
      <trkpt lat="46.434951" lon="13.742958"><ele>1640</ele></trkpt>
      <trkpt lat="46.434874" lon="13.742933"><ele>1641</ele></trkpt>
      <trkpt lat="46.434812" lon="13.742903"><ele>1641</ele></trkpt>
      <trkpt lat="46.434757" lon="13.742814"><ele>1646</ele></trkpt>
      <trkpt lat="46.434679" lon="13.742734"><ele>1649</ele></trkpt>
      <trkpt lat="46.434607" lon="13.742614"><ele>1654</ele></trkpt>
      <trkpt lat="46.434506" lon="13.742386"><ele>1660</ele></trkpt>
      <trkpt lat="46.434491" lon="13.742299"><ele>1663</ele></trkpt>
      <trkpt lat="46.434411" lon="13.742017"><ele>1670</ele></trkpt>
      <trkpt lat="46.434348" lon="13.741832"><ele>1674</ele></trkpt>
      <trkpt lat="46.434343" lon="13.741727"><ele>1679</ele></trkpt>
      <trkpt lat="46.434342" lon="13.741611"><ele>1682</ele></trkpt>
      <trkpt lat="46.43435" lon="13.741536"><ele>1684</ele></trkpt>
      <trkpt lat="46.434343" lon="13.741446"><ele>1686</ele></trkpt>
      <trkpt lat="46.434349" lon="13.741366"><ele>1688</ele></trkpt>
      <trkpt lat="46.434342" lon="13.741307"><ele>1689</ele></trkpt>
      <trkpt lat="46.434361" lon="13.7412"><ele>1692</ele></trkpt>
      <trkpt lat="46.434384" lon="13.741165"><ele>1694</ele></trkpt>
      <trkpt lat="46.434379" lon="13.741106"><ele>1695</ele></trkpt>
      <trkpt lat="46.434393" lon="13.741045"><ele>1697</ele></trkpt>
      <trkpt lat="46.434393" lon="13.740927"><ele>1700</ele></trkpt>
      <trkpt lat="46.434379" lon="13.740875"><ele>1701</ele></trkpt>
      <trkpt lat="46.434335" lon="13.740774"><ele>1703</ele></trkpt>
      <trkpt lat="46.434323" lon="13.740683"><ele>1705</ele></trkpt>
      <trkpt lat="46.434286" lon="13.740581"><ele>1707</ele></trkpt>
      <trkpt lat="46.434282" lon="13.740512"><ele>1708</ele></trkpt>
      <trkpt lat="46.434266" lon="13.740407"><ele>1710</ele></trkpt>
      <trkpt lat="46.43431" lon="13.740272"><ele>1715</ele></trkpt>
      <trkpt lat="46.434311" lon="13.740131"><ele>1719</ele></trkpt>
      <trkpt lat="46.434299" lon="13.74006"><ele>1721</ele></trkpt>
      <trkpt lat="46.434249" lon="13.739988"><ele>1721</ele></trkpt>
      <trkpt lat="46.434246" lon="13.739907"><ele>1725</ele></trkpt>
      <trkpt lat="46.434229" lon="13.739858"><ele>1727</ele></trkpt>
      <trkpt lat="46.434197" lon="13.739835"><ele>1726</ele></trkpt>
      <trkpt lat="46.434125" lon="13.739812"><ele>1724</ele></trkpt>
      <trkpt lat="46.434021" lon="13.739678"><ele>1726</ele></trkpt>
      <trkpt lat="46.43401" lon="13.739639"><ele>1727</ele></trkpt>
      <trkpt lat="46.434008" lon="13.739596"><ele>1729</ele></trkpt>
      <trkpt lat="46.433995" lon="13.739555"><ele>1729</ele></trkpt>
      <trkpt lat="46.43399" lon="13.739453"><ele>1732</ele></trkpt>
      <trkpt lat="46.433974" lon="13.739371"><ele>1735</ele></trkpt>
      <trkpt lat="46.433979" lon="13.73929"><ele>1738</ele></trkpt>
      <trkpt lat="46.433956" lon="13.73922"><ele>1739</ele></trkpt>
      <trkpt lat="46.433949" lon="13.739175"><ele>1741</ele></trkpt>
      <trkpt lat="46.433932" lon="13.739148"><ele>1741</ele></trkpt>
      <trkpt lat="46.433925" lon="13.739089"><ele>1744</ele></trkpt>
      <trkpt lat="46.433862" lon="13.739021"><ele>1746</ele></trkpt>
      <trkpt lat="46.43383" lon="13.739004"><ele>1746</ele></trkpt>
      <trkpt lat="46.433744" lon="13.739001"><ele>1744</ele></trkpt>
      <trkpt lat="46.433642" lon="13.738897"><ele>1748</ele></trkpt>
      <trkpt lat="46.433623" lon="13.738871"><ele>1749</ele></trkpt>
      <trkpt lat="46.433619" lon="13.738839"><ele>1751</ele></trkpt>
      <trkpt lat="46.433603" lon="13.738809"><ele>1752</ele></trkpt>
      <trkpt lat="46.433571" lon="13.738766"><ele>1753</ele></trkpt>
      <trkpt lat="46.433529" lon="13.738748"><ele>1752</ele></trkpt>
      <trkpt lat="46.433504" lon="13.738706"><ele>1753</ele></trkpt>
      <trkpt lat="46.433487" lon="13.738617"><ele>1756</ele></trkpt>
      <trkpt lat="46.433447" lon="13.73855"><ele>1757</ele></trkpt>
      <trkpt lat="46.433412" lon="13.73847"><ele>1760</ele></trkpt>
      <trkpt lat="46.43343" lon="13.738412"><ele>1763</ele></trkpt>
      <trkpt lat="46.4334" lon="13.738359"><ele>1765</ele></trkpt>
      <trkpt lat="46.433387" lon="13.738257"><ele>1771</ele></trkpt>
      <trkpt lat="46.433376" lon="13.738233"><ele>1772</ele></trkpt>
      <trkpt lat="46.43334" lon="13.738219"><ele>1772</ele></trkpt>
      <trkpt lat="46.43328" lon="13.738215"><ele>1773</ele></trkpt>
      <trkpt lat="46.433242" lon="13.738243"><ele>1772</ele></trkpt>
      <trkpt lat="46.433132" lon="13.738216"><ele>1775</ele></trkpt>
      <trkpt lat="46.433059" lon="13.738162"><ele>1778</ele></trkpt>
      <trkpt lat="46.432945" lon="13.737983"><ele>1785</ele></trkpt>
      <trkpt lat="46.432701" lon="13.73768"><ele>1798</ele></trkpt>
      <trkpt lat="46.432555" lon="13.73739"><ele>1810</ele></trkpt>
      <trkpt lat="46.432392" lon="13.737249"><ele>1817</ele></trkpt>
      <trkpt lat="46.432285" lon="13.737239"><ele>1819</ele></trkpt>
      <trkpt lat="46.43226" lon="13.737217"><ele>1820</ele></trkpt>
      <trkpt lat="46.432301" lon="13.7372"><ele>1821</ele></trkpt>
      <trkpt lat="46.432396" lon="13.73712"><ele>1826</ele></trkpt>
      <trkpt lat="46.432423" lon="13.737106"><ele>1827</ele></trkpt>
      <trkpt lat="46.432501" lon="13.737114"><ele>1827</ele></trkpt>
      <trkpt lat="46.432585" lon="13.737097"><ele>1829</ele></trkpt>
      <trkpt lat="46.432615" lon="13.737067"><ele>1831</ele></trkpt>
      <trkpt lat="46.432716" lon="13.73709"><ele>1830</ele></trkpt>
      <trkpt lat="46.432865" lon="13.737045"><ele>1831</ele></trkpt>
      <trkpt lat="46.43291" lon="13.736956"><ele>1835</ele></trkpt>
      <trkpt lat="46.433041" lon="13.736924"><ele>1834</ele></trkpt>
      <trkpt lat="46.433343" lon="13.73683"><ele>1839</ele></trkpt>
      <trkpt lat="46.433407" lon="13.736823"><ele>1841</ele></trkpt>
      <trkpt lat="46.433485" lon="13.736851"><ele>1841</ele></trkpt>
      <trkpt lat="46.43359" lon="13.736814"><ele>1845</ele></trkpt>
      <trkpt lat="46.433779" lon="13.736806"><ele>1849</ele></trkpt>
      <trkpt lat="46.433958" lon="13.736762"><ele>1854</ele></trkpt>
      <trkpt lat="46.434212" lon="13.736761"><ele>1860</ele></trkpt>
      <trkpt lat="46.43449" lon="13.736816"><ele>1865</ele></trkpt>
      <trkpt lat="46.434582" lon="13.736866"><ele>1868</ele></trkpt>
      <trkpt lat="46.434844" lon="13.73708"><ele>1872</ele></trkpt>
      <trkpt lat="46.435058" lon="13.737318"><ele>1873</ele></trkpt>
      <trkpt lat="46.435209" lon="13.737371"><ele>1877</ele></trkpt>
      <trkpt lat="46.435237" lon="13.737302"><ele>1882</ele></trkpt>
      <trkpt lat="46.435298" lon="13.737281"><ele>1886</ele></trkpt>
      <trkpt lat="46.435366" lon="13.737289"><ele>1888</ele></trkpt>
      <trkpt lat="46.435447" lon="13.737264"><ele>1891</ele></trkpt>
      <trkpt lat="46.435618" lon="13.737179"><ele>1904</ele></trkpt>
      <trkpt lat="46.43573" lon="13.737153"><ele>1909</ele></trkpt>
      <trkpt lat="46.435912" lon="13.737072"><ele>1919</ele></trkpt>
      <trkpt lat="46.436045" lon="13.737093"><ele>1921</ele></trkpt>
      <trkpt lat="46.436155" lon="13.737078"><ele>1924</ele></trkpt>
      <trkpt lat="46.436219" lon="13.73697"><ele>1931</ele></trkpt>
      <trkpt lat="46.436448" lon="13.736848"><ele>1942</ele></trkpt>
      <trkpt lat="46.436577" lon="13.736632"><ele>1952</ele></trkpt>
      <trkpt lat="46.436636" lon="13.736361"><ele>1965</ele></trkpt>
      <trkpt lat="46.436577" lon="13.736632"><ele>1952</ele></trkpt>
      <trkpt lat="46.436448" lon="13.736848"><ele>1942</ele></trkpt>
      <trkpt lat="46.436219" lon="13.73697"><ele>1931</ele></trkpt>
      <trkpt lat="46.436155" lon="13.737078"><ele>1924</ele></trkpt>
      <trkpt lat="46.436045" lon="13.737093"><ele>1921</ele></trkpt>
      <trkpt lat="46.435912" lon="13.737072"><ele>1919</ele></trkpt>
      <trkpt lat="46.43573" lon="13.737153"><ele>1909</ele></trkpt>
      <trkpt lat="46.435618" lon="13.737179"><ele>1904</ele></trkpt>
      <trkpt lat="46.435447" lon="13.737264"><ele>1891</ele></trkpt>
      <trkpt lat="46.435366" lon="13.737289"><ele>1888</ele></trkpt>
      <trkpt lat="46.435298" lon="13.737281"><ele>1886</ele></trkpt>
      <trkpt lat="46.435237" lon="13.737302"><ele>1882</ele></trkpt>
      <trkpt lat="46.435209" lon="13.737371"><ele>1877</ele></trkpt>
      <trkpt lat="46.435058" lon="13.737318"><ele>1873</ele></trkpt>
      <trkpt lat="46.434844" lon="13.73708"><ele>1872</ele></trkpt>
      <trkpt lat="46.434582" lon="13.736866"><ele>1868</ele></trkpt>
      <trkpt lat="46.43449" lon="13.736816"><ele>1865</ele></trkpt>
      <trkpt lat="46.434212" lon="13.736761"><ele>1860</ele></trkpt>
      <trkpt lat="46.433958" lon="13.736762"><ele>1854</ele></trkpt>
      <trkpt lat="46.433779" lon="13.736806"><ele>1849</ele></trkpt>
      <trkpt lat="46.43359" lon="13.736814"><ele>1845</ele></trkpt>
      <trkpt lat="46.433485" lon="13.736851"><ele>1841</ele></trkpt>
      <trkpt lat="46.433407" lon="13.736823"><ele>1841</ele></trkpt>
      <trkpt lat="46.433343" lon="13.73683"><ele>1839</ele></trkpt>
      <trkpt lat="46.433041" lon="13.736924"><ele>1834</ele></trkpt>
      <trkpt lat="46.43291" lon="13.736956"><ele>1835</ele></trkpt>
      <trkpt lat="46.432865" lon="13.737045"><ele>1831</ele></trkpt>
      <trkpt lat="46.432716" lon="13.73709"><ele>1830</ele></trkpt>
      <trkpt lat="46.432615" lon="13.737067"><ele>1831</ele></trkpt>
      <trkpt lat="46.432585" lon="13.737097"><ele>1829</ele></trkpt>
      <trkpt lat="46.432501" lon="13.737114"><ele>1827</ele></trkpt>
      <trkpt lat="46.432423" lon="13.737106"><ele>1827</ele></trkpt>
      <trkpt lat="46.432396" lon="13.73712"><ele>1826</ele></trkpt>
      <trkpt lat="46.432301" lon="13.7372"><ele>1821</ele></trkpt>
      <trkpt lat="46.43226" lon="13.737217"><ele>1820</ele></trkpt>
      <trkpt lat="46.43216" lon="13.737166"><ele>1824</ele></trkpt>
      <trkpt lat="46.432008" lon="13.737063"><ele>1831</ele></trkpt>
      <trkpt lat="46.431915" lon="13.737013"><ele>1834</ele></trkpt>
      <trkpt lat="46.431775" lon="13.737029"><ele>1834</ele></trkpt>
      <trkpt lat="46.431677" lon="13.736999"><ele>1836</ele></trkpt>
      <trkpt lat="46.43159" lon="13.736904"><ele>1845</ele></trkpt>
      <trkpt lat="46.431508" lon="13.736858"><ele>1851</ele></trkpt>
      <trkpt lat="46.431357" lon="13.73683"><ele>1856</ele></trkpt>
      <trkpt lat="46.431297" lon="13.736799"><ele>1859</ele></trkpt>
      <trkpt lat="46.431258" lon="13.736721"><ele>1865</ele></trkpt>
      <trkpt lat="46.431255" lon="13.73665"><ele>1870</ele></trkpt>
      <trkpt lat="46.431263" lon="13.736589"><ele>1873</ele></trkpt>
      <trkpt lat="46.43124" lon="13.736512"><ele>1878</ele></trkpt>
      <trkpt lat="46.43119" lon="13.736451"><ele>1880</ele></trkpt>
      <trkpt lat="46.431085" lon="13.736358"><ele>1886</ele></trkpt>
      <trkpt lat="46.430973" lon="13.736308"><ele>1894</ele></trkpt>
      <trkpt lat="46.43091" lon="13.736237"><ele>1902</ele></trkpt>
      <trkpt lat="46.430826" lon="13.736257"><ele>1903</ele></trkpt>
      <trkpt lat="46.430728" lon="13.73625"><ele>1909</ele></trkpt>
      <trkpt lat="46.430674" lon="13.736235"><ele>1913</ele></trkpt>
      <trkpt lat="46.430636" lon="13.7362"><ele>1918</ele></trkpt>
      <trkpt lat="46.430605" lon="13.736153"><ele>1922</ele></trkpt>
      <trkpt lat="46.430554" lon="13.736109"><ele>1926</ele></trkpt>
      <trkpt lat="46.430477" lon="13.736052"><ele>1936</ele></trkpt>
      <trkpt lat="46.430372" lon="13.73599"><ele>1942</ele></trkpt>
      <trkpt lat="46.430275" lon="13.736008"><ele>1940</ele></trkpt>
      <trkpt lat="46.430246" lon="13.736042"><ele>1937</ele></trkpt>
      <trkpt lat="46.430212" lon="13.736099"><ele>1933</ele></trkpt>
      <trkpt lat="46.430197" lon="13.73615"><ele>1933</ele></trkpt>
      <trkpt lat="46.430189" lon="13.736088"><ele>1932</ele></trkpt>
      <trkpt lat="46.430201" lon="13.736043"><ele>1934</ele></trkpt>
      <trkpt lat="46.43024" lon="13.735961"><ele>1939</ele></trkpt>
      <trkpt lat="46.430259" lon="13.735899"><ele>1943</ele></trkpt>
      <trkpt lat="46.430274" lon="13.735896"><ele>1944</ele></trkpt>
      <trkpt lat="46.430291" lon="13.73586"><ele>1947</ele></trkpt>
      <trkpt lat="46.430318" lon="13.735753"><ele>1947</ele></trkpt>
      <trkpt lat="46.430354" lon="13.735723"><ele>1950</ele></trkpt>
      <trkpt lat="46.430375" lon="13.73573"><ele>1952</ele></trkpt>
      <trkpt lat="46.430391" lon="13.735778"><ele>1954</ele></trkpt>
      <trkpt lat="46.430417" lon="13.735722"><ele>1956</ele></trkpt>
      <trkpt lat="46.430466" lon="13.73569"><ele>1960</ele></trkpt>
      <trkpt lat="46.430482" lon="13.735743"><ele>1962</ele></trkpt>
      <trkpt lat="46.430507" lon="13.735778"><ele>1964</ele></trkpt>
      <trkpt lat="46.430526" lon="13.73582"><ele>1966</ele></trkpt>
      <trkpt lat="46.43054" lon="13.73583"><ele>1967</ele></trkpt>
      <trkpt lat="46.430584" lon="13.735648"><ele>1970</ele></trkpt>
      <trkpt lat="46.430834" lon="13.735331"><ele>1988</ele></trkpt>
      <trkpt lat="46.430863" lon="13.735378"><ele>1989</ele></trkpt>
      <trkpt lat="46.43096" lon="13.735317"><ele>1995</ele></trkpt>
      <trkpt lat="46.430991" lon="13.735292"><ele>1997</ele></trkpt>
      <trkpt lat="46.431023" lon="13.735284"><ele>2000</ele></trkpt>
      <trkpt lat="46.431057" lon="13.735232"><ele>2002</ele></trkpt>
      <trkpt lat="46.431096" lon="13.735207"><ele>2005</ele></trkpt>
      <trkpt lat="46.431196" lon="13.735192"><ele>2008</ele></trkpt>
      <trkpt lat="46.431236" lon="13.735215"><ele>2009</ele></trkpt>
      <trkpt lat="46.431265" lon="13.735215"><ele>2010</ele></trkpt>
      <trkpt lat="46.431372" lon="13.734983"><ele>2024</ele></trkpt>
      <trkpt lat="46.431396" lon="13.734883"><ele>2024</ele></trkpt>
      <trkpt lat="46.431427" lon="13.734821"><ele>2025</ele></trkpt>
      <trkpt lat="46.431533" lon="13.734672"><ele>2032</ele></trkpt>
      <trkpt lat="46.431591" lon="13.734609"><ele>2035</ele></trkpt>
      <trkpt lat="46.431739" lon="13.734458"><ele>2041</ele></trkpt>
      <trkpt lat="46.431875" lon="13.734391"><ele>2049</ele></trkpt>
      <trkpt lat="46.432079" lon="13.73423"><ele>2057</ele></trkpt>
      <trkpt lat="46.432133" lon="13.734155"><ele>2059</ele></trkpt>
      <trkpt lat="46.4322" lon="13.734082"><ele>2061</ele></trkpt>
      <trkpt lat="46.432288" lon="13.734001"><ele>2063</ele></trkpt>
      <trkpt lat="46.432388" lon="13.733962"><ele>2067</ele></trkpt>
      <trkpt lat="46.432474" lon="13.733916"><ele>2070</ele></trkpt>
      <trkpt lat="46.432511" lon="13.733864"><ele>2070</ele></trkpt>
      <trkpt lat="46.432565" lon="13.733692"><ele>2069</ele></trkpt>
      <trkpt lat="46.432632" lon="13.733518"><ele>2070</ele></trkpt>
      <trkpt lat="46.432753" lon="13.733334"><ele>2077</ele></trkpt>
      <trkpt lat="46.43276" lon="13.733239"><ele>2077</ele></trkpt>
      <trkpt lat="46.432775" lon="13.733144"><ele>2078</ele></trkpt>
      <trkpt lat="46.432832" lon="13.733092"><ele>2080</ele></trkpt>
      <trkpt lat="46.432933" lon="13.733024"><ele>2083</ele></trkpt>
      <trkpt lat="46.433154" lon="13.732614"><ele>2088</ele></trkpt>
      <trkpt lat="46.43323" lon="13.732255"><ele>2086</ele></trkpt>
      <trkpt lat="46.433363" lon="13.731989"><ele>2090</ele></trkpt>
      <trkpt lat="46.433549" lon="13.731774"><ele>2099</ele></trkpt>
      <trkpt lat="46.434029" lon="13.731177"><ele>2121</ele></trkpt>
      <trkpt lat="46.434249" lon="13.730982"><ele>2133</ele></trkpt>
      <trkpt lat="46.434515" lon="13.730764"><ele>2148</ele></trkpt>
      <trkpt lat="46.434575" lon="13.730735"><ele>2151</ele></trkpt>
      <trkpt lat="46.4346" lon="13.73094"><ele>2156</ele></trkpt>
      <trkpt lat="46.434621" lon="13.730971"><ele>2158</ele></trkpt>
      <trkpt lat="46.434601" lon="13.731004"><ele>2157</ele></trkpt>
      <trkpt lat="46.434596" lon="13.731078"><ele>2158</ele></trkpt>
      <trkpt lat="46.434655" lon="13.731096"><ele>2163</ele></trkpt>
      <trkpt lat="46.434657" lon="13.731233"><ele>2165</ele></trkpt>
      <trkpt lat="46.43475" lon="13.73118"><ele>2171</ele></trkpt>
      <trkpt lat="46.434824" lon="13.731111"><ele>2175</ele></trkpt>
      <trkpt lat="46.434869" lon="13.731038"><ele>2176</ele></trkpt>
      <trkpt lat="46.434992" lon="13.730903"><ele>2182</ele></trkpt>
      <trkpt lat="46.435054" lon="13.730875"><ele>2186</ele></trkpt>
      <trkpt lat="46.435081" lon="13.730906"><ele>2188</ele></trkpt>
      <trkpt lat="46.435322" lon="13.7308"><ele>2201</ele></trkpt>
      <trkpt lat="46.435358" lon="13.730916"><ele>2206</ele></trkpt>
      <trkpt lat="46.435462" lon="13.730813"><ele>2211</ele></trkpt>
      <trkpt lat="46.435536" lon="13.730785"><ele>2215</ele></trkpt>
      <trkpt lat="46.435586" lon="13.730923"><ele>2221</ele></trkpt>
      <trkpt lat="46.435643" lon="13.730887"><ele>2224</ele></trkpt>
      <trkpt lat="46.435719" lon="13.731013"><ele>2231</ele></trkpt>
      <trkpt lat="46.43577" lon="13.731121"><ele>2236</ele></trkpt>
      <trkpt lat="46.435801" lon="13.731251"><ele>2238</ele></trkpt>
      <trkpt lat="46.435824" lon="13.731288"><ele>2239</ele></trkpt>
      <trkpt lat="46.43588" lon="13.731311"><ele>2242</ele></trkpt>
      <trkpt lat="46.435938" lon="13.731259"><ele>2246</ele></trkpt>
      <trkpt lat="46.436198" lon="13.731229"><ele>2263</ele></trkpt>
      <trkpt lat="46.436338" lon="13.73112"><ele>2273</ele></trkpt>
      <trkpt lat="46.436438" lon="13.730973"><ele>2278</ele></trkpt>
      <trkpt lat="46.436529" lon="13.73093"><ele>2284</ele></trkpt>
      <trkpt lat="46.436562" lon="13.730973"><ele>2287</ele></trkpt>
      <trkpt lat="46.436626" lon="13.731054"><ele>2292</ele></trkpt>
      <trkpt lat="46.436681" lon="13.731138"><ele>2296</ele></trkpt>
      <trkpt lat="46.436751" lon="13.731088"><ele>2300</ele></trkpt>
      <trkpt lat="46.436802" lon="13.731149"><ele>2303</ele></trkpt>
      <trkpt lat="46.436899" lon="13.731169"><ele>2308</ele></trkpt>
      <trkpt lat="46.436977" lon="13.730977"><ele>2313</ele></trkpt>
      <trkpt lat="46.437005" lon="13.731014"><ele>2314</ele></trkpt>
      <trkpt lat="46.437052" lon="13.730935"><ele>2316</ele></trkpt>
      <trkpt lat="46.437098" lon="13.730904"><ele>2317</ele></trkpt>
      <trkpt lat="46.437106" lon="13.730958"><ele>2318</ele></trkpt>
      <trkpt lat="46.43714" lon="13.73103"><ele>2321</ele></trkpt>
      <trkpt lat="46.437182" lon="13.731065"><ele>2324</ele></trkpt>
      <trkpt lat="46.437257" lon="13.731081"><ele>2326</ele></trkpt>
      <trkpt lat="46.437336" lon="13.731081"><ele>2324</ele></trkpt>
      <trkpt lat="46.437389" lon="13.731131"><ele>2324</ele></trkpt>
      <trkpt lat="46.43739" lon="13.731098"><ele>2322</ele></trkpt>
    </trkseg>
  </trk>
</gpx>
