<?xml version="1.0" encoding="UTF-8"?>
<gpx version="1.1" creator="hike-trip" xmlns="http://www.topografix.com/GPX/1/1">
  <metadata>
    <name>Mangart via the Slovenian Route</name>
    <desc>Routed with BRouter (hiking-mountain) over OpenStreetMap data through hand-verified anchor points. Schematic in places — verify against signage on the ground.</desc>
    <copyright author="OpenStreetMap contributors"><license>https://www.openstreetmap.org/copyright</license></copyright>
    <bounds minlat="46.43917" minlon="13.64757" maxlat="46.44775" maxlon="13.65933"/>
  </metadata>
  <wpt lat="46.44577" lon="13.64757"><name>Trailhead — Mangart via the Slovenian Route</name><sym>Trail Head</sym></wpt>
  <wpt lat="46.4395" lon="13.65466"><ele>2679</ele><name>Mangart</name><sym>Summit</sym></wpt>
  <trk>
    <name>Mangart via the Slovenian Route (Slovenska smer (via ferrata B))</name>
    <type>hiking</type>
    <trkseg>
      <trkpt lat="46.44577" lon="13.64757"><ele>2099</ele></trkpt>
      <trkpt lat="46.44575" lon="13.64792"><ele>2099</ele></trkpt>
      <trkpt lat="46.44573" lon="13.64808"><ele>2099</ele></trkpt>
      <trkpt lat="46.44573" lon="13.64828"><ele>2099</ele></trkpt>
      <trkpt lat="46.44569" lon="13.64847"><ele>2115</ele></trkpt>
      <trkpt lat="46.44562" lon="13.64875"><ele>2115</ele></trkpt>
      <trkpt lat="46.44556" lon="13.64898"><ele>2115</ele></trkpt>
      <trkpt lat="46.44534" lon="13.64973"><ele>2131</ele></trkpt>
      <trkpt lat="46.44512" lon="13.6499"><ele>2131</ele></trkpt>
      <trkpt lat="46.44499" lon="13.65006"><ele>2119</ele></trkpt>
      <trkpt lat="46.44494" lon="13.65028"><ele>2119</ele></trkpt>
      <trkpt lat="46.44472" lon="13.65071"><ele>2119</ele></trkpt>
      <trkpt lat="46.44466" lon="13.65123"><ele>2106</ele></trkpt>
      <trkpt lat="46.44466" lon="13.65139"><ele>2106</ele></trkpt>
      <trkpt lat="46.44459" lon="13.65151"><ele>2106</ele></trkpt>
      <trkpt lat="46.44455" lon="13.65189"><ele>2106</ele></trkpt>
      <trkpt lat="46.44447" lon="13.65211"><ele>2106</ele></trkpt>
      <trkpt lat="46.44441" lon="13.65233"><ele>2106</ele></trkpt>
      <trkpt lat="46.4444" lon="13.65243"><ele>2106</ele></trkpt>
      <trkpt lat="46.44441" lon="13.65252"><ele>2093</ele></trkpt>
      <trkpt lat="46.44441" lon="13.65261"><ele>2093</ele></trkpt>
      <trkpt lat="46.44439" lon="13.65273"><ele>2093</ele></trkpt>
      <trkpt lat="46.44416" lon="13.65286"><ele>2093</ele></trkpt>
      <trkpt lat="46.44402" lon="13.6529"><ele>2171</ele></trkpt>
      <trkpt lat="46.44393" lon="13.65298"><ele>2171</ele></trkpt>
      <trkpt lat="46.4438" lon="13.65308"><ele>2171</ele></trkpt>
      <trkpt lat="46.44372" lon="13.65315"><ele>2171</ele></trkpt>
      <trkpt lat="46.44365" lon="13.65315"><ele>2171</ele></trkpt>
      <trkpt lat="46.44358" lon="13.65313"><ele>2171</ele></trkpt>
      <trkpt lat="46.44339" lon="13.65321"><ele>2171</ele></trkpt>
      <trkpt lat="46.44331" lon="13.65329"><ele>2194</ele></trkpt>
      <trkpt lat="46.44324" lon="13.65332"><ele>2194</ele></trkpt>
      <trkpt lat="46.44318" lon="13.65331"><ele>2194</ele></trkpt>
      <trkpt lat="46.44306" lon="13.6534"><ele>2236</ele></trkpt>
      <trkpt lat="46.44297" lon="13.65343"><ele>2236</ele></trkpt>
      <trkpt lat="46.44282" lon="13.65345"><ele>2236</ele></trkpt>
      <trkpt lat="46.4427" lon="13.65339"><ele>2236</ele></trkpt>
      <trkpt lat="46.44262" lon="13.65331"><ele>2194</ele></trkpt>
      <trkpt lat="46.44255" lon="13.65316"><ele>2194</ele></trkpt>
      <trkpt lat="46.44246" lon="13.65298"><ele>2226</ele></trkpt>
      <trkpt lat="46.44238" lon="13.65295"><ele>2226</ele></trkpt>
      <trkpt lat="46.44233" lon="13.65291"><ele>2226</ele></trkpt>
      <trkpt lat="46.44228" lon="13.65286"><ele>2226</ele></trkpt>
      <trkpt lat="46.44221" lon="13.65279"><ele>2226</ele></trkpt>
      <trkpt lat="46.44215" lon="13.65264"><ele>2226</ele></trkpt>
      <trkpt lat="46.44212" lon="13.65258"><ele>2226</ele></trkpt>
      <trkpt lat="46.44208" lon="13.65251"><ele>2226</ele></trkpt>
      <trkpt lat="46.44201" lon="13.65245"><ele>2159</ele></trkpt>
      <trkpt lat="46.44197" lon="13.65243"><ele>2159</ele></trkpt>
      <trkpt lat="46.44193" lon="13.65244"><ele>2159</ele></trkpt>
      <trkpt lat="46.4419" lon="13.65248"><ele>2159</ele></trkpt>
      <trkpt lat="46.44181" lon="13.65252"><ele>2226</ele></trkpt>
      <trkpt lat="46.44167" lon="13.65254"><ele>2226</ele></trkpt>
      <trkpt lat="46.44158" lon="13.65249"><ele>2273</ele></trkpt>
      <trkpt lat="46.44145" lon="13.6524"><ele>2178</ele></trkpt>
      <trkpt lat="46.44134" lon="13.6524"><ele>2178</ele></trkpt>
      <trkpt lat="46.44118" lon="13.65245"><ele>2178</ele></trkpt>
      <trkpt lat="46.44089" lon="13.65246"><ele>2178</ele></trkpt>
      <trkpt lat="46.44068" lon="13.65243"><ele>2238</ele></trkpt>
      <trkpt lat="46.44057" lon="13.6524"><ele>2238</ele></trkpt>
      <trkpt lat="46.44045" lon="13.65235"><ele>2238</ele></trkpt>
      <trkpt lat="46.4403" lon="13.65231"><ele>2238</ele></trkpt>
      <trkpt lat="46.44021" lon="13.65227"><ele>2238</ele></trkpt>
      <trkpt lat="46.44003" lon="13.6523"><ele>2238</ele></trkpt>
      <trkpt lat="46.43985" lon="13.65235"><ele>2335</ele></trkpt>
      <trkpt lat="46.43972" lon="13.65235"><ele>2335</ele></trkpt>
      <trkpt lat="46.43958" lon="13.65236"><ele>2335</ele></trkpt>
      <trkpt lat="46.43951" lon="13.65236"><ele>2335</ele></trkpt>
      <trkpt lat="46.43946" lon="13.6524"><ele>2335</ele></trkpt>
      <trkpt lat="46.43935" lon="13.65243"><ele>2335</ele></trkpt>
      <trkpt lat="46.43922" lon="13.65245"><ele>2335</ele></trkpt>
      <trkpt lat="46.43923" lon="13.65258"><ele>2448</ele></trkpt>
      <trkpt lat="46.43926" lon="13.65265"><ele>2448</ele></trkpt>
      <trkpt lat="46.43933" lon="13.65275"><ele>2448</ele></trkpt>
      <trkpt lat="46.43935" lon="13.65278"><ele>2448</ele></trkpt>
      <trkpt lat="46.4394" lon="13.65277"><ele>2448</ele></trkpt>
      <trkpt lat="46.43943" lon="13.65282"><ele>2448</ele></trkpt>
      <trkpt lat="46.43946" lon="13.65284"><ele>2448</ele></trkpt>
      <trkpt lat="46.43949" lon="13.65282"><ele>2448</ele></trkpt>
      <trkpt lat="46.43951" lon="13.65284"><ele>2448</ele></trkpt>
      <trkpt lat="46.43951" lon="13.65287"><ele>2448</ele></trkpt>
      <trkpt lat="46.4395" lon="13.65299"><ele>2448</ele></trkpt>
      <trkpt lat="46.43951" lon="13.65307"><ele>2448</ele></trkpt>
      <trkpt lat="46.4395" lon="13.65315"><ele>2448</ele></trkpt>
      <trkpt lat="46.4395" lon="13.65321"><ele>2448</ele></trkpt>
      <trkpt lat="46.43942" lon="13.65331"><ele>2448</ele></trkpt>
      <trkpt lat="46.43935" lon="13.65307"><ele>2448</ele></trkpt>
      <trkpt lat="46.43923" lon="13.6532"><ele>2448</ele></trkpt>
      <trkpt lat="46.43924" lon="13.65328"><ele>2448</ele></trkpt>
      <trkpt lat="46.43922" lon="13.6534"><ele>2534</ele></trkpt>
      <trkpt lat="46.43925" lon="13.65347"><ele>2534</ele></trkpt>
      <trkpt lat="46.43926" lon="13.65354"><ele>2534</ele></trkpt>
      <trkpt lat="46.43925" lon="13.65355"><ele>2534</ele></trkpt>
      <trkpt lat="46.43924" lon="13.65375"><ele>2534</ele></trkpt>
      <trkpt lat="46.43926" lon="13.6539"><ele>2534</ele></trkpt>
      <trkpt lat="46.43924" lon="13.65396"><ele>2534</ele></trkpt>
      <trkpt lat="46.43918" lon="13.65399"><ele>2534</ele></trkpt>
      <trkpt lat="46.43917" lon="13.65405"><ele>2534</ele></trkpt>
      <trkpt lat="46.43917" lon="13.65411"><ele>2534</ele></trkpt>
      <trkpt lat="46.4392" lon="13.65416"><ele>2534</ele></trkpt>
      <trkpt lat="46.43921" lon="13.65426"><ele>2588</ele></trkpt>
      <trkpt lat="46.43922" lon="13.65432"><ele>2588</ele></trkpt>
      <trkpt lat="46.43924" lon="13.65437"><ele>2588</ele></trkpt>
      <trkpt lat="46.43925" lon="13.65441"><ele>2588</ele></trkpt>
      <trkpt lat="46.43928" lon="13.65446"><ele>2588</ele></trkpt>
      <trkpt lat="46.43932" lon="13.65454"><ele>2588</ele></trkpt>
      <trkpt lat="46.43937" lon="13.65455"><ele>2588</ele></trkpt>
      <trkpt lat="46.43942" lon="13.65462"><ele>2588</ele></trkpt>
      <trkpt lat="46.4395" lon="13.65466"><ele>2679</ele></trkpt>
      <trkpt lat="46.43946" lon="13.65481"><ele>2588</ele></trkpt>
      <trkpt lat="46.43948" lon="13.65494"><ele>2588</ele></trkpt>
      <trkpt lat="46.43947" lon="13.65502"><ele>2603</ele></trkpt>
      <trkpt lat="46.43945" lon="13.65505"><ele>2603</ele></trkpt>
      <trkpt lat="46.43944" lon="13.6551"><ele>2603</ele></trkpt>
      <trkpt lat="46.43948" lon="13.65516"><ele>2603</ele></trkpt>
      <trkpt lat="46.43952" lon="13.65528"><ele>2603</ele></trkpt>
      <trkpt lat="46.43954" lon="13.65536"><ele>2603</ele></trkpt>
      <trkpt lat="46.43955" lon="13.65542"><ele>2603</ele></trkpt>
      <trkpt lat="46.43953" lon="13.65551"><ele>2603</ele></trkpt>
      <trkpt lat="46.43953" lon="13.65562"><ele>2603</ele></trkpt>
      <trkpt lat="46.43953" lon="13.65572"><ele>2603</ele></trkpt>
      <trkpt lat="46.43955" lon="13.65578"><ele>2603</ele></trkpt>
      <trkpt lat="46.43957" lon="13.6558"><ele>2603</ele></trkpt>
      <trkpt lat="46.43957" lon="13.65585"><ele>2602</ele></trkpt>
      <trkpt lat="46.43955" lon="13.6559"><ele>2602</ele></trkpt>
      <trkpt lat="46.43955" lon="13.65596"><ele>2602</ele></trkpt>
      <trkpt lat="46.43954" lon="13.656"><ele>2602</ele></trkpt>
      <trkpt lat="46.43953" lon="13.65602"><ele>2602</ele></trkpt>
      <trkpt lat="46.43948" lon="13.65606"><ele>2602</ele></trkpt>
      <trkpt lat="46.43948" lon="13.65614"><ele>2602</ele></trkpt>
      <trkpt lat="46.43949" lon="13.65619"><ele>2602</ele></trkpt>
      <trkpt lat="46.43953" lon="13.65627"><ele>2602</ele></trkpt>
      <trkpt lat="46.43953" lon="13.65639"><ele>2602</ele></trkpt>
      <trkpt lat="46.43953" lon="13.65644"><ele>2602</ele></trkpt>
      <trkpt lat="46.43951" lon="13.65655"><ele>2602</ele></trkpt>
      <trkpt lat="46.43951" lon="13.65664"><ele>2602</ele></trkpt>
      <trkpt lat="46.4395" lon="13.65673"><ele>2598</ele></trkpt>
      <trkpt lat="46.43949" lon="13.6568"><ele>2598</ele></trkpt>
      <trkpt lat="46.43951" lon="13.65688"><ele>2598</ele></trkpt>
      <trkpt lat="46.43953" lon="13.65699"><ele>2598</ele></trkpt>
      <trkpt lat="46.43955" lon="13.65708"><ele>2598</ele></trkpt>
      <trkpt lat="46.43956" lon="13.65729"><ele>2598</ele></trkpt>
      <trkpt lat="46.43956" lon="13.65742"><ele>2598</ele></trkpt>
      <trkpt lat="46.43957" lon="13.65751"><ele>2575</ele></trkpt>
      <trkpt lat="46.4396" lon="13.65757"><ele>2575</ele></trkpt>
      <trkpt lat="46.43961" lon="13.65763"><ele>2575</ele></trkpt>
      <trkpt lat="46.43959" lon="13.65768"><ele>2575</ele></trkpt>
      <trkpt lat="46.43957" lon="13.65771"><ele>2575</ele></trkpt>
      <trkpt lat="46.4396" lon="13.65777"><ele>2575</ele></trkpt>
      <trkpt lat="46.43968" lon="13.65792"><ele>2575</ele></trkpt>
      <trkpt lat="46.43969" lon="13.65797"><ele>2575</ele></trkpt>
      <trkpt lat="46.43972" lon="13.65804"><ele>2575</ele></trkpt>
      <trkpt lat="46.43976" lon="13.65809"><ele>2575</ele></trkpt>
      <trkpt lat="46.43979" lon="13.65811"><ele>2575</ele></trkpt>
      <trkpt lat="46.43979" lon="13.65815"><ele>2575</ele></trkpt>
      <trkpt lat="46.4398" lon="13.65818"><ele>2575</ele></trkpt>
      <trkpt lat="46.43982" lon="13.6582"><ele>2575</ele></trkpt>
      <trkpt lat="46.43982" lon="13.65824"><ele>2575</ele></trkpt>
      <trkpt lat="46.43983" lon="13.65827"><ele>2575</ele></trkpt>
      <trkpt lat="46.43989" lon="13.65834"><ele>2531</ele></trkpt>
      <trkpt lat="46.4399" lon="13.65835"><ele>2531</ele></trkpt>
      <trkpt lat="46.4399" lon="13.6584"><ele>2531</ele></trkpt>
      <trkpt lat="46.43988" lon="13.65844"><ele>2531</ele></trkpt>
      <trkpt lat="46.43981" lon="13.65848"><ele>2531</ele></trkpt>
      <trkpt lat="46.43977" lon="13.65848"><ele>2531</ele></trkpt>
      <trkpt lat="46.43974" lon="13.6585"><ele>2531</ele></trkpt>
      <trkpt lat="46.43975" lon="13.65855"><ele>2531</ele></trkpt>
      <trkpt lat="46.43976" lon="13.65862"><ele>2531</ele></trkpt>
      <trkpt lat="46.43973" lon="13.65867"><ele>2531</ele></trkpt>
      <trkpt lat="46.43971" lon="13.65871"><ele>2531</ele></trkpt>
      <trkpt lat="46.43969" lon="13.65874"><ele>2531</ele></trkpt>
      <trkpt lat="46.43969" lon="13.65879"><ele>2531</ele></trkpt>
      <trkpt lat="46.43971" lon="13.65884"><ele>2531</ele></trkpt>
      <trkpt lat="46.43972" lon="13.65888"><ele>2531</ele></trkpt>
      <trkpt lat="46.43978" lon="13.65891"><ele>2531</ele></trkpt>
      <trkpt lat="46.43982" lon="13.65893"><ele>2531</ele></trkpt>
      <trkpt lat="46.43985" lon="13.65895"><ele>2531</ele></trkpt>
      <trkpt lat="46.43988" lon="13.65897"><ele>2531</ele></trkpt>
      <trkpt lat="46.43991" lon="13.659"><ele>2531</ele></trkpt>
      <trkpt lat="46.43996" lon="13.65909"><ele>2531</ele></trkpt>
      <trkpt lat="46.44001" lon="13.65905"><ele>2496</ele></trkpt>
      <trkpt lat="46.44007" lon="13.65906"><ele>2496</ele></trkpt>
      <trkpt lat="46.4401" lon="13.65904"><ele>2496</ele></trkpt>
      <trkpt lat="46.44015" lon="13.65903"><ele>2496</ele></trkpt>
      <trkpt lat="46.44017" lon="13.65901"><ele>2496</ele></trkpt>
      <trkpt lat="46.44021" lon="13.65901"><ele>2496</ele></trkpt>
      <trkpt lat="46.44025" lon="13.65903"><ele>2496</ele></trkpt>
      <trkpt lat="46.44028" lon="13.65905"><ele>2496</ele></trkpt>
      <trkpt lat="46.44032" lon="13.65908"><ele>2496</ele></trkpt>
      <trkpt lat="46.44035" lon="13.65909"><ele>2496</ele></trkpt>
      <trkpt lat="46.44039" lon="13.65909"><ele>2496</ele></trkpt>
      <trkpt lat="46.44043" lon="13.65909"><ele>2496</ele></trkpt>
      <trkpt lat="46.44047" lon="13.6591"><ele>2496</ele></trkpt>
      <trkpt lat="46.44051" lon="13.65909"><ele>2496</ele></trkpt>
      <trkpt lat="46.44053" lon="13.65908"><ele>2496</ele></trkpt>
      <trkpt lat="46.44056" lon="13.6591"><ele>2496</ele></trkpt>
      <trkpt lat="46.44058" lon="13.6591"><ele>2496</ele></trkpt>
      <trkpt lat="46.44062" lon="13.65909"><ele>2496</ele></trkpt>
      <trkpt lat="46.44064" lon="13.6591"><ele>2496</ele></trkpt>
      <trkpt lat="46.44064" lon="13.65912"><ele>2496</ele></trkpt>
      <trkpt lat="46.44063" lon="13.65914"><ele>2496</ele></trkpt>
      <trkpt lat="46.44064" lon="13.65916"><ele>2463</ele></trkpt>
      <trkpt lat="46.44066" lon="13.65917"><ele>2463</ele></trkpt>
      <trkpt lat="46.44067" lon="13.65918"><ele>2463</ele></trkpt>
      <trkpt lat="46.44069" lon="13.65923"><ele>2463</ele></trkpt>
      <trkpt lat="46.44073" lon="13.65924"><ele>2463</ele></trkpt>
      <trkpt lat="46.44075" lon="13.65926"><ele>2463</ele></trkpt>
      <trkpt lat="46.44077" lon="13.65927"><ele>2463</ele></trkpt>
      <trkpt lat="46.44079" lon="13.65929"><ele>2463</ele></trkpt>
      <trkpt lat="46.44081" lon="13.65928"><ele>2463</ele></trkpt>
      <trkpt lat="46.44083" lon="13.65929"><ele>2384</ele></trkpt>
      <trkpt lat="46.44085" lon="13.65931"><ele>2384</ele></trkpt>
      <trkpt lat="46.44088" lon="13.65932"><ele>2384</ele></trkpt>
      <trkpt lat="46.4409" lon="13.65933"><ele>2384</ele></trkpt>
      <trkpt lat="46.44093" lon="13.65932"><ele>2384</ele></trkpt>
      <trkpt lat="46.44096" lon="13.6593"><ele>2384</ele></trkpt>
      <trkpt lat="46.441" lon="13.65928"><ele>2384</ele></trkpt>
      <trkpt lat="46.44103" lon="13.65927"><ele>2384</ele></trkpt>
      <trkpt lat="46.44106" lon="13.65925"><ele>2384</ele></trkpt>
      <trkpt lat="46.44108" lon="13.65921"><ele>2384</ele></trkpt>
      <trkpt lat="46.44109" lon="13.65919"><ele>2384</ele></trkpt>
      <trkpt lat="46.4411" lon="13.65918"><ele>2384</ele></trkpt>
      <trkpt lat="46.44112" lon="13.65917"><ele>2384</ele></trkpt>
      <trkpt lat="46.44113" lon="13.65914"><ele>2412</ele></trkpt>
      <trkpt lat="46.44115" lon="13.65913"><ele>2412</ele></trkpt>
      <trkpt lat="46.44117" lon="13.65912"><ele>2412</ele></trkpt>
      <trkpt lat="46.44119" lon="13.65911"><ele>2412</ele></trkpt>
      <trkpt lat="46.44121" lon="13.65908"><ele>2412</ele></trkpt>
      <trkpt lat="46.44125" lon="13.65904"><ele>2412</ele></trkpt>
      <trkpt lat="46.44126" lon="13.65901"><ele>2412</ele></trkpt>
      <trkpt lat="46.44132" lon="13.65898"><ele>2412</ele></trkpt>
      <trkpt lat="46.44134" lon="13.65896"><ele>2412</ele></trkpt>
      <trkpt lat="46.44139" lon="13.65892"><ele>2412</ele></trkpt>
      <trkpt lat="46.44141" lon="13.65884"><ele>2412</ele></trkpt>
      <trkpt lat="46.44144" lon="13.65876"><ele>2412</ele></trkpt>
      <trkpt lat="46.44145" lon="13.65869"><ele>2412</ele></trkpt>
      <trkpt lat="46.44146" lon="13.65864"><ele>2412</ele></trkpt>
      <trkpt lat="46.44148" lon="13.65857"><ele>2412</ele></trkpt>
      <trkpt lat="46.44149" lon="13.65849"><ele>2412</ele></trkpt>
      <trkpt lat="46.44151" lon="13.65841"><ele>2412</ele></trkpt>
      <trkpt lat="46.44151" lon="13.65833"><ele>2431</ele></trkpt>
      <trkpt lat="46.44153" lon="13.65825"><ele>2431</ele></trkpt>
      <trkpt lat="46.44156" lon="13.65814"><ele>2431</ele></trkpt>
      <trkpt lat="46.44159" lon="13.65806"><ele>2431</ele></trkpt>
      <trkpt lat="46.4416" lon="13.65799"><ele>2431</ele></trkpt>
      <trkpt lat="46.44162" lon="13.65792"><ele>2431</ele></trkpt>
      <trkpt lat="46.44165" lon="13.65785"><ele>2431</ele></trkpt>
      <trkpt lat="46.44169" lon="13.65779"><ele>2294</ele></trkpt>
      <trkpt lat="46.44173" lon="13.65772"><ele>2294</ele></trkpt>
      <trkpt lat="46.44177" lon="13.65765"><ele>2294</ele></trkpt>
      <trkpt lat="46.44179" lon="13.65757"><ele>2294</ele></trkpt>
      <trkpt lat="46.4418" lon="13.65749"><ele>2319</ele></trkpt>
      <trkpt lat="46.44181" lon="13.65739"><ele>2319</ele></trkpt>
      <trkpt lat="46.44181" lon="13.65731"><ele>2319</ele></trkpt>
      <trkpt lat="46.44183" lon="13.65723"><ele>2319</ele></trkpt>
      <trkpt lat="46.44184" lon="13.65716"><ele>2319</ele></trkpt>
      <trkpt lat="46.44186" lon="13.65707"><ele>2319</ele></trkpt>
      <trkpt lat="46.44186" lon="13.65702"><ele>2319</ele></trkpt>
      <trkpt lat="46.44187" lon="13.65698"><ele>2319</ele></trkpt>
      <trkpt lat="46.44189" lon="13.65694"><ele>2319</ele></trkpt>
      <trkpt lat="46.44191" lon="13.65688"><ele>2319</ele></trkpt>
      <trkpt lat="46.44195" lon="13.65692"><ele>2319</ele></trkpt>
      <trkpt lat="46.44198" lon="13.65694"><ele>2319</ele></trkpt>
      <trkpt lat="46.44202" lon="13.6569"><ele>2319</ele></trkpt>
      <trkpt lat="46.44207" lon="13.65692"><ele>2319</ele></trkpt>
      <trkpt lat="46.44208" lon="13.65687"><ele>2319</ele></trkpt>
      <trkpt lat="46.44215" lon="13.65688"><ele>2319</ele></trkpt>
      <trkpt lat="46.44218" lon="13.6568"><ele>2319</ele></trkpt>
      <trkpt lat="46.44217" lon="13.65675"><ele>2319</ele></trkpt>
      <trkpt lat="46.44218" lon="13.65668"><ele>2319</ele></trkpt>
      <trkpt lat="46.4422" lon="13.65666"><ele>2319</ele></trkpt>
      <trkpt lat="46.44223" lon="13.65665"><ele>2327</ele></trkpt>
      <trkpt lat="46.44224" lon="13.65659"><ele>2327</ele></trkpt>
      <trkpt lat="46.44226" lon="13.65647"><ele>2327</ele></trkpt>
      <trkpt lat="46.44231" lon="13.65641"><ele>2327</ele></trkpt>
      <trkpt lat="46.44234" lon="13.65636"><ele>2327</ele></trkpt>
      <trkpt lat="46.44237" lon="13.65645"><ele>2327</ele></trkpt>
      <trkpt lat="46.44242" lon="13.65648"><ele>2327</ele></trkpt>
      <trkpt lat="46.44246" lon="13.65648"><ele>2327</ele></trkpt>
      <trkpt lat="46.44248" lon="13.65635"><ele>2327</ele></trkpt>
      <trkpt lat="46.44247" lon="13.65627"><ele>2327</ele></trkpt>
      <trkpt lat="46.44245" lon="13.65621"><ele>2327</ele></trkpt>
      <trkpt lat="46.44248" lon="13.65616"><ele>2327</ele></trkpt>
      <trkpt lat="46.44251" lon="13.6561"><ele>2190</ele></trkpt>
      <trkpt lat="46.44253" lon="13.65604"><ele>2190</ele></trkpt>
      <trkpt lat="46.44256" lon="13.65598"><ele>2190</ele></trkpt>
      <trkpt lat="46.44263" lon="13.65602"><ele>2190</ele></trkpt>
      <trkpt lat="46.44268" lon="13.65599"><ele>2190</ele></trkpt>
      <trkpt lat="46.44271" lon="13.65593"><ele>2190</ele></trkpt>
      <trkpt lat="46.4427" lon="13.65585"><ele>2190</ele></trkpt>
      <trkpt lat="46.44268" lon="13.65572"><ele>2219</ele></trkpt>
      <trkpt lat="46.44267" lon="13.65562"><ele>2219</ele></trkpt>
      <trkpt lat="46.44264" lon="13.65552"><ele>2219</ele></trkpt>
      <trkpt lat="46.44262" lon="13.65545"><ele>2219</ele></trkpt>
      <trkpt lat="46.4426" lon="13.65539"><ele>2219</ele></trkpt>
      <trkpt lat="46.44261" lon="13.65533"><ele>2219</ele></trkpt>
      <trkpt lat="46.44263" lon="13.65526"><ele>2219</ele></trkpt>
      <trkpt lat="46.44264" lon="13.65519"><ele>2219</ele></trkpt>
      <trkpt lat="46.44264" lon="13.65513"><ele>2219</ele></trkpt>
      <trkpt lat="46.44265" lon="13.65507"><ele>2219</ele></trkpt>
      <trkpt lat="46.44266" lon="13.65496"><ele>2238</ele></trkpt>
      <trkpt lat="46.44268" lon="13.6549"><ele>2238</ele></trkpt>
      <trkpt lat="46.4427" lon="13.65483"><ele>2238</ele></trkpt>
      <trkpt lat="46.44275" lon="13.65478"><ele>2238</ele></trkpt>
      <trkpt lat="46.44278" lon="13.65478"><ele>2238</ele></trkpt>
      <trkpt lat="46.44282" lon="13.65476"><ele>2238</ele></trkpt>
      <trkpt lat="46.44284" lon="13.65471"><ele>2238</ele></trkpt>
      <trkpt lat="46.44288" lon="13.65467"><ele>2238</ele></trkpt>
      <trkpt lat="46.44292" lon="13.65462"><ele>2238</ele></trkpt>
      <trkpt lat="46.44295" lon="13.65458"><ele>2238</ele></trkpt>
      <trkpt lat="46.44297" lon="13.65455"><ele>2238</ele></trkpt>
      <trkpt lat="46.44302" lon="13.6545"><ele>2238</ele></trkpt>
      <trkpt lat="46.44303" lon="13.65445"><ele>2238</ele></trkpt>
      <trkpt lat="46.44305" lon="13.65443"><ele>2238</ele></trkpt>
      <trkpt lat="46.44306" lon="13.6544"><ele>2238</ele></trkpt>
      <trkpt lat="46.44308" lon="13.65439"><ele>2238</ele></trkpt>
      <trkpt lat="46.44309" lon="13.65438"><ele>2238</ele></trkpt>
      <trkpt lat="46.44309" lon="13.65436"><ele>2238</ele></trkpt>
      <trkpt lat="46.44312" lon="13.65431"><ele>2238</ele></trkpt>
      <trkpt lat="46.44316" lon="13.65426"><ele>2238</ele></trkpt>
      <trkpt lat="46.44319" lon="13.65418"><ele>2238</ele></trkpt>
      <trkpt lat="46.44325" lon="13.65411"><ele>2236</ele></trkpt>
      <trkpt lat="46.44331" lon="13.65406"><ele>2236</ele></trkpt>
      <trkpt lat="46.44335" lon="13.65396"><ele>2176</ele></trkpt>
      <trkpt lat="46.44342" lon="13.65392"><ele>2176</ele></trkpt>
      <trkpt lat="46.44344" lon="13.65389"><ele>2176</ele></trkpt>
      <trkpt lat="46.44351" lon="13.65378"><ele>2176</ele></trkpt>
      <trkpt lat="46.44357" lon="13.65373"><ele>2176</ele></trkpt>
      <trkpt lat="46.44364" lon="13.65367"><ele>2176</ele></trkpt>
      <trkpt lat="46.44376" lon="13.65357"><ele>2176</ele></trkpt>
      <trkpt lat="46.44378" lon="13.65354"><ele>2176</ele></trkpt>
      <trkpt lat="46.4441" lon="13.65373"><ele>2176</ele></trkpt>
      <trkpt lat="46.44435" lon="13.65329"><ele>2093</ele></trkpt>
      <trkpt lat="46.44444" lon="13.65315"><ele>2093</ele></trkpt>
      <trkpt lat="46.44464" lon="13.6529"><ele>2093</ele></trkpt>
      <trkpt lat="46.44483" lon="13.65277"><ele>2093</ele></trkpt>
      <trkpt lat="46.44495" lon="13.6528"><ele>2093</ele></trkpt>
      <trkpt lat="46.44508" lon="13.65279"><ele>2019</ele></trkpt>
      <trkpt lat="46.44522" lon="13.65327"><ele>2019</ele></trkpt>
      <trkpt lat="46.44531" lon="13.65321"><ele>2019</ele></trkpt>
      <trkpt lat="46.44534" lon="13.65301"><ele>2019</ele></trkpt>
      <trkpt lat="46.4454" lon="13.65296"><ele>2019</ele></trkpt>
      <trkpt lat="46.44549" lon="13.6529"><ele>2019</ele></trkpt>
      <trkpt lat="46.44564" lon="13.65271"><ele>2019</ele></trkpt>
      <trkpt lat="46.44563" lon="13.65233"><ele>2071</ele></trkpt>
      <trkpt lat="46.44573" lon="13.65217"><ele>2071</ele></trkpt>
      <trkpt lat="46.44578" lon="13.65214"><ele>2071</ele></trkpt>
      <trkpt lat="46.44581" lon="13.65215"><ele>2071</ele></trkpt>
      <trkpt lat="46.44587" lon="13.65219"><ele>2035</ele></trkpt>
      <trkpt lat="46.44592" lon="13.65219"><ele>2035</ele></trkpt>
      <trkpt lat="46.44598" lon="13.6522"><ele>2035</ele></trkpt>
      <trkpt lat="46.44603" lon="13.65223"><ele>2035</ele></trkpt>
      <trkpt lat="46.4461" lon="13.65224"><ele>2035</ele></trkpt>
      <trkpt lat="46.44617" lon="13.65223"><ele>2035</ele></trkpt>
      <trkpt lat="46.44629" lon="13.65223"><ele>2035</ele></trkpt>
      <trkpt lat="46.44652" lon="13.65218"><ele>2035</ele></trkpt>
      <trkpt lat="46.44658" lon="13.65213"><ele>2035</ele></trkpt>
      <trkpt lat="46.44665" lon="13.65207"><ele>2035</ele></trkpt>
      <trkpt lat="46.44667" lon="13.65201"><ele>2018</ele></trkpt>
      <trkpt lat="46.44671" lon="13.65195"><ele>2018</ele></trkpt>
      <trkpt lat="46.44676" lon="13.6519"><ele>2018</ele></trkpt>
      <trkpt lat="46.44683" lon="13.65189"><ele>2018</ele></trkpt>
      <trkpt lat="46.44686" lon="13.65185"><ele>2018</ele></trkpt>
      <trkpt lat="46.4469" lon="13.65181"><ele>2018</ele></trkpt>
      <trkpt lat="46.44693" lon="13.65173"><ele>2018</ele></trkpt>
      <trkpt lat="46.44699" lon="13.65164"><ele>2047</ele></trkpt>
      <trkpt lat="46.44709" lon="13.65156"><ele>2047</ele></trkpt>
      <trkpt lat="46.44719" lon="13.65148"><ele>2047</ele></trkpt>
      <trkpt lat="46.44728" lon="13.65143"><ele>2047</ele></trkpt>
      <trkpt lat="46.44737" lon="13.65139"><ele>2047</ele></trkpt>
      <trkpt lat="46.44744" lon="13.65139"><ele>2047</ele></trkpt>
      <trkpt lat="46.44748" lon="13.65139"><ele>2047</ele></trkpt>
      <trkpt lat="46.4475" lon="13.65137"><ele>2017</ele></trkpt>
      <trkpt lat="46.44752" lon="13.65136"><ele>2017</ele></trkpt>
      <trkpt lat="46.44754" lon="13.65136"><ele>2017</ele></trkpt>
      <trkpt lat="46.44761" lon="13.65137"><ele>2017</ele></trkpt>
      <trkpt lat="46.44764" lon="13.65132"><ele>2017</ele></trkpt>
      <trkpt lat="46.44764" lon="13.65125"><ele>2017</ele></trkpt>
      <trkpt lat="46.44764" lon="13.65119"><ele>2017</ele></trkpt>
      <trkpt lat="46.44764" lon="13.65104"><ele>2017</ele></trkpt>
      <trkpt lat="46.44762" lon="13.65096"><ele>2017</ele></trkpt>
      <trkpt lat="46.44767" lon="13.65086"><ele>2017</ele></trkpt>
      <trkpt lat="46.44769" lon="13.65077"><ele>2005</ele></trkpt>
      <trkpt lat="46.44774" lon="13.6507"><ele>2005</ele></trkpt>
      <trkpt lat="46.44775" lon="13.65061"><ele>2005</ele></trkpt>
      <trkpt lat="46.44775" lon="13.65056"><ele>2005</ele></trkpt>
      <trkpt lat="46.44769" lon="13.6506"><ele>2005</ele></trkpt>
      <trkpt lat="46.4476" lon="13.65061"><ele>2005</ele></trkpt>
      <trkpt lat="46.44757" lon="13.65059"><ele>2005</ele></trkpt>
      <trkpt lat="46.44751" lon="13.65055"><ele>2005</ele></trkpt>
      <trkpt lat="46.44727" lon="13.65025"><ele>2068</ele></trkpt>
      <trkpt lat="46.44713" lon="13.65016"><ele>2068</ele></trkpt>
      <trkpt lat="46.44704" lon="13.65016"><ele>2068</ele></trkpt>
      <trkpt lat="46.44696" lon="13.65013"><ele>2068</ele></trkpt>
      <trkpt lat="46.44684" lon="13.65006"><ele>2068</ele></trkpt>
      <trkpt lat="46.44677" lon="13.65004"><ele>2068</ele></trkpt>
      <trkpt lat="46.44669" lon="13.65003"><ele>2068</ele></trkpt>
      <trkpt lat="46.44651" lon="13.64995"><ele>2121</ele></trkpt>
      <trkpt lat="46.4463" lon="13.64991"><ele>2121</ele></trkpt>
      <trkpt lat="46.44623" lon="13.64992"><ele>2121</ele></trkpt>
      <trkpt lat="46.44608" lon="13.64983"><ele>2121</ele></trkpt>
      <trkpt lat="46.44591" lon="13.64973"><ele>2121</ele></trkpt>
      <trkpt lat="46.44587" lon="13.64959"><ele>2121</ele></trkpt>
      <trkpt lat="46.44576" lon="13.64957"><ele>2131</ele></trkpt>
      <trkpt lat="46.44569" lon="13.64949"><ele>2131</ele></trkpt>
      <trkpt lat="46.44559" lon="13.64954"><ele>2131</ele></trkpt>
      <trkpt lat="46.44566" lon="13.6493"><ele>2131</ele></trkpt>
      <trkpt lat="46.44571" lon="13.64915"><ele>2115</ele></trkpt>
      <trkpt lat="46.44577" lon="13.64899"><ele>2115</ele></trkpt>
      <trkpt lat="46.44593" lon="13.64856"><ele>2090</ele></trkpt>
      <trkpt lat="46.44599" lon="13.64841"><ele>2090</ele></trkpt>
      <trkpt lat="46.44604" lon="13.64827"><ele>2051</ele></trkpt>
      <trkpt lat="46.44603" lon="13.64826"><ele>2051</ele></trkpt>
      <trkpt lat="46.44595" lon="13.64831"><ele>2051</ele></trkpt>
      <trkpt lat="46.44589" lon="13.64833"><ele>2090</ele></trkpt>
      <trkpt lat="46.44582" lon="13.64837"><ele>2115</ele></trkpt>
      <trkpt lat="46.44569" lon="13.64847"><ele>2115</ele></trkpt>
      <trkpt lat="46.44573" lon="13.64828"><ele>2099</ele></trkpt>
      <trkpt lat="46.44573" lon="13.64808"><ele>2099</ele></trkpt>
      <trkpt lat="46.44575" lon="13.64792"><ele>2099</ele></trkpt>
      <trkpt lat="46.44577" lon="13.64757"><ele>2099</ele></trkpt>
    </trkseg>
  </trk>
</gpx>
