<?xml version="1.0" encoding="UTF-8"?>
<gpx version="1.1" creator="hike-trip" xmlns="http://www.topografix.com/GPX/1/1">
  <metadata>
    <name>Monte Coldai (Cima Coldai)</name>
    <desc>Routed with BRouter (hiking-mountain) over OpenStreetMap data through hand-verified anchor points. Schematic in places — verify against signage on the ground. Track traces one direction — return the same way.</desc>
    <copyright author="OpenStreetMap contributors"><license>https://www.openstreetmap.org/copyright</license></copyright>
    <bounds minlat="46.398103" minlon="12.060613" maxlat="46.406676" maxlon="12.103015"/>
  </metadata>
  <wpt lat="46.4014" lon="12.1031"><name>Trailhead — Monte Coldai (Cima Coldai)</name><sym>Trail Head</sym></wpt>
  <wpt lat="46.4026" lon="12.0639"><ele>2403</ele><name>Cima Coldai</name><sym>Summit</sym></wpt>
  <trk>
    <name>Monte Coldai (Cima Coldai) (No. 564 / 556)</name>
    <type>hiking</type>
    <trkseg>
      <trkpt lat="46.401324" lon="12.103015"><ele>1517</ele></trkpt>
      <trkpt lat="46.401494" lon="12.102698"><ele>1515</ele></trkpt>
      <trkpt lat="46.401753" lon="12.102601"><ele>1515</ele></trkpt>
      <trkpt lat="46.402075" lon="12.102484"><ele>1516</ele></trkpt>
      <trkpt lat="46.402198" lon="12.102482"><ele>1517</ele></trkpt>
      <trkpt lat="46.402248" lon="12.102066"><ele>1516</ele></trkpt>
      <trkpt lat="46.402294" lon="12.101887"><ele>1516</ele></trkpt>
      <trkpt lat="46.402211" lon="12.101877"><ele>1516</ele></trkpt>
      <trkpt lat="46.402221" lon="12.101734"><ele>1515</ele></trkpt>
      <trkpt lat="46.402493" lon="12.101653"><ele>1516</ele></trkpt>
      <trkpt lat="46.402221" lon="12.101734"><ele>1515</ele></trkpt>
      <trkpt lat="46.402189" lon="12.101744"><ele>1515</ele></trkpt>
      <trkpt lat="46.402124" lon="12.101858"><ele>1515</ele></trkpt>
      <trkpt lat="46.401882" lon="12.101808"><ele>1513</ele></trkpt>
      <trkpt lat="46.401541" lon="12.101737"><ele>1512</ele></trkpt>
      <trkpt lat="46.401295" lon="12.101688"><ele>1511</ele></trkpt>
      <trkpt lat="46.400945" lon="12.101498"><ele>1512</ele></trkpt>
      <trkpt lat="46.400891" lon="12.101467"><ele>1513</ele></trkpt>
      <trkpt lat="46.400683" lon="12.101383"><ele>1514</ele></trkpt>
      <trkpt lat="46.400529" lon="12.101391"><ele>1515</ele></trkpt>
      <trkpt lat="46.400552" lon="12.101217"><ele>1516</ele></trkpt>
      <trkpt lat="46.400555" lon="12.100999"><ele>1516</ele></trkpt>
      <trkpt lat="46.400538" lon="12.10083"><ele>1516</ele></trkpt>
      <trkpt lat="46.4005" lon="12.100669"><ele>1517</ele></trkpt>
      <trkpt lat="46.400417" lon="12.100484"><ele>1519</ele></trkpt>
      <trkpt lat="46.400319" lon="12.100342"><ele>1520</ele></trkpt>
      <trkpt lat="46.400271" lon="12.100302"><ele>1521</ele></trkpt>
      <trkpt lat="46.4002" lon="12.100301"><ele>1522</ele></trkpt>
      <trkpt lat="46.400079" lon="12.100404"><ele>1523</ele></trkpt>
      <trkpt lat="46.40002" lon="12.100413"><ele>1524</ele></trkpt>
      <trkpt lat="46.39996" lon="12.100401"><ele>1524</ele></trkpt>
      <trkpt lat="46.399901" lon="12.100348"><ele>1524</ele></trkpt>
      <trkpt lat="46.399765" lon="12.100112"><ele>1526</ele></trkpt>
      <trkpt lat="46.399728" lon="12.099982"><ele>1527</ele></trkpt>
      <trkpt lat="46.399727" lon="12.099953"><ele>1527</ele></trkpt>
      <trkpt lat="46.399652" lon="12.099916"><ele>1528</ele></trkpt>
      <trkpt lat="46.399599" lon="12.099993"><ele>1527</ele></trkpt>
      <trkpt lat="46.399532" lon="12.100048"><ele>1527</ele></trkpt>
      <trkpt lat="46.399385" lon="12.099944"><ele>1528</ele></trkpt>
      <trkpt lat="46.399136" lon="12.099746"><ele>1532</ele></trkpt>
      <trkpt lat="46.399044" lon="12.09961"><ele>1535</ele></trkpt>
      <trkpt lat="46.398916" lon="12.099468"><ele>1538</ele></trkpt>
      <trkpt lat="46.398826" lon="12.099405"><ele>1539</ele></trkpt>
      <trkpt lat="46.398791" lon="12.099303"><ele>1541</ele></trkpt>
      <trkpt lat="46.398697" lon="12.099222"><ele>1542</ele></trkpt>
      <trkpt lat="46.39861" lon="12.0991"><ele>1543</ele></trkpt>
      <trkpt lat="46.398597" lon="12.098993"><ele>1544</ele></trkpt>
      <trkpt lat="46.398602" lon="12.098878"><ele>1546</ele></trkpt>
      <trkpt lat="46.398617" lon="12.098822"><ele>1547</ele></trkpt>
      <trkpt lat="46.398585" lon="12.098727"><ele>1549</ele></trkpt>
      <trkpt lat="46.398576" lon="12.098607"><ele>1552</ele></trkpt>
      <trkpt lat="46.398534" lon="12.098457"><ele>1553</ele></trkpt>
      <trkpt lat="46.398455" lon="12.098203"><ele>1556</ele></trkpt>
      <trkpt lat="46.398271" lon="12.097876"><ele>1560</ele></trkpt>
      <trkpt lat="46.398171" lon="12.097666"><ele>1562</ele></trkpt>
      <trkpt lat="46.398103" lon="12.097335"><ele>1561</ele></trkpt>
      <trkpt lat="46.398167" lon="12.097377"><ele>1562</ele></trkpt>
      <trkpt lat="46.398296" lon="12.097392"><ele>1564</ele></trkpt>
      <trkpt lat="46.398535" lon="12.09738"><ele>1568</ele></trkpt>
      <trkpt lat="46.398644" lon="12.097387"><ele>1569</ele></trkpt>
      <trkpt lat="46.398836" lon="12.097417"><ele>1570</ele></trkpt>
      <trkpt lat="46.398877" lon="12.097411"><ele>1571</ele></trkpt>
      <trkpt lat="46.398973" lon="12.097355"><ele>1572</ele></trkpt>
      <trkpt lat="46.399016" lon="12.097315"><ele>1572</ele></trkpt>
      <trkpt lat="46.399118" lon="12.097183"><ele>1574</ele></trkpt>
      <trkpt lat="46.399255" lon="12.096957"><ele>1577</ele></trkpt>
      <trkpt lat="46.399304" lon="12.09686"><ele>1578</ele></trkpt>
      <trkpt lat="46.399477" lon="12.096572"><ele>1581</ele></trkpt>
      <trkpt lat="46.39967" lon="12.096283"><ele>1583</ele></trkpt>
      <trkpt lat="46.39988" lon="12.095986"><ele>1586</ele></trkpt>
      <trkpt lat="46.400125" lon="12.09557"><ele>1590</ele></trkpt>
      <trkpt lat="46.400226" lon="12.095247"><ele>1593</ele></trkpt>
      <trkpt lat="46.400261" lon="12.095033"><ele>1594</ele></trkpt>
      <trkpt lat="46.400287" lon="12.094921"><ele>1594</ele></trkpt>
      <trkpt lat="46.400343" lon="12.094546"><ele>1597</ele></trkpt>
      <trkpt lat="46.400377" lon="12.094448"><ele>1598</ele></trkpt>
      <trkpt lat="46.400396" lon="12.094371"><ele>1599</ele></trkpt>
      <trkpt lat="46.400403" lon="12.094307"><ele>1600</ele></trkpt>
      <trkpt lat="46.400367" lon="12.094165"><ele>1600</ele></trkpt>
      <trkpt lat="46.400368" lon="12.094108"><ele>1602</ele></trkpt>
      <trkpt lat="46.400395" lon="12.093965"><ele>1605</ele></trkpt>
      <trkpt lat="46.400373" lon="12.093918"><ele>1606</ele></trkpt>
      <trkpt lat="46.400366" lon="12.093844"><ele>1607</ele></trkpt>
      <trkpt lat="46.400385" lon="12.093788"><ele>1609</ele></trkpt>
      <trkpt lat="46.400429" lon="12.093778"><ele>1610</ele></trkpt>
      <trkpt lat="46.400837" lon="12.093809"><ele>1615</ele></trkpt>
      <trkpt lat="46.400974" lon="12.093806"><ele>1616</ele></trkpt>
      <trkpt lat="46.401477" lon="12.093749"><ele>1618</ele></trkpt>
      <trkpt lat="46.401896" lon="12.093733"><ele>1617</ele></trkpt>
      <trkpt lat="46.402033" lon="12.093659"><ele>1619</ele></trkpt>
      <trkpt lat="46.402163" lon="12.093472"><ele>1623</ele></trkpt>
      <trkpt lat="46.402314" lon="12.093176"><ele>1630</ele></trkpt>
      <trkpt lat="46.402521" lon="12.092806"><ele>1636</ele></trkpt>
      <trkpt lat="46.403162" lon="12.091865"><ele>1649</ele></trkpt>
      <trkpt lat="46.403221" lon="12.091793"><ele>1651</ele></trkpt>
      <trkpt lat="46.403387" lon="12.091678"><ele>1653</ele></trkpt>
      <trkpt lat="46.403442" lon="12.091618"><ele>1655</ele></trkpt>
      <trkpt lat="46.403448" lon="12.091556"><ele>1657</ele></trkpt>
      <trkpt lat="46.403425" lon="12.091502"><ele>1658</ele></trkpt>
      <trkpt lat="46.403374" lon="12.091477"><ele>1659</ele></trkpt>
      <trkpt lat="46.403166" lon="12.091541"><ele>1658</ele></trkpt>
      <trkpt lat="46.402838" lon="12.091531"><ele>1662</ele></trkpt>
      <trkpt lat="46.402737" lon="12.09147"><ele>1664</ele></trkpt>
      <trkpt lat="46.402598" lon="12.091185"><ele>1671</ele></trkpt>
      <trkpt lat="46.402526" lon="12.091101"><ele>1674</ele></trkpt>
      <trkpt lat="46.402331" lon="12.091002"><ele>1675</ele></trkpt>
      <trkpt lat="46.402063" lon="12.090941"><ele>1674</ele></trkpt>
      <trkpt lat="46.401735" lon="12.09069"><ele>1674</ele></trkpt>
      <trkpt lat="46.401684" lon="12.090535"><ele>1678</ele></trkpt>
      <trkpt lat="46.401629" lon="12.090086"><ele>1684</ele></trkpt>
      <trkpt lat="46.401537" lon="12.089843"><ele>1686</ele></trkpt>
      <trkpt lat="46.401463" lon="12.08958"><ele>1686</ele></trkpt>
      <trkpt lat="46.401476" lon="12.089428"><ele>1688</ele></trkpt>
      <trkpt lat="46.401517" lon="12.08919"><ele>1706</ele></trkpt>
      <trkpt lat="46.401695" lon="12.08818"><ele>1706</ele></trkpt>
      <trkpt lat="46.401827" lon="12.087529"><ele>1711</ele></trkpt>
      <trkpt lat="46.4019" lon="12.087335"><ele>1713</ele></trkpt>
      <trkpt lat="46.402346" lon="12.086347"><ele>1724</ele></trkpt>
      <trkpt lat="46.402841" lon="12.085457"><ele>1730</ele></trkpt>
      <trkpt lat="46.403219" lon="12.085046"><ele>1735</ele></trkpt>
      <trkpt lat="46.403519" lon="12.084681"><ele>1736</ele></trkpt>
      <trkpt lat="46.40387" lon="12.08428"><ele>1741</ele></trkpt>
      <trkpt lat="46.404283" lon="12.083851"><ele>1749</ele></trkpt>
      <trkpt lat="46.404575" lon="12.083478"><ele>1751</ele></trkpt>
      <trkpt lat="46.404998" lon="12.083058"><ele>1761</ele></trkpt>
      <trkpt lat="46.405034" lon="12.082971"><ele>1762</ele></trkpt>
      <trkpt lat="46.405116" lon="12.082642"><ele>1764</ele></trkpt>
      <trkpt lat="46.405192" lon="12.082095"><ele>1768</ele></trkpt>
      <trkpt lat="46.405191" lon="12.082001"><ele>1770</ele></trkpt>
      <trkpt lat="46.40517" lon="12.081924"><ele>1771</ele></trkpt>
      <trkpt lat="46.405042" lon="12.081795"><ele>1773</ele></trkpt>
      <trkpt lat="46.404942" lon="12.08168"><ele>1774</ele></trkpt>
      <trkpt lat="46.404844" lon="12.081549"><ele>1775</ele></trkpt>
      <trkpt lat="46.404813" lon="12.081458"><ele>1777</ele></trkpt>
      <trkpt lat="46.404797" lon="12.081352"><ele>1779</ele></trkpt>
      <trkpt lat="46.404785" lon="12.081076"><ele>1780</ele></trkpt>
      <trkpt lat="46.40473" lon="12.080918"><ele>1782</ele></trkpt>
      <trkpt lat="46.404703" lon="12.080814"><ele>1784</ele></trkpt>
      <trkpt lat="46.404697" lon="12.080747"><ele>1784</ele></trkpt>
      <trkpt lat="46.40472" lon="12.080649"><ele>1785</ele></trkpt>
      <trkpt lat="46.404759" lon="12.080568"><ele>1786</ele></trkpt>
      <trkpt lat="46.404881" lon="12.080353"><ele>1784</ele></trkpt>
      <trkpt lat="46.404978" lon="12.080283"><ele>1785</ele></trkpt>
      <trkpt lat="46.405198" lon="12.080213"><ele>1786</ele></trkpt>
      <trkpt lat="46.405303" lon="12.080123"><ele>1786</ele></trkpt>
      <trkpt lat="46.405618" lon="12.079676"><ele>1787</ele></trkpt>
      <trkpt lat="46.405884" lon="12.079321"><ele>1790</ele></trkpt>
      <trkpt lat="46.406035" lon="12.079071"><ele>1789</ele></trkpt>
      <trkpt lat="46.406313" lon="12.078638"><ele>1793</ele></trkpt>
      <trkpt lat="46.406581" lon="12.078073"><ele>1797</ele></trkpt>
      <trkpt lat="46.406655" lon="12.077864"><ele>1797</ele></trkpt>
      <trkpt lat="46.406664" lon="12.077744"><ele>1796</ele></trkpt>
      <trkpt lat="46.406649" lon="12.077617"><ele>1797</ele></trkpt>
      <trkpt lat="46.406593" lon="12.077413"><ele>1798</ele></trkpt>
      <trkpt lat="46.406552" lon="12.07722"><ele>1799</ele></trkpt>
      <trkpt lat="46.406496" lon="12.076885"><ele>1804</ele></trkpt>
      <trkpt lat="46.406513" lon="12.07677"><ele>1805</ele></trkpt>
      <trkpt lat="46.406676" lon="12.076375"><ele>1810</ele></trkpt>
      <trkpt lat="46.406341" lon="12.076225"><ele>1813</ele></trkpt>
      <trkpt lat="46.406212" lon="12.076178"><ele>1816</ele></trkpt>
      <trkpt lat="46.406167" lon="12.075968"><ele>1819</ele></trkpt>
      <trkpt lat="46.406106" lon="12.075791"><ele>1822</ele></trkpt>
      <trkpt lat="46.406083" lon="12.07531"><ele>1829</ele></trkpt>
      <trkpt lat="46.406083" lon="12.075207"><ele>1831</ele></trkpt>
      <trkpt lat="46.406021" lon="12.074794"><ele>1838</ele></trkpt>
      <trkpt lat="46.405983" lon="12.074623"><ele>1842</ele></trkpt>
      <trkpt lat="46.405845" lon="12.07432"><ele>1850</ele></trkpt>
      <trkpt lat="46.405741" lon="12.073962"><ele>1858</ele></trkpt>
      <trkpt lat="46.405777" lon="12.073883"><ele>1859</ele></trkpt>
      <trkpt lat="46.405791" lon="12.07378"><ele>1860</ele></trkpt>
      <trkpt lat="46.405714" lon="12.073516"><ele>1867</ele></trkpt>
      <trkpt lat="46.405738" lon="12.073148"><ele>1876</ele></trkpt>
      <trkpt lat="46.405557" lon="12.072936"><ele>1885</ele></trkpt>
      <trkpt lat="46.405552" lon="12.072693"><ele>1891</ele></trkpt>
      <trkpt lat="46.405367" lon="12.072437"><ele>1900</ele></trkpt>
      <trkpt lat="46.405245" lon="12.07214"><ele>1908</ele></trkpt>
      <trkpt lat="46.405086" lon="12.071999"><ele>1914</ele></trkpt>
      <trkpt lat="46.405009" lon="12.071862"><ele>1919</ele></trkpt>
      <trkpt lat="46.404573" lon="12.071771"><ele>1933</ele></trkpt>
      <trkpt lat="46.404324" lon="12.071831"><ele>1944</ele></trkpt>
      <trkpt lat="46.40421" lon="12.071913"><ele>1948</ele></trkpt>
      <trkpt lat="46.404052" lon="12.072272"><ele>1952</ele></trkpt>
      <trkpt lat="46.404002" lon="12.072258"><ele>1955</ele></trkpt>
      <trkpt lat="46.403923" lon="12.072182"><ele>1961</ele></trkpt>
      <trkpt lat="46.403588" lon="12.072312"><ele>1973</ele></trkpt>
      <trkpt lat="46.403481" lon="12.072511"><ele>1972</ele></trkpt>
      <trkpt lat="46.403369" lon="12.072591"><ele>1974</ele></trkpt>
      <trkpt lat="46.403337" lon="12.072584"><ele>1976</ele></trkpt>
      <trkpt lat="46.403174" lon="12.072662"><ele>1981</ele></trkpt>
      <trkpt lat="46.40296" lon="12.07273"><ele>1989</ele></trkpt>
      <trkpt lat="46.402834" lon="12.07273"><ele>1995</ele></trkpt>
      <trkpt lat="46.402719" lon="12.072671"><ele>2002</ele></trkpt>
      <trkpt lat="46.402637" lon="12.072685"><ele>2003</ele></trkpt>
      <trkpt lat="46.402513" lon="12.072655"><ele>2008</ele></trkpt>
      <trkpt lat="46.402468" lon="12.072585"><ele>2012</ele></trkpt>
      <trkpt lat="46.402241" lon="12.072515"><ele>2022</ele></trkpt>
      <trkpt lat="46.402115" lon="12.072517"><ele>2026</ele></trkpt>
      <trkpt lat="46.401717" lon="12.072541"><ele>2037</ele></trkpt>
      <trkpt lat="46.401644" lon="12.072555"><ele>2039</ele></trkpt>
      <trkpt lat="46.401572" lon="12.072603"><ele>2039</ele></trkpt>
      <trkpt lat="46.401536" lon="12.072673"><ele>2038</ele></trkpt>
      <trkpt lat="46.401505" lon="12.072689"><ele>2038</ele></trkpt>
      <trkpt lat="46.401485" lon="12.072667"><ele>2040</ele></trkpt>
      <trkpt lat="46.401488" lon="12.072625"><ele>2041</ele></trkpt>
      <trkpt lat="46.401504" lon="12.072554"><ele>2043</ele></trkpt>
      <trkpt lat="46.401531" lon="12.072483"><ele>2045</ele></trkpt>
      <trkpt lat="46.401531" lon="12.072448"><ele>2047</ele></trkpt>
      <trkpt lat="46.401506" lon="12.072446"><ele>2047</ele></trkpt>
      <trkpt lat="46.401463" lon="12.072488"><ele>2047</ele></trkpt>
      <trkpt lat="46.401435" lon="12.072485"><ele>2048</ele></trkpt>
      <trkpt lat="46.401408" lon="12.07246"><ele>2050</ele></trkpt>
      <trkpt lat="46.401358" lon="12.072377"><ele>2051</ele></trkpt>
      <trkpt lat="46.401325" lon="12.072262"><ele>2053</ele></trkpt>
      <trkpt lat="46.40109" lon="12.071894"><ele>2078</ele></trkpt>
      <trkpt lat="46.400938" lon="12.071728"><ele>2079</ele></trkpt>
      <trkpt lat="46.400879" lon="12.071688"><ele>2075</ele></trkpt>
      <trkpt lat="46.400703" lon="12.071623"><ele>2067</ele></trkpt>
      <trkpt lat="46.400544" lon="12.07158"><ele>2060</ele></trkpt>
      <trkpt lat="46.40047" lon="12.071509"><ele>2064</ele></trkpt>
      <trkpt lat="46.400518" lon="12.071458"><ele>2066</ele></trkpt>
      <trkpt lat="46.400598" lon="12.071431"><ele>2071</ele></trkpt>
      <trkpt lat="46.400584" lon="12.071383"><ele>2073</ele></trkpt>
      <trkpt lat="46.400484" lon="12.071333"><ele>2073</ele></trkpt>
      <trkpt lat="46.400409" lon="12.071256"><ele>2078</ele></trkpt>
      <trkpt lat="46.400215" lon="12.071264"><ele>2081</ele></trkpt>
      <trkpt lat="46.400089" lon="12.071325"><ele>2088</ele></trkpt>
      <trkpt lat="46.40006" lon="12.071291"><ele>2090</ele></trkpt>
      <trkpt lat="46.400064" lon="12.071135"><ele>2092</ele></trkpt>
      <trkpt lat="46.400135" lon="12.070962"><ele>2100</ele></trkpt>
      <trkpt lat="46.400064" lon="12.070971"><ele>2101</ele></trkpt>
      <trkpt lat="46.39996" lon="12.071059"><ele>2099</ele></trkpt>
      <trkpt lat="46.399959" lon="12.071008"><ele>2102</ele></trkpt>
      <trkpt lat="46.400019" lon="12.070899"><ele>2106</ele></trkpt>
      <trkpt lat="46.400143" lon="12.070746"><ele>2113</ele></trkpt>
      <trkpt lat="46.400213" lon="12.070709"><ele>2116</ele></trkpt>
      <trkpt lat="46.400279" lon="12.070712"><ele>2116</ele></trkpt>
      <trkpt lat="46.400292" lon="12.070676"><ele>2119</ele></trkpt>
      <trkpt lat="46.400213" lon="12.070622"><ele>2122</ele></trkpt>
      <trkpt lat="46.400171" lon="12.070552"><ele>2127</ele></trkpt>
      <trkpt lat="46.400118" lon="12.07054"><ele>2126</ele></trkpt>
      <trkpt lat="46.400043" lon="12.070489"><ele>2126</ele></trkpt>
      <trkpt lat="46.39996" lon="12.07029"><ele>2128</ele></trkpt>
      <trkpt lat="46.399929" lon="12.070073"><ele>2134</ele></trkpt>
      <trkpt lat="46.399835" lon="12.070007"><ele>2130</ele></trkpt>
      <trkpt lat="46.399753" lon="12.069928"><ele>2129</ele></trkpt>
      <trkpt lat="46.39962" lon="12.069592"><ele>2134</ele></trkpt>
      <trkpt lat="46.399648" lon="12.069331"><ele>2139</ele></trkpt>
      <trkpt lat="46.399584" lon="12.069206"><ele>2137</ele></trkpt>
      <trkpt lat="46.399558" lon="12.069136"><ele>2136</ele></trkpt>
      <trkpt lat="46.399504" lon="12.069062"><ele>2134</ele></trkpt>
      <trkpt lat="46.399434" lon="12.06901"><ele>2132</ele></trkpt>
      <trkpt lat="46.399376" lon="12.068975"><ele>2126</ele></trkpt>
      <trkpt lat="46.399257" lon="12.068902"><ele>2126</ele></trkpt>
      <trkpt lat="46.39933" lon="12.068701"><ele>2132</ele></trkpt>
      <trkpt lat="46.399315" lon="12.068497"><ele>2132</ele></trkpt>
      <trkpt lat="46.39932" lon="12.068376"><ele>2132</ele></trkpt>
      <trkpt lat="46.399305" lon="12.06826"><ele>2133</ele></trkpt>
      <trkpt lat="46.399268" lon="12.068078"><ele>2134</ele></trkpt>
      <trkpt lat="46.399275" lon="12.067798"><ele>2139</ele></trkpt>
      <trkpt lat="46.3993" lon="12.067532"><ele>2143</ele></trkpt>
      <trkpt lat="46.399304" lon="12.067313"><ele>2145</ele></trkpt>
      <trkpt lat="46.399287" lon="12.067092"><ele>2148</ele></trkpt>
      <trkpt lat="46.399353" lon="12.06703"><ele>2150</ele></trkpt>
      <trkpt lat="46.399324" lon="12.066856"><ele>2150</ele></trkpt>
      <trkpt lat="46.399468" lon="12.066473"><ele>2150</ele></trkpt>
      <trkpt lat="46.399602" lon="12.06635"><ele>2152</ele></trkpt>
      <trkpt lat="46.399628" lon="12.066286"><ele>2152</ele></trkpt>
      <trkpt lat="46.399614" lon="12.066195"><ele>2151</ele></trkpt>
      <trkpt lat="46.399587" lon="12.066077"><ele>2151</ele></trkpt>
      <trkpt lat="46.399527" lon="12.06598"><ele>2152</ele></trkpt>
      <trkpt lat="46.399437" lon="12.065917"><ele>2153</ele></trkpt>
      <trkpt lat="46.399375" lon="12.065834"><ele>2156</ele></trkpt>
      <trkpt lat="46.399338" lon="12.065686"><ele>2164</ele></trkpt>
      <trkpt lat="46.399362" lon="12.065516"><ele>2171</ele></trkpt>
      <trkpt lat="46.399349" lon="12.065452"><ele>2175</ele></trkpt>
      <trkpt lat="46.399397" lon="12.065304"><ele>2179</ele></trkpt>
      <trkpt lat="46.39955" lon="12.064999"><ele>2187</ele></trkpt>
      <trkpt lat="46.399566" lon="12.064885"><ele>2189</ele></trkpt>
      <trkpt lat="46.399542" lon="12.064699"><ele>2191</ele></trkpt>
      <trkpt lat="46.399552" lon="12.064568"><ele>2192</ele></trkpt>
      <trkpt lat="46.399533" lon="12.064418"><ele>2193</ele></trkpt>
      <trkpt lat="46.399487" lon="12.064344"><ele>2190</ele></trkpt>
      <trkpt lat="46.3995" lon="12.064251"><ele>2189</ele></trkpt>
      <trkpt lat="46.39947" lon="12.064165"><ele>2187</ele></trkpt>
      <trkpt lat="46.399466" lon="12.06398"><ele>2182</ele></trkpt>
      <trkpt lat="46.399527" lon="12.06391"><ele>2181</ele></trkpt>
      <trkpt lat="46.399509" lon="12.063764"><ele>2177</ele></trkpt>
      <trkpt lat="46.399527" lon="12.0636"><ele>2174</ele></trkpt>
      <trkpt lat="46.399474" lon="12.063389"><ele>2170</ele></trkpt>
      <trkpt lat="46.399403" lon="12.06323"><ele>2167</ele></trkpt>
      <trkpt lat="46.39938" lon="12.063071"><ele>2164</ele></trkpt>
      <trkpt lat="46.399402" lon="12.062946"><ele>2162</ele></trkpt>
      <trkpt lat="46.399554" lon="12.062629"><ele>2156</ele></trkpt>
      <trkpt lat="46.399673" lon="12.062498"><ele>2152</ele></trkpt>
      <trkpt lat="46.399781" lon="12.062385"><ele>2151</ele></trkpt>
      <trkpt lat="46.399742" lon="12.062172"><ele>2148</ele></trkpt>
      <trkpt lat="46.399752" lon="12.061898"><ele>2145</ele></trkpt>
      <trkpt lat="46.399723" lon="12.06174"><ele>2143</ele></trkpt>
      <trkpt lat="46.399699" lon="12.061449"><ele>2142</ele></trkpt>
      <trkpt lat="46.399563" lon="12.061207"><ele>2143</ele></trkpt>
      <trkpt lat="46.39939" lon="12.06092"><ele>2144</ele></trkpt>
      <trkpt lat="46.399262" lon="12.060613"><ele>2146</ele></trkpt>
      <trkpt lat="46.39939" lon="12.06092"><ele>2144</ele></trkpt>
      <trkpt lat="46.399563" lon="12.061207"><ele>2143</ele></trkpt>
      <trkpt lat="46.399699" lon="12.061449"><ele>2142</ele></trkpt>
      <trkpt lat="46.399723" lon="12.06174"><ele>2143</ele></trkpt>
      <trkpt lat="46.399752" lon="12.061898"><ele>2145</ele></trkpt>
      <trkpt lat="46.399742" lon="12.062172"><ele>2148</ele></trkpt>
      <trkpt lat="46.399781" lon="12.062385"><ele>2151</ele></trkpt>
      <trkpt lat="46.399673" lon="12.062498"><ele>2152</ele></trkpt>
      <trkpt lat="46.399554" lon="12.062629"><ele>2156</ele></trkpt>
      <trkpt lat="46.399627" lon="12.062822"><ele>2160</ele></trkpt>
      <trkpt lat="46.399663" lon="12.062984"><ele>2165</ele></trkpt>
      <trkpt lat="46.399602" lon="12.063042"><ele>2166</ele></trkpt>
      <trkpt lat="46.399522" lon="12.063172"><ele>2168</ele></trkpt>
      <trkpt lat="46.399534" lon="12.063215"><ele>2169</ele></trkpt>
      <trkpt lat="46.399575" lon="12.063244"><ele>2170</ele></trkpt>
      <trkpt lat="46.399718" lon="12.063299"><ele>2175</ele></trkpt>
      <trkpt lat="46.399825" lon="12.063304"><ele>2178</ele></trkpt>
      <trkpt lat="46.39993" lon="12.063405"><ele>2183</ele></trkpt>
      <trkpt lat="46.400013" lon="12.063459"><ele>2188</ele></trkpt>
      <trkpt lat="46.40008" lon="12.063553"><ele>2194</ele></trkpt>
      <trkpt lat="46.400177" lon="12.063538"><ele>2200</ele></trkpt>
      <trkpt lat="46.400253" lon="12.063588"><ele>2206</ele></trkpt>
      <trkpt lat="46.40021" lon="12.063794"><ele>2208</ele></trkpt>
      <trkpt lat="46.400276" lon="12.063965"><ele>2216</ele></trkpt>
      <trkpt lat="46.400332" lon="12.06405"><ele>2222</ele></trkpt>
      <trkpt lat="46.400398" lon="12.064133"><ele>2228</ele></trkpt>
      <trkpt lat="46.400425" lon="12.064183"><ele>2230</ele></trkpt>
      <trkpt lat="46.400414" lon="12.064286"><ele>2231</ele></trkpt>
      <trkpt lat="46.400391" lon="12.064367"><ele>2232</ele></trkpt>
      <trkpt lat="46.40042" lon="12.064387"><ele>2233</ele></trkpt>
      <trkpt lat="46.400471" lon="12.064401"><ele>2236</ele></trkpt>
      <trkpt lat="46.400497" lon="12.064477"><ele>2238</ele></trkpt>
      <trkpt lat="46.400524" lon="12.064521"><ele>2240</ele></trkpt>
      <trkpt lat="46.40058" lon="12.064576"><ele>2243</ele></trkpt>
      <trkpt lat="46.400633" lon="12.064666"><ele>2246</ele></trkpt>
      <trkpt lat="46.400735" lon="12.064764"><ele>2251</ele></trkpt>
      <trkpt lat="46.400828" lon="12.064879"><ele>2253</ele></trkpt>
      <trkpt lat="46.400875" lon="12.064926"><ele>2254</ele></trkpt>
      <trkpt lat="46.400963" lon="12.065039"><ele>2254</ele></trkpt>
      <trkpt lat="46.401047" lon="12.065059"><ele>2256</ele></trkpt>
      <trkpt lat="46.401175" lon="12.065103"><ele>2259</ele></trkpt>
      <trkpt lat="46.401291" lon="12.065229"><ele>2260</ele></trkpt>
      <trkpt lat="46.401346" lon="12.065254"><ele>2262</ele></trkpt>
      <trkpt lat="46.401386" lon="12.06527"><ele>2264</ele></trkpt>
      <trkpt lat="46.401413" lon="12.065247"><ele>2266</ele></trkpt>
      <trkpt lat="46.401469" lon="12.065228"><ele>2270</ele></trkpt>
      <trkpt lat="46.401508" lon="12.065268"><ele>2270</ele></trkpt>
      <trkpt lat="46.401603" lon="12.065327"><ele>2273</ele></trkpt>
      <trkpt lat="46.401633" lon="12.065519"><ele>2271</ele></trkpt>
      <trkpt lat="46.40166" lon="12.065582"><ele>2272</ele></trkpt>
      <trkpt lat="46.401688" lon="12.06561"><ele>2273</ele></trkpt>
      <trkpt lat="46.401709" lon="12.065631"><ele>2274</ele></trkpt>
      <trkpt lat="46.401848" lon="12.065679"><ele>2279</ele></trkpt>
      <trkpt lat="46.402004" lon="12.065796"><ele>2283</ele></trkpt>
      <trkpt lat="46.402043" lon="12.065838"><ele>2284</ele></trkpt>
      <trkpt lat="46.402132" lon="12.065879"><ele>2286</ele></trkpt>
      <trkpt lat="46.402178" lon="12.065789"><ele>2290</ele></trkpt>
      <trkpt lat="46.402142" lon="12.065675"><ele>2292</ele></trkpt>
      <trkpt lat="46.402097" lon="12.065453"><ele>2296</ele></trkpt>
      <trkpt lat="46.402043" lon="12.06523"><ele>2301</ele></trkpt>
      <trkpt lat="46.402063" lon="12.065215"><ele>2302</ele></trkpt>
      <trkpt lat="46.40214" lon="12.065225"><ele>2305</ele></trkpt>
      <trkpt lat="46.402237" lon="12.065265"><ele>2307</ele></trkpt>
      <trkpt lat="46.402283" lon="12.065252"><ele>2306</ele></trkpt>
      <trkpt lat="46.402237" lon="12.065171"><ele>2311</ele></trkpt>
      <trkpt lat="46.402226" lon="12.064993"><ele>2319</ele></trkpt>
      <trkpt lat="46.402323" lon="12.064969"><ele>2319</ele></trkpt>
      <trkpt lat="46.402331" lon="12.064898"><ele>2322</ele></trkpt>
      <trkpt lat="46.402301" lon="12.064833"><ele>2326</ele></trkpt>
      <trkpt lat="46.402365" lon="12.06476"><ele>2328</ele></trkpt>
      <trkpt lat="46.402272" lon="12.06464"><ele>2338</ele></trkpt>
      <trkpt lat="46.402184" lon="12.064486"><ele>2346</ele></trkpt>
      <trkpt lat="46.402129" lon="12.06448"><ele>2344</ele></trkpt>
      <trkpt lat="46.402186" lon="12.064425"><ele>2351</ele></trkpt>
      <trkpt lat="46.402248" lon="12.064363"><ele>2359</ele></trkpt>
      <trkpt lat="46.402369" lon="12.064318"><ele>2362</ele></trkpt>
      <trkpt lat="46.402424" lon="12.064286"><ele>2365</ele></trkpt>
      <trkpt lat="46.402464" lon="12.064244"><ele>2368</ele></trkpt>
      <trkpt lat="46.402439" lon="12.064176"><ele>2375</ele></trkpt>
      <trkpt lat="46.402491" lon="12.064122"><ele>2378</ele></trkpt>
      <trkpt lat="46.402512" lon="12.064084"><ele>2380</ele></trkpt>
      <trkpt lat="46.402582" lon="12.064038"><ele>2379</ele></trkpt>
      <trkpt lat="46.402624" lon="12.063973"><ele>2383</ele></trkpt>
    </trkseg>
  </trk>
</gpx>
