<?xml version="1.0" encoding="UTF-8"?>
<gpx version="1.1" creator="hike-trip" xmlns="http://www.topografix.com/GPX/1/1">
  <metadata>
    <name>Monte Cernera via Passo Giau</name>
    <desc>Routed with BRouter (hiking-mountain) over OpenStreetMap data through hand-verified anchor points. Schematic in places — verify against signage on the ground. Track traces one direction — return the same way.</desc>
    <copyright author="OpenStreetMap contributors"><license>https://www.openstreetmap.org/copyright</license></copyright>
    <bounds minlat="46.46822" minlon="12.052957" maxlat="46.482522" maxlon="12.060689"/>
  </metadata>
  <wpt lat="46.4825" lon="12.0535"><name>Trailhead — Monte Cernera via Passo Giau</name><sym>Trail Head</sym></wpt>
  <wpt lat="46.4681" lon="12.058"><ele>2664</ele><name>Monte Cernera</name><sym>Summit</sym></wpt>
  <trk>
    <name>Monte Cernera via Passo Giau (No. 436)</name>
    <type>hiking</type>
    <trkseg>
      <trkpt lat="46.48252" lon="12.0535"><ele>2236</ele></trkpt>
      <trkpt lat="46.48252" lon="12.053666"><ele>2237</ele></trkpt>
      <trkpt lat="46.482522" lon="12.053772"><ele>2237</ele></trkpt>
      <trkpt lat="46.482422" lon="12.054072"><ele>2236</ele></trkpt>
      <trkpt lat="46.482123" lon="12.054758"><ele>2235</ele></trkpt>
      <trkpt lat="46.482051" lon="12.054896"><ele>2234</ele></trkpt>
      <trkpt lat="46.481962" lon="12.054992"><ele>2235</ele></trkpt>
      <trkpt lat="46.481772" lon="12.055133"><ele>2235</ele></trkpt>
      <trkpt lat="46.481704" lon="12.055226"><ele>2234</ele></trkpt>
      <trkpt lat="46.481265" lon="12.056087"><ele>2234</ele></trkpt>
      <trkpt lat="46.481094" lon="12.056559"><ele>2233</ele></trkpt>
      <trkpt lat="46.481017" lon="12.05665"><ele>2232</ele></trkpt>
      <trkpt lat="46.480939" lon="12.05672"><ele>2232</ele></trkpt>
      <trkpt lat="46.480854" lon="12.056761"><ele>2232</ele></trkpt>
      <trkpt lat="46.480792" lon="12.056776"><ele>2233</ele></trkpt>
      <trkpt lat="46.480739" lon="12.056818"><ele>2233</ele></trkpt>
      <trkpt lat="46.480701" lon="12.056893"><ele>2232</ele></trkpt>
      <trkpt lat="46.480657" lon="12.056934"><ele>2231</ele></trkpt>
      <trkpt lat="46.48059" lon="12.056992"><ele>2231</ele></trkpt>
      <trkpt lat="46.480467" lon="12.057079"><ele>2231</ele></trkpt>
      <trkpt lat="46.480417" lon="12.057098"><ele>2232</ele></trkpt>
      <trkpt lat="46.480388" lon="12.057137"><ele>2232</ele></trkpt>
      <trkpt lat="46.480376" lon="12.057279"><ele>2232</ele></trkpt>
      <trkpt lat="46.480417" lon="12.057386"><ele>2230</ele></trkpt>
      <trkpt lat="46.480417" lon="12.057445"><ele>2230</ele></trkpt>
      <trkpt lat="46.480357" lon="12.057735"><ele>2230</ele></trkpt>
      <trkpt lat="46.480337" lon="12.057907"><ele>2228</ele></trkpt>
      <trkpt lat="46.480348" lon="12.057971"><ele>2227</ele></trkpt>
      <trkpt lat="46.480334" lon="12.058039"><ele>2226</ele></trkpt>
      <trkpt lat="46.480222" lon="12.058366"><ele>2225</ele></trkpt>
      <trkpt lat="46.480198" lon="12.058648"><ele>2225</ele></trkpt>
      <trkpt lat="46.480186" lon="12.058745"><ele>2224</ele></trkpt>
      <trkpt lat="46.480143" lon="12.058848"><ele>2223</ele></trkpt>
      <trkpt lat="46.480071" lon="12.058963"><ele>2224</ele></trkpt>
      <trkpt lat="46.480048" lon="12.059081"><ele>2223</ele></trkpt>
      <trkpt lat="46.480003" lon="12.059229"><ele>2223</ele></trkpt>
      <trkpt lat="46.479915" lon="12.059462"><ele>2224</ele></trkpt>
      <trkpt lat="46.47986" lon="12.059529"><ele>2225</ele></trkpt>
      <trkpt lat="46.47981" lon="12.059604"><ele>2226</ele></trkpt>
      <trkpt lat="46.479767" lon="12.059643"><ele>2226</ele></trkpt>
      <trkpt lat="46.479714" lon="12.059661"><ele>2226</ele></trkpt>
      <trkpt lat="46.479619" lon="12.059672"><ele>2224</ele></trkpt>
      <trkpt lat="46.47954" lon="12.059724"><ele>2221</ele></trkpt>
      <trkpt lat="46.479373" lon="12.059901"><ele>2219</ele></trkpt>
      <trkpt lat="46.479011" lon="12.059693"><ele>2203</ele></trkpt>
      <trkpt lat="46.478924" lon="12.05944"><ele>2195</ele></trkpt>
      <trkpt lat="46.478907" lon="12.059162"><ele>2189</ele></trkpt>
      <trkpt lat="46.478875" lon="12.059"><ele>2185</ele></trkpt>
      <trkpt lat="46.478788" lon="12.058852"><ele>2183</ele></trkpt>
      <trkpt lat="46.478718" lon="12.058834"><ele>2182</ele></trkpt>
      <trkpt lat="46.47865" lon="12.058851"><ele>2181</ele></trkpt>
      <trkpt lat="46.478586" lon="12.058901"><ele>2180</ele></trkpt>
      <trkpt lat="46.478562" lon="12.058964"><ele>2179</ele></trkpt>
      <trkpt lat="46.478527" lon="12.059211"><ele>2179</ele></trkpt>
      <trkpt lat="46.478401" lon="12.059677"><ele>2177</ele></trkpt>
      <trkpt lat="46.478231" lon="12.059913"><ele>2173</ele></trkpt>
      <trkpt lat="46.477913" lon="12.060034"><ele>2162</ele></trkpt>
      <trkpt lat="46.477853" lon="12.06014"><ele>2164</ele></trkpt>
      <trkpt lat="46.477389" lon="12.060074"><ele>2149</ele></trkpt>
      <trkpt lat="46.477123" lon="12.059913"><ele>2142</ele></trkpt>
      <trkpt lat="46.476994" lon="12.059683"><ele>2135</ele></trkpt>
      <trkpt lat="46.476909" lon="12.059379"><ele>2129</ele></trkpt>
      <trkpt lat="46.476919" lon="12.059043"><ele>2124</ele></trkpt>
      <trkpt lat="46.477051" lon="12.058705"><ele>2117</ele></trkpt>
      <trkpt lat="46.477253" lon="12.058034"><ele>2105</ele></trkpt>
      <trkpt lat="46.477301" lon="12.05779"><ele>2101</ele></trkpt>
      <trkpt lat="46.477374" lon="12.057104"><ele>2090</ele></trkpt>
      <trkpt lat="46.477434" lon="12.056825"><ele>2085</ele></trkpt>
      <trkpt lat="46.477373" lon="12.056271"><ele>2079</ele></trkpt>
      <trkpt lat="46.477366" lon="12.056066"><ele>2078</ele></trkpt>
      <trkpt lat="46.477428" lon="12.055867"><ele>2076</ele></trkpt>
      <trkpt lat="46.477546" lon="12.055582"><ele>2073</ele></trkpt>
      <trkpt lat="46.477575" lon="12.055095"><ele>2066</ele></trkpt>
      <trkpt lat="46.477554" lon="12.054442"><ele>2055</ele></trkpt>
      <trkpt lat="46.477575" lon="12.055095"><ele>2066</ele></trkpt>
      <trkpt lat="46.477546" lon="12.055582"><ele>2073</ele></trkpt>
      <trkpt lat="46.477428" lon="12.055867"><ele>2076</ele></trkpt>
      <trkpt lat="46.477366" lon="12.056066"><ele>2078</ele></trkpt>
      <trkpt lat="46.477373" lon="12.056271"><ele>2079</ele></trkpt>
      <trkpt lat="46.477434" lon="12.056825"><ele>2085</ele></trkpt>
      <trkpt lat="46.477374" lon="12.057104"><ele>2090</ele></trkpt>
      <trkpt lat="46.477301" lon="12.05779"><ele>2101</ele></trkpt>
      <trkpt lat="46.477253" lon="12.058034"><ele>2105</ele></trkpt>
      <trkpt lat="46.477051" lon="12.058705"><ele>2117</ele></trkpt>
      <trkpt lat="46.476762" lon="12.058964"><ele>2127</ele></trkpt>
      <trkpt lat="46.476482" lon="12.059472"><ele>2144</ele></trkpt>
      <trkpt lat="46.476404" lon="12.059767"><ele>2154</ele></trkpt>
      <trkpt lat="46.476369" lon="12.060291"><ele>2176</ele></trkpt>
      <trkpt lat="46.476265" lon="12.060689"><ele>2195</ele></trkpt>
      <trkpt lat="46.476229" lon="12.060617"><ele>2194</ele></trkpt>
      <trkpt lat="46.475815" lon="12.060461"><ele>2210</ele></trkpt>
      <trkpt lat="46.475547" lon="12.060309"><ele>2219</ele></trkpt>
      <trkpt lat="46.475416" lon="12.06018"><ele>2220</ele></trkpt>
      <trkpt lat="46.475285" lon="12.060005"><ele>2219</ele></trkpt>
      <trkpt lat="46.475178" lon="12.059836"><ele>2215</ele></trkpt>
      <trkpt lat="46.475039" lon="12.059635"><ele>2213</ele></trkpt>
      <trkpt lat="46.475003" lon="12.059343"><ele>2210</ele></trkpt>
      <trkpt lat="46.474956" lon="12.05915"><ele>2212</ele></trkpt>
      <trkpt lat="46.474773" lon="12.058654"><ele>2217</ele></trkpt>
      <trkpt lat="46.474733" lon="12.058394"><ele>2216</ele></trkpt>
      <trkpt lat="46.474687" lon="12.058259"><ele>2216</ele></trkpt>
      <trkpt lat="46.474624" lon="12.058039"><ele>2215</ele></trkpt>
      <trkpt lat="46.474487" lon="12.057675"><ele>2219</ele></trkpt>
      <trkpt lat="46.474142" lon="12.057348"><ele>2228</ele></trkpt>
      <trkpt lat="46.474051" lon="12.057233"><ele>2233</ele></trkpt>
      <trkpt lat="46.473837" lon="12.056961"><ele>2233</ele></trkpt>
      <trkpt lat="46.47366" lon="12.056438"><ele>2234</ele></trkpt>
      <trkpt lat="46.473486" lon="12.056092"><ele>2240</ele></trkpt>
      <trkpt lat="46.473401" lon="12.055939"><ele>2242</ele></trkpt>
      <trkpt lat="46.473226" lon="12.055674"><ele>2245</ele></trkpt>
      <trkpt lat="46.473055" lon="12.055548"><ele>2247</ele></trkpt>
      <trkpt lat="46.472863" lon="12.05544"><ele>2251</ele></trkpt>
      <trkpt lat="46.472555" lon="12.055363"><ele>2261</ele></trkpt>
      <trkpt lat="46.472298" lon="12.055277"><ele>2270</ele></trkpt>
      <trkpt lat="46.471979" lon="12.055122"><ele>2279</ele></trkpt>
      <trkpt lat="46.471936" lon="12.055102"><ele>2279</ele></trkpt>
      <trkpt lat="46.471762" lon="12.055009"><ele>2284</ele></trkpt>
      <trkpt lat="46.471648" lon="12.054791"><ele>2285</ele></trkpt>
      <trkpt lat="46.471583" lon="12.054638"><ele>2290</ele></trkpt>
      <trkpt lat="46.471534" lon="12.054486"><ele>2294</ele></trkpt>
      <trkpt lat="46.471506" lon="12.054358"><ele>2297</ele></trkpt>
      <trkpt lat="46.47151" lon="12.05387"><ele>2299</ele></trkpt>
      <trkpt lat="46.471506" lon="12.053737"><ele>2303</ele></trkpt>
      <trkpt lat="46.471564" lon="12.053598"><ele>2299</ele></trkpt>
      <trkpt lat="46.47155" lon="12.053201"><ele>2308</ele></trkpt>
      <trkpt lat="46.471407" lon="12.052957"><ele>2309</ele></trkpt>
      <trkpt lat="46.471352" lon="12.053098"><ele>2317</ele></trkpt>
      <trkpt lat="46.471342" lon="12.053114"><ele>2318</ele></trkpt>
      <trkpt lat="46.471255" lon="12.053161"><ele>2324</ele></trkpt>
      <trkpt lat="46.471249" lon="12.053206"><ele>2327</ele></trkpt>
      <trkpt lat="46.471371" lon="12.053445"><ele>2323</ele></trkpt>
      <trkpt lat="46.471241" lon="12.053517"><ele>2334</ele></trkpt>
      <trkpt lat="46.471123" lon="12.053523"><ele>2346</ele></trkpt>
      <trkpt lat="46.470958" lon="12.053499"><ele>2353</ele></trkpt>
      <trkpt lat="46.470874" lon="12.05363"><ele>2363</ele></trkpt>
      <trkpt lat="46.470634" lon="12.053756"><ele>2374</ele></trkpt>
      <trkpt lat="46.470534" lon="12.053971"><ele>2387</ele></trkpt>
      <trkpt lat="46.470447" lon="12.054056"><ele>2392</ele></trkpt>
      <trkpt lat="46.470266" lon="12.054258"><ele>2405</ele></trkpt>
      <trkpt lat="46.470096" lon="12.054335"><ele>2413</ele></trkpt>
      <trkpt lat="46.469978" lon="12.054432"><ele>2419</ele></trkpt>
      <trkpt lat="46.469784" lon="12.05452"><ele>2427</ele></trkpt>
      <trkpt lat="46.469702" lon="12.054689"><ele>2435</ele></trkpt>
      <trkpt lat="46.469566" lon="12.054748"><ele>2440</ele></trkpt>
      <trkpt lat="46.469477" lon="12.054858"><ele>2447</ele></trkpt>
      <trkpt lat="46.469254" lon="12.054952"><ele>2456</ele></trkpt>
      <trkpt lat="46.469097" lon="12.054987"><ele>2463</ele></trkpt>
      <trkpt lat="46.469052" lon="12.055095"><ele>2472</ele></trkpt>
      <trkpt lat="46.469047" lon="12.055154"><ele>2475</ele></trkpt>
      <trkpt lat="46.46901" lon="12.055211"><ele>2480</ele></trkpt>
      <trkpt lat="46.468945" lon="12.055207"><ele>2483</ele></trkpt>
      <trkpt lat="46.468892" lon="12.055192"><ele>2485</ele></trkpt>
      <trkpt lat="46.468831" lon="12.055133"><ele>2485</ele></trkpt>
      <trkpt lat="46.468687" lon="12.05511"><ele>2491</ele></trkpt>
      <trkpt lat="46.468605" lon="12.055164"><ele>2500</ele></trkpt>
      <trkpt lat="46.468502" lon="12.055204"><ele>2503</ele></trkpt>
      <trkpt lat="46.468509" lon="12.055365"><ele>2511</ele></trkpt>
      <trkpt lat="46.468476" lon="12.055572"><ele>2518</ele></trkpt>
      <trkpt lat="46.468537" lon="12.055713"><ele>2526</ele></trkpt>
      <trkpt lat="46.468539" lon="12.055832"><ele>2531</ele></trkpt>
      <trkpt lat="46.46856" lon="12.055913"><ele>2535</ele></trkpt>
      <trkpt lat="46.468651" lon="12.056012"><ele>2541</ele></trkpt>
      <trkpt lat="46.468703" lon="12.056124"><ele>2546</ele></trkpt>
      <trkpt lat="46.468796" lon="12.056234"><ele>2553</ele></trkpt>
      <trkpt lat="46.468858" lon="12.056358"><ele>2560</ele></trkpt>
      <trkpt lat="46.468923" lon="12.056462"><ele>2565</ele></trkpt>
      <trkpt lat="46.468896" lon="12.05654"><ele>2569</ele></trkpt>
      <trkpt lat="46.468857" lon="12.056594"><ele>2572</ele></trkpt>
      <trkpt lat="46.468785" lon="12.056626"><ele>2573</ele></trkpt>
      <trkpt lat="46.468715" lon="12.056696"><ele>2576</ele></trkpt>
      <trkpt lat="46.468681" lon="12.05679"><ele>2581</ele></trkpt>
      <trkpt lat="46.46872" lon="12.056916"><ele>2587</ele></trkpt>
      <trkpt lat="46.468779" lon="12.057023"><ele>2593</ele></trkpt>
      <trkpt lat="46.468849" lon="12.057103"><ele>2597</ele></trkpt>
      <trkpt lat="46.468921" lon="12.057283"><ele>2605</ele></trkpt>
      <trkpt lat="46.468881" lon="12.057447"><ele>2610</ele></trkpt>
      <trkpt lat="46.468914" lon="12.057621"><ele>2615</ele></trkpt>
      <trkpt lat="46.468854" lon="12.057694"><ele>2619</ele></trkpt>
      <trkpt lat="46.468703" lon="12.057755"><ele>2623</ele></trkpt>
      <trkpt lat="46.46859" lon="12.05779"><ele>2626</ele></trkpt>
      <trkpt lat="46.468515" lon="12.057895"><ele>2631</ele></trkpt>
      <trkpt lat="46.46844" lon="12.058016"><ele>2637</ele></trkpt>
      <trkpt lat="46.468421" lon="12.058091"><ele>2641</ele></trkpt>
      <trkpt lat="46.468384" lon="12.058158"><ele>2644</ele></trkpt>
      <trkpt lat="46.468249" lon="12.058189"><ele>2649</ele></trkpt>
      <trkpt lat="46.46822" lon="12.058221"><ele>2653</ele></trkpt>
    </trkseg>
  </trk>
</gpx>
