<?xml version="1.0" encoding="UTF-8"?>
<gpx version="1.1" creator="hike-trip" xmlns="http://www.topografix.com/GPX/1/1">
  <metadata>
    <name>Panascharte (Forcella Pana)</name>
    <desc>Routed with BRouter (hiking-mountain) over OpenStreetMap data through hand-verified anchor points. Schematic in places — verify against signage on the ground.</desc>
    <copyright author="OpenStreetMap contributors"><license>https://www.openstreetmap.org/copyright</license></copyright>
    <bounds minlat="46.589452" minlon="11.650417" maxlat="46.606162" maxlon="11.685714"/>
  </metadata>
  <wpt lat="46.5899" lon="11.6852"><name>Trailhead — Panascharte (Forcella Pana)</name><sym>Trail Head</sym></wpt>
  <wpt lat="46.6033" lon="11.6586"><ele>2447</ele><name>Forcella Pana</name><sym>Summit</sym></wpt>
  <trk>
    <name>Panascharte (Forcella Pana) (No. 35 / 1)</name>
    <type>hiking</type>
    <trkseg>
      <trkpt lat="46.591049" lon="11.685714"><ele>1779</ele></trkpt>
      <trkpt lat="46.591246" lon="11.685125"><ele>1776</ele></trkpt>
      <trkpt lat="46.591436" lon="11.684645"><ele>1773</ele></trkpt>
      <trkpt lat="46.591455" lon="11.68456"><ele>1773</ele></trkpt>
      <trkpt lat="46.591442" lon="11.684468"><ele>1771</ele></trkpt>
      <trkpt lat="46.5914" lon="11.684411"><ele>1770</ele></trkpt>
      <trkpt lat="46.591051" lon="11.684103"><ele>1775</ele></trkpt>
      <trkpt lat="46.590985" lon="11.684"><ele>1774</ele></trkpt>
      <trkpt lat="46.59092" lon="11.683786"><ele>1774</ele></trkpt>
      <trkpt lat="46.590917" lon="11.683649"><ele>1774</ele></trkpt>
      <trkpt lat="46.590933" lon="11.683465"><ele>1775</ele></trkpt>
      <trkpt lat="46.590939" lon="11.683102"><ele>1776</ele></trkpt>
      <trkpt lat="46.590906" lon="11.682518"><ele>1776</ele></trkpt>
      <trkpt lat="46.590877" lon="11.681348"><ele>1776</ele></trkpt>
      <trkpt lat="46.590884" lon="11.680798"><ele>1776</ele></trkpt>
      <trkpt lat="46.590808" lon="11.680084"><ele>1773</ele></trkpt>
      <trkpt lat="46.590757" lon="11.679751"><ele>1771</ele></trkpt>
      <trkpt lat="46.590678" lon="11.679395"><ele>1769</ele></trkpt>
      <trkpt lat="46.590649" lon="11.679098"><ele>1767</ele></trkpt>
      <trkpt lat="46.590681" lon="11.678016"><ele>1763</ele></trkpt>
      <trkpt lat="46.590629" lon="11.677407"><ele>1756</ele></trkpt>
      <trkpt lat="46.590574" lon="11.677202"><ele>1754</ele></trkpt>
      <trkpt lat="46.590489" lon="11.677048"><ele>1755</ele></trkpt>
      <trkpt lat="46.590251" lon="11.676708"><ele>1758</ele></trkpt>
      <trkpt lat="46.590218" lon="11.676697"><ele>1757</ele></trkpt>
      <trkpt lat="46.590109" lon="11.676713"><ele>1754</ele></trkpt>
      <trkpt lat="46.589978" lon="11.676683"><ele>1751</ele></trkpt>
      <trkpt lat="46.589839" lon="11.676577"><ele>1747</ele></trkpt>
      <trkpt lat="46.589797" lon="11.676428"><ele>1749</ele></trkpt>
      <trkpt lat="46.589773" lon="11.676386"><ele>1749</ele></trkpt>
      <trkpt lat="46.589561" lon="11.676224"><ele>1753</ele></trkpt>
      <trkpt lat="46.589516" lon="11.676161"><ele>1755</ele></trkpt>
      <trkpt lat="46.589473" lon="11.676065"><ele>1756</ele></trkpt>
      <trkpt lat="46.589465" lon="11.676004"><ele>1756</ele></trkpt>
      <trkpt lat="46.589467" lon="11.675878"><ele>1757</ele></trkpt>
      <trkpt lat="46.589452" lon="11.67581"><ele>1757</ele></trkpt>
      <trkpt lat="46.589478" lon="11.6758"><ele>1758</ele></trkpt>
      <trkpt lat="46.589499" lon="11.675769"><ele>1759</ele></trkpt>
      <trkpt lat="46.589509" lon="11.675695"><ele>1760</ele></trkpt>
      <trkpt lat="46.589507" lon="11.675618"><ele>1760</ele></trkpt>
      <trkpt lat="46.589515" lon="11.675553"><ele>1761</ele></trkpt>
      <trkpt lat="46.589682" lon="11.674888"><ele>1768</ele></trkpt>
      <trkpt lat="46.589731" lon="11.674734"><ele>1770</ele></trkpt>
      <trkpt lat="46.589797" lon="11.674658"><ele>1772</ele></trkpt>
      <trkpt lat="46.589903" lon="11.67451"><ele>1774</ele></trkpt>
      <trkpt lat="46.590108" lon="11.674295"><ele>1778</ele></trkpt>
      <trkpt lat="46.590359" lon="11.674106"><ele>1783</ele></trkpt>
      <trkpt lat="46.590629" lon="11.673894"><ele>1788</ele></trkpt>
      <trkpt lat="46.590719" lon="11.673866"><ele>1791</ele></trkpt>
      <trkpt lat="46.590811" lon="11.673762"><ele>1793</ele></trkpt>
      <trkpt lat="46.590847" lon="11.673689"><ele>1794</ele></trkpt>
      <trkpt lat="46.591024" lon="11.673231"><ele>1800</ele></trkpt>
      <trkpt lat="46.591114" lon="11.672889"><ele>1804</ele></trkpt>
      <trkpt lat="46.59113" lon="11.672783"><ele>1805</ele></trkpt>
      <trkpt lat="46.591163" lon="11.672676"><ele>1806</ele></trkpt>
      <trkpt lat="46.591214" lon="11.67256"><ele>1807</ele></trkpt>
      <trkpt lat="46.591272" lon="11.672471"><ele>1809</ele></trkpt>
      <trkpt lat="46.591326" lon="11.672422"><ele>1810</ele></trkpt>
      <trkpt lat="46.591403" lon="11.672399"><ele>1813</ele></trkpt>
      <trkpt lat="46.59147" lon="11.672392"><ele>1814</ele></trkpt>
      <trkpt lat="46.591513" lon="11.672349"><ele>1815</ele></trkpt>
      <trkpt lat="46.591565" lon="11.672221"><ele>1816</ele></trkpt>
      <trkpt lat="46.591654" lon="11.672128"><ele>1818</ele></trkpt>
      <trkpt lat="46.591816" lon="11.672059"><ele>1821</ele></trkpt>
      <trkpt lat="46.591942" lon="11.671984"><ele>1823</ele></trkpt>
      <trkpt lat="46.59203" lon="11.671914"><ele>1826</ele></trkpt>
      <trkpt lat="46.592109" lon="11.671763"><ele>1827</ele></trkpt>
      <trkpt lat="46.59215" lon="11.671663"><ele>1827</ele></trkpt>
      <trkpt lat="46.592196" lon="11.671638"><ele>1829</ele></trkpt>
      <trkpt lat="46.592214" lon="11.671688"><ele>1830</ele></trkpt>
      <trkpt lat="46.5922" lon="11.671844"><ele>1831</ele></trkpt>
      <trkpt lat="46.592199" lon="11.671998"><ele>1832</ele></trkpt>
      <trkpt lat="46.59224" lon="11.672301"><ele>1835</ele></trkpt>
      <trkpt lat="46.592289" lon="11.672525"><ele>1839</ele></trkpt>
      <trkpt lat="46.592436" lon="11.67333"><ele>1849</ele></trkpt>
      <trkpt lat="46.592469" lon="11.673684"><ele>1853</ele></trkpt>
      <trkpt lat="46.592436" lon="11.673896"><ele>1856</ele></trkpt>
      <trkpt lat="46.593287" lon="11.677367"><ele>1900</ele></trkpt>
      <trkpt lat="46.593374" lon="11.677518"><ele>1903</ele></trkpt>
      <trkpt lat="46.593521" lon="11.677609"><ele>1911</ele></trkpt>
      <trkpt lat="46.593571" lon="11.677683"><ele>1913</ele></trkpt>
      <trkpt lat="46.593587" lon="11.677766"><ele>1914</ele></trkpt>
      <trkpt lat="46.593592" lon="11.677911"><ele>1914</ele></trkpt>
      <trkpt lat="46.593574" lon="11.678047"><ele>1913</ele></trkpt>
      <trkpt lat="46.593543" lon="11.678123"><ele>1911</ele></trkpt>
      <trkpt lat="46.593572" lon="11.678294"><ele>1912</ele></trkpt>
      <trkpt lat="46.593787" lon="11.679031"><ele>1920</ele></trkpt>
      <trkpt lat="46.593825" lon="11.679217"><ele>1921</ele></trkpt>
      <trkpt lat="46.59385" lon="11.679374"><ele>1922</ele></trkpt>
      <trkpt lat="46.59387" lon="11.679426"><ele>1923</ele></trkpt>
      <trkpt lat="46.593893" lon="11.679434"><ele>1924</ele></trkpt>
      <trkpt lat="46.593916" lon="11.679412"><ele>1925</ele></trkpt>
      <trkpt lat="46.593932" lon="11.679367"><ele>1926</ele></trkpt>
      <trkpt lat="46.593942" lon="11.679199"><ele>1926</ele></trkpt>
      <trkpt lat="46.593969" lon="11.679022"><ele>1929</ele></trkpt>
      <trkpt lat="46.594077" lon="11.678478"><ele>1935</ele></trkpt>
      <trkpt lat="46.594107" lon="11.678396"><ele>1936</ele></trkpt>
      <trkpt lat="46.594145" lon="11.678347"><ele>1938</ele></trkpt>
      <trkpt lat="46.594236" lon="11.678257"><ele>1943</ele></trkpt>
      <trkpt lat="46.594294" lon="11.678161"><ele>1946</ele></trkpt>
      <trkpt lat="46.594318" lon="11.678006"><ele>1947</ele></trkpt>
      <trkpt lat="46.594317" lon="11.677946"><ele>1947</ele></trkpt>
      <trkpt lat="46.594271" lon="11.677758"><ele>1945</ele></trkpt>
      <trkpt lat="46.594287" lon="11.677691"><ele>1945</ele></trkpt>
      <trkpt lat="46.594445" lon="11.677312"><ele>1950</ele></trkpt>
      <trkpt lat="46.594569" lon="11.677034"><ele>1955</ele></trkpt>
      <trkpt lat="46.594779" lon="11.67642"><ele>1964</ele></trkpt>
      <trkpt lat="46.594989" lon="11.67596"><ele>1970</ele></trkpt>
      <trkpt lat="46.595424" lon="11.675142"><ele>1984</ele></trkpt>
      <trkpt lat="46.59566" lon="11.674365"><ele>1993</ele></trkpt>
      <trkpt lat="46.595872" lon="11.674223"><ele>2001</ele></trkpt>
      <trkpt lat="46.596114" lon="11.673473"><ele>2009</ele></trkpt>
      <trkpt lat="46.596137" lon="11.673205"><ele>2011</ele></trkpt>
      <trkpt lat="46.59618" lon="11.67311"><ele>2013</ele></trkpt>
      <trkpt lat="46.596228" lon="11.673002"><ele>2014</ele></trkpt>
      <trkpt lat="46.596293" lon="11.672893"><ele>2016</ele></trkpt>
      <trkpt lat="46.596421" lon="11.672708"><ele>2019</ele></trkpt>
      <trkpt lat="46.596564" lon="11.672519"><ele>2023</ele></trkpt>
      <trkpt lat="46.596661" lon="11.672296"><ele>2026</ele></trkpt>
      <trkpt lat="46.596867" lon="11.671937"><ele>2033</ele></trkpt>
      <trkpt lat="46.59708" lon="11.671507"><ele>2040</ele></trkpt>
      <trkpt lat="46.59715" lon="11.671324"><ele>2042</ele></trkpt>
      <trkpt lat="46.597236" lon="11.671071"><ele>2046</ele></trkpt>
      <trkpt lat="46.597338" lon="11.670837"><ele>2050</ele></trkpt>
      <trkpt lat="46.597545" lon="11.670325"><ele>2057</ele></trkpt>
      <trkpt lat="46.59769" lon="11.670005"><ele>2063</ele></trkpt>
      <trkpt lat="46.597745" lon="11.669858"><ele>2065</ele></trkpt>
      <trkpt lat="46.598083" lon="11.668724"><ele>2082</ele></trkpt>
      <trkpt lat="46.59816" lon="11.668288"><ele>2088</ele></trkpt>
      <trkpt lat="46.598174" lon="11.668091"><ele>2089</ele></trkpt>
      <trkpt lat="46.598204" lon="11.667909"><ele>2092</ele></trkpt>
      <trkpt lat="46.59826" lon="11.667639"><ele>2096</ele></trkpt>
      <trkpt lat="46.598398" lon="11.66709"><ele>2102</ele></trkpt>
      <trkpt lat="46.598491" lon="11.666793"><ele>2106</ele></trkpt>
      <trkpt lat="46.598716" lon="11.666236"><ele>2115</ele></trkpt>
      <trkpt lat="46.598774" lon="11.666039"><ele>2118</ele></trkpt>
      <trkpt lat="46.598826" lon="11.665804"><ele>2120</ele></trkpt>
      <trkpt lat="46.599029" lon="11.665266"><ele>2130</ele></trkpt>
      <trkpt lat="46.599418" lon="11.664105"><ele>2145</ele></trkpt>
      <trkpt lat="46.599528" lon="11.663798"><ele>2150</ele></trkpt>
      <trkpt lat="46.599654" lon="11.66349"><ele>2155</ele></trkpt>
      <trkpt lat="46.599915" lon="11.662978"><ele>2161</ele></trkpt>
      <trkpt lat="46.600226" lon="11.662279"><ele>2164</ele></trkpt>
      <trkpt lat="46.600393" lon="11.662325"><ele>2167</ele></trkpt>
      <trkpt lat="46.600501" lon="11.662381"><ele>2169</ele></trkpt>
      <trkpt lat="46.600517" lon="11.662192"><ele>2168</ele></trkpt>
      <trkpt lat="46.600723" lon="11.662422"><ele>2174</ele></trkpt>
      <trkpt lat="46.601177" lon="11.662235"><ele>2185</ele></trkpt>
      <trkpt lat="46.601323" lon="11.662298"><ele>2188</ele></trkpt>
      <trkpt lat="46.601443" lon="11.662254"><ele>2191</ele></trkpt>
      <trkpt lat="46.601571" lon="11.662323"><ele>2194</ele></trkpt>
      <trkpt lat="46.601716" lon="11.662297"><ele>2199</ele></trkpt>
      <trkpt lat="46.601802" lon="11.662759"><ele>2201</ele></trkpt>
      <trkpt lat="46.60174" lon="11.663582"><ele>2201</ele></trkpt>
      <trkpt lat="46.601732" lon="11.663877"><ele>2202</ele></trkpt>
      <trkpt lat="46.60173" lon="11.664151"><ele>2202</ele></trkpt>
      <trkpt lat="46.601767" lon="11.664387"><ele>2203</ele></trkpt>
      <trkpt lat="46.601768" lon="11.66445"><ele>2203</ele></trkpt>
      <trkpt lat="46.601755" lon="11.664529"><ele>2203</ele></trkpt>
      <trkpt lat="46.601723" lon="11.664657"><ele>2202</ele></trkpt>
      <trkpt lat="46.60173" lon="11.665043"><ele>2204</ele></trkpt>
      <trkpt lat="46.601726" lon="11.665185"><ele>2204</ele></trkpt>
      <trkpt lat="46.601742" lon="11.665323"><ele>2205</ele></trkpt>
      <trkpt lat="46.601703" lon="11.665601"><ele>2205</ele></trkpt>
      <trkpt lat="46.601702" lon="11.665769"><ele>2206</ele></trkpt>
      <trkpt lat="46.601684" lon="11.666246"><ele>2206</ele></trkpt>
      <trkpt lat="46.601678" lon="11.666311"><ele>2206</ele></trkpt>
      <trkpt lat="46.601684" lon="11.666246"><ele>2206</ele></trkpt>
      <trkpt lat="46.601702" lon="11.665769"><ele>2206</ele></trkpt>
      <trkpt lat="46.601703" lon="11.665601"><ele>2205</ele></trkpt>
      <trkpt lat="46.601742" lon="11.665323"><ele>2205</ele></trkpt>
      <trkpt lat="46.601726" lon="11.665185"><ele>2204</ele></trkpt>
      <trkpt lat="46.60173" lon="11.665043"><ele>2204</ele></trkpt>
      <trkpt lat="46.601723" lon="11.664657"><ele>2202</ele></trkpt>
      <trkpt lat="46.601755" lon="11.664529"><ele>2203</ele></trkpt>
      <trkpt lat="46.601768" lon="11.66445"><ele>2203</ele></trkpt>
      <trkpt lat="46.601767" lon="11.664387"><ele>2203</ele></trkpt>
      <trkpt lat="46.60173" lon="11.664151"><ele>2202</ele></trkpt>
      <trkpt lat="46.601732" lon="11.663877"><ele>2202</ele></trkpt>
      <trkpt lat="46.60174" lon="11.663582"><ele>2201</ele></trkpt>
      <trkpt lat="46.601802" lon="11.662759"><ele>2201</ele></trkpt>
      <trkpt lat="46.601716" lon="11.662297"><ele>2199</ele></trkpt>
      <trkpt lat="46.601437" lon="11.66079"><ele>2197</ele></trkpt>
      <trkpt lat="46.601696" lon="11.660543"><ele>2206</ele></trkpt>
      <trkpt lat="46.601962" lon="11.660242"><ele>2216</ele></trkpt>
      <trkpt lat="46.602186" lon="11.659959"><ele>2223</ele></trkpt>
      <trkpt lat="46.602408" lon="11.659616"><ele>2229</ele></trkpt>
      <trkpt lat="46.602697" lon="11.659195"><ele>2239</ele></trkpt>
      <trkpt lat="46.60292" lon="11.658923"><ele>2245</ele></trkpt>
      <trkpt lat="46.603231" lon="11.658505"><ele>2254</ele></trkpt>
      <trkpt lat="46.603228" lon="11.658596"><ele>2247</ele></trkpt>
      <trkpt lat="46.603231" lon="11.658505"><ele>2254</ele></trkpt>
      <trkpt lat="46.603276" lon="11.658182"><ele>2256</ele></trkpt>
      <trkpt lat="46.603247" lon="11.658059"><ele>2256</ele></trkpt>
      <trkpt lat="46.603286" lon="11.657855"><ele>2259</ele></trkpt>
      <trkpt lat="46.603287" lon="11.657782"><ele>2260</ele></trkpt>
      <trkpt lat="46.603258" lon="11.657631"><ele>2262</ele></trkpt>
      <trkpt lat="46.603257" lon="11.65756"><ele>2262</ele></trkpt>
      <trkpt lat="46.603276" lon="11.657503"><ele>2263</ele></trkpt>
      <trkpt lat="46.60333" lon="11.657405"><ele>2265</ele></trkpt>
      <trkpt lat="46.603351" lon="11.657195"><ele>2267</ele></trkpt>
      <trkpt lat="46.603411" lon="11.657117"><ele>2265</ele></trkpt>
      <trkpt lat="46.603459" lon="11.656943"><ele>2267</ele></trkpt>
      <trkpt lat="46.603415" lon="11.656726"><ele>2272</ele></trkpt>
      <trkpt lat="46.603503" lon="11.656606"><ele>2275</ele></trkpt>
      <trkpt lat="46.60353" lon="11.656521"><ele>2276</ele></trkpt>
      <trkpt lat="46.60367" lon="11.656297"><ele>2276</ele></trkpt>
      <trkpt lat="46.603609" lon="11.656215"><ele>2278</ele></trkpt>
      <trkpt lat="46.603522" lon="11.656194"><ele>2276</ele></trkpt>
      <trkpt lat="46.603394" lon="11.656099"><ele>2273</ele></trkpt>
      <trkpt lat="46.603323" lon="11.656028"><ele>2271</ele></trkpt>
      <trkpt lat="46.603224" lon="11.656032"><ele>2269</ele></trkpt>
      <trkpt lat="46.603112" lon="11.655928"><ele>2265</ele></trkpt>
      <trkpt lat="46.602908" lon="11.655879"><ele>2260</ele></trkpt>
      <trkpt lat="46.602744" lon="11.655889"><ele>2255</ele></trkpt>
      <trkpt lat="46.60265" lon="11.655933"><ele>2253</ele></trkpt>
      <trkpt lat="46.602476" lon="11.655872"><ele>2248</ele></trkpt>
      <trkpt lat="46.602359" lon="11.655817"><ele>2244</ele></trkpt>
      <trkpt lat="46.602293" lon="11.655811"><ele>2242</ele></trkpt>
      <trkpt lat="46.602231" lon="11.65578"><ele>2240</ele></trkpt>
      <trkpt lat="46.602166" lon="11.655719"><ele>2236</ele></trkpt>
      <trkpt lat="46.602106" lon="11.655736"><ele>2236</ele></trkpt>
      <trkpt lat="46.601831" lon="11.655407"><ele>2229</ele></trkpt>
      <trkpt lat="46.601749" lon="11.655356"><ele>2228</ele></trkpt>
      <trkpt lat="46.601625" lon="11.655159"><ele>2224</ele></trkpt>
      <trkpt lat="46.601516" lon="11.655163"><ele>2223</ele></trkpt>
      <trkpt lat="46.601434" lon="11.655072"><ele>2221</ele></trkpt>
      <trkpt lat="46.601396" lon="11.65509"><ele>2221</ele></trkpt>
      <trkpt lat="46.601365" lon="11.655016"><ele>2220</ele></trkpt>
      <trkpt lat="46.601313" lon="11.655004"><ele>2219</ele></trkpt>
      <trkpt lat="46.601268" lon="11.654877"><ele>2215</ele></trkpt>
      <trkpt lat="46.601245" lon="11.65477"><ele>2213</ele></trkpt>
      <trkpt lat="46.601162" lon="11.654671"><ele>2211</ele></trkpt>
      <trkpt lat="46.601113" lon="11.654628"><ele>2211</ele></trkpt>
      <trkpt lat="46.601085" lon="11.654494"><ele>2208</ele></trkpt>
      <trkpt lat="46.601001" lon="11.654487"><ele>2207</ele></trkpt>
      <trkpt lat="46.600984" lon="11.654432"><ele>2206</ele></trkpt>
      <trkpt lat="46.600996" lon="11.65437"><ele>2203</ele></trkpt>
      <trkpt lat="46.600952" lon="11.654273"><ele>2200</ele></trkpt>
      <trkpt lat="46.600885" lon="11.654247"><ele>2200</ele></trkpt>
      <trkpt lat="46.600828" lon="11.654235"><ele>2200</ele></trkpt>
      <trkpt lat="46.600812" lon="11.654165"><ele>2199</ele></trkpt>
      <trkpt lat="46.60067" lon="11.654117"><ele>2196</ele></trkpt>
      <trkpt lat="46.600698" lon="11.654054"><ele>2194</ele></trkpt>
      <trkpt lat="46.600741" lon="11.654041"><ele>2194</ele></trkpt>
      <trkpt lat="46.600861" lon="11.654095"><ele>2195</ele></trkpt>
      <trkpt lat="46.600936" lon="11.654096"><ele>2194</ele></trkpt>
      <trkpt lat="46.601028" lon="11.654073"><ele>2191</ele></trkpt>
      <trkpt lat="46.601068" lon="11.65398"><ele>2188</ele></trkpt>
      <trkpt lat="46.601185" lon="11.653575"><ele>2183</ele></trkpt>
      <trkpt lat="46.601221" lon="11.653565"><ele>2183</ele></trkpt>
      <trkpt lat="46.601204" lon="11.653493"><ele>2180</ele></trkpt>
      <trkpt lat="46.60161" lon="11.6535"><ele>2172</ele></trkpt>
      <trkpt lat="46.601828" lon="11.653428"><ele>2160</ele></trkpt>
      <trkpt lat="46.602163" lon="11.653524"><ele>2156</ele></trkpt>
      <trkpt lat="46.602397" lon="11.653368"><ele>2145</ele></trkpt>
      <trkpt lat="46.602658" lon="11.653364"><ele>2145</ele></trkpt>
      <trkpt lat="46.602801" lon="11.653304"><ele>2142</ele></trkpt>
      <trkpt lat="46.602961" lon="11.653011"><ele>2132</ele></trkpt>
      <trkpt lat="46.602796" lon="11.652683"><ele>2119</ele></trkpt>
      <trkpt lat="46.602735" lon="11.652683"><ele>2118</ele></trkpt>
      <trkpt lat="46.602634" lon="11.652523"><ele>2111</ele></trkpt>
      <trkpt lat="46.602639" lon="11.652339"><ele>2105</ele></trkpt>
      <trkpt lat="46.602757" lon="11.651995"><ele>2096</ele></trkpt>
      <trkpt lat="46.602975" lon="11.651538"><ele>2084</ele></trkpt>
      <trkpt lat="46.60336" lon="11.651298"><ele>2076</ele></trkpt>
      <trkpt lat="46.603899" lon="11.65079"><ele>2062</ele></trkpt>
      <trkpt lat="46.60416" lon="11.650706"><ele>2053</ele></trkpt>
      <trkpt lat="46.604677" lon="11.650782"><ele>2047</ele></trkpt>
      <trkpt lat="46.60528" lon="11.650417"><ele>2028</ele></trkpt>
      <trkpt lat="46.606162" lon="11.650638"><ele>2019</ele></trkpt>
    </trkseg>
  </trk>
</gpx>
