<?xml version="1.0" encoding="UTF-8"?>
<gpx version="1.1" creator="hike-trip" xmlns="http://www.topografix.com/GPX/1/1">
  <metadata>
    <name>Resciesa → Brogles → Seceda Traverse</name>
    <desc>Routed with BRouter (hiking-mountain) over OpenStreetMap data through hand-verified anchor points. Schematic in places — verify against signage on the ground.</desc>
    <copyright author="OpenStreetMap contributors"><license>https://www.openstreetmap.org/copyright</license></copyright>
    <bounds minlat="46.587842" minlon="11.679383" maxlat="46.611726" maxlon="11.734989"/>
  </metadata>
  <wpt lat="46.5979" lon="11.6794"><name>Trailhead — Resciesa → Brogles → Seceda Traverse</name><sym>Trail Head</sym></wpt>
  <wpt lat="46.6006" lon="11.7258"><ele>2519</ele><name>Seceda ridge</name><sym>Summit</sym></wpt>
  <trk>
    <name>Resciesa → Brogles → Seceda Traverse (No. 35 / 29)</name>
    <type>hiking</type>
    <trkseg>
      <trkpt lat="46.59791" lon="11.679383"><ele>2100</ele></trkpt>
      <trkpt lat="46.597946" lon="11.679412"><ele>2101</ele></trkpt>
      <trkpt lat="46.597936" lon="11.679479"><ele>2100</ele></trkpt>
      <trkpt lat="46.597914" lon="11.679612"><ele>2097</ele></trkpt>
      <trkpt lat="46.597965" lon="11.679857"><ele>2097</ele></trkpt>
      <trkpt lat="46.598054" lon="11.679998"><ele>2100</ele></trkpt>
      <trkpt lat="46.598136" lon="11.680162"><ele>2103</ele></trkpt>
      <trkpt lat="46.598243" lon="11.680432"><ele>2106</ele></trkpt>
      <trkpt lat="46.598366" lon="11.680839"><ele>2110</ele></trkpt>
      <trkpt lat="46.598468" lon="11.681362"><ele>2112</ele></trkpt>
      <trkpt lat="46.598563" lon="11.681501"><ele>2114</ele></trkpt>
      <trkpt lat="46.598651" lon="11.681607"><ele>2116</ele></trkpt>
      <trkpt lat="46.598676" lon="11.681652"><ele>2117</ele></trkpt>
      <trkpt lat="46.598709" lon="11.681748"><ele>2117</ele></trkpt>
      <trkpt lat="46.598909" lon="11.682083"><ele>2121</ele></trkpt>
      <trkpt lat="46.598983" lon="11.682248"><ele>2123</ele></trkpt>
      <trkpt lat="46.599145" lon="11.682531"><ele>2128</ele></trkpt>
      <trkpt lat="46.599176" lon="11.682574"><ele>2129</ele></trkpt>
      <trkpt lat="46.599212" lon="11.68259"><ele>2129</ele></trkpt>
      <trkpt lat="46.599263" lon="11.682583"><ele>2130</ele></trkpt>
      <trkpt lat="46.599366" lon="11.68257"><ele>2130</ele></trkpt>
      <trkpt lat="46.599707" lon="11.682667"><ele>2123</ele></trkpt>
      <trkpt lat="46.59976" lon="11.682671"><ele>2121</ele></trkpt>
      <trkpt lat="46.599891" lon="11.682642"><ele>2118</ele></trkpt>
      <trkpt lat="46.60001" lon="11.682651"><ele>2114</ele></trkpt>
      <trkpt lat="46.600171" lon="11.68265"><ele>2111</ele></trkpt>
      <trkpt lat="46.600323" lon="11.682681"><ele>2107</ele></trkpt>
      <trkpt lat="46.600842" lon="11.682709"><ele>2094</ele></trkpt>
      <trkpt lat="46.600896" lon="11.682695"><ele>2093</ele></trkpt>
      <trkpt lat="46.601583" lon="11.682384"><ele>2082</ele></trkpt>
      <trkpt lat="46.602002" lon="11.68214"><ele>2077</ele></trkpt>
      <trkpt lat="46.60218" lon="11.682083"><ele>2076</ele></trkpt>
      <trkpt lat="46.60229" lon="11.682036"><ele>2075</ele></trkpt>
      <trkpt lat="46.602339" lon="11.68201"><ele>2075</ele></trkpt>
      <trkpt lat="46.602367" lon="11.681978"><ele>2075</ele></trkpt>
      <trkpt lat="46.602391" lon="11.681937"><ele>2076</ele></trkpt>
      <trkpt lat="46.602504" lon="11.681869"><ele>2075</ele></trkpt>
      <trkpt lat="46.602666" lon="11.68185"><ele>2075</ele></trkpt>
      <trkpt lat="46.6028" lon="11.681846"><ele>2074</ele></trkpt>
      <trkpt lat="46.602975" lon="11.681776"><ele>2075</ele></trkpt>
      <trkpt lat="46.603274" lon="11.681738"><ele>2077</ele></trkpt>
      <trkpt lat="46.603529" lon="11.68172"><ele>2077</ele></trkpt>
      <trkpt lat="46.603666" lon="11.681741"><ele>2078</ele></trkpt>
      <trkpt lat="46.603699" lon="11.681762"><ele>2078</ele></trkpt>
      <trkpt lat="46.603722" lon="11.681792"><ele>2078</ele></trkpt>
      <trkpt lat="46.603764" lon="11.681878"><ele>2077</ele></trkpt>
      <trkpt lat="46.6039" lon="11.681992"><ele>2079</ele></trkpt>
      <trkpt lat="46.603938" lon="11.682039"><ele>2079</ele></trkpt>
      <trkpt lat="46.603958" lon="11.682082"><ele>2079</ele></trkpt>
      <trkpt lat="46.604128" lon="11.682561"><ele>2079</ele></trkpt>
      <trkpt lat="46.604247" lon="11.682804"><ele>2082</ele></trkpt>
      <trkpt lat="46.604293" lon="11.682882"><ele>2083</ele></trkpt>
      <trkpt lat="46.604513" lon="11.683503"><ele>2088</ele></trkpt>
      <trkpt lat="46.604596" lon="11.683652"><ele>2090</ele></trkpt>
      <trkpt lat="46.604638" lon="11.683745"><ele>2090</ele></trkpt>
      <trkpt lat="46.604709" lon="11.683966"><ele>2090</ele></trkpt>
      <trkpt lat="46.604729" lon="11.684012"><ele>2090</ele></trkpt>
      <trkpt lat="46.604782" lon="11.684118"><ele>2091</ele></trkpt>
      <trkpt lat="46.604933" lon="11.684317"><ele>2092</ele></trkpt>
      <trkpt lat="46.604982" lon="11.684357"><ele>2092</ele></trkpt>
      <trkpt lat="46.605048" lon="11.684397"><ele>2092</ele></trkpt>
      <trkpt lat="46.605255" lon="11.684457"><ele>2093</ele></trkpt>
      <trkpt lat="46.60542" lon="11.684484"><ele>2093</ele></trkpt>
      <trkpt lat="46.606073" lon="11.684551"><ele>2089</ele></trkpt>
      <trkpt lat="46.606567" lon="11.684529"><ele>2086</ele></trkpt>
      <trkpt lat="46.606598" lon="11.68454"><ele>2086</ele></trkpt>
      <trkpt lat="46.606626" lon="11.684561"><ele>2085</ele></trkpt>
      <trkpt lat="46.60665" lon="11.684622"><ele>2085</ele></trkpt>
      <trkpt lat="46.606653" lon="11.68467"><ele>2085</ele></trkpt>
      <trkpt lat="46.606628" lon="11.685022"><ele>2086</ele></trkpt>
      <trkpt lat="46.606633" lon="11.685265"><ele>2089</ele></trkpt>
      <trkpt lat="46.606574" lon="11.686071"><ele>2095</ele></trkpt>
      <trkpt lat="46.606577" lon="11.686164"><ele>2096</ele></trkpt>
      <trkpt lat="46.606591" lon="11.686255"><ele>2096</ele></trkpt>
      <trkpt lat="46.606634" lon="11.686401"><ele>2098</ele></trkpt>
      <trkpt lat="46.606828" lon="11.686645"><ele>2101</ele></trkpt>
      <trkpt lat="46.607157" lon="11.687032"><ele>2107</ele></trkpt>
      <trkpt lat="46.60721" lon="11.68711"><ele>2108</ele></trkpt>
      <trkpt lat="46.607229" lon="11.68717"><ele>2109</ele></trkpt>
      <trkpt lat="46.607294" lon="11.687451"><ele>2111</ele></trkpt>
      <trkpt lat="46.607324" lon="11.687537"><ele>2112</ele></trkpt>
      <trkpt lat="46.607381" lon="11.687632"><ele>2114</ele></trkpt>
      <trkpt lat="46.607539" lon="11.6878"><ele>2118</ele></trkpt>
      <trkpt lat="46.607627" lon="11.687916"><ele>2120</ele></trkpt>
      <trkpt lat="46.607699" lon="11.688036"><ele>2122</ele></trkpt>
      <trkpt lat="46.607742" lon="11.688161"><ele>2122</ele></trkpt>
      <trkpt lat="46.60778" lon="11.688232"><ele>2123</ele></trkpt>
      <trkpt lat="46.607825" lon="11.688308"><ele>2124</ele></trkpt>
      <trkpt lat="46.607971" lon="11.688488"><ele>2126</ele></trkpt>
      <trkpt lat="46.608018" lon="11.688559"><ele>2126</ele></trkpt>
      <trkpt lat="46.608057" lon="11.688655"><ele>2127</ele></trkpt>
      <trkpt lat="46.608137" lon="11.688861"><ele>2129</ele></trkpt>
      <trkpt lat="46.608158" lon="11.68893"><ele>2130</ele></trkpt>
      <trkpt lat="46.608171" lon="11.689013"><ele>2131</ele></trkpt>
      <trkpt lat="46.60818" lon="11.689234"><ele>2132</ele></trkpt>
      <trkpt lat="46.608191" lon="11.689318"><ele>2133</ele></trkpt>
      <trkpt lat="46.608207" lon="11.6894"><ele>2134</ele></trkpt>
      <trkpt lat="46.608227" lon="11.689462"><ele>2135</ele></trkpt>
      <trkpt lat="46.608268" lon="11.689545"><ele>2136</ele></trkpt>
      <trkpt lat="46.608294" lon="11.689658"><ele>2138</ele></trkpt>
      <trkpt lat="46.608309" lon="11.689729"><ele>2138</ele></trkpt>
      <trkpt lat="46.608342" lon="11.690008"><ele>2140</ele></trkpt>
      <trkpt lat="46.608357" lon="11.690083"><ele>2141</ele></trkpt>
      <trkpt lat="46.60839" lon="11.690201"><ele>2142</ele></trkpt>
      <trkpt lat="46.608492" lon="11.690513"><ele>2143</ele></trkpt>
      <trkpt lat="46.608635" lon="11.690823"><ele>2147</ele></trkpt>
      <trkpt lat="46.608791" lon="11.691216"><ele>2150</ele></trkpt>
      <trkpt lat="46.609007" lon="11.691956"><ele>2154</ele></trkpt>
      <trkpt lat="46.609036" lon="11.692044"><ele>2154</ele></trkpt>
      <trkpt lat="46.609092" lon="11.692175"><ele>2155</ele></trkpt>
      <trkpt lat="46.609127" lon="11.692287"><ele>2155</ele></trkpt>
      <trkpt lat="46.609174" lon="11.692396"><ele>2155</ele></trkpt>
      <trkpt lat="46.609237" lon="11.692637"><ele>2155</ele></trkpt>
      <trkpt lat="46.609361" lon="11.693017"><ele>2155</ele></trkpt>
      <trkpt lat="46.609402" lon="11.693174"><ele>2155</ele></trkpt>
      <trkpt lat="46.609491" lon="11.693903"><ele>2156</ele></trkpt>
      <trkpt lat="46.609527" lon="11.694131"><ele>2156</ele></trkpt>
      <trkpt lat="46.60953" lon="11.694218"><ele>2157</ele></trkpt>
      <trkpt lat="46.609522" lon="11.694355"><ele>2157</ele></trkpt>
      <trkpt lat="46.609505" lon="11.694486"><ele>2157</ele></trkpt>
      <trkpt lat="46.609429" lon="11.694727"><ele>2159</ele></trkpt>
      <trkpt lat="46.609393" lon="11.694797"><ele>2159</ele></trkpt>
      <trkpt lat="46.609169" lon="11.695145"><ele>2162</ele></trkpt>
      <trkpt lat="46.609069" lon="11.695355"><ele>2163</ele></trkpt>
      <trkpt lat="46.609008" lon="11.69551"><ele>2164</ele></trkpt>
      <trkpt lat="46.608976" lon="11.695701"><ele>2165</ele></trkpt>
      <trkpt lat="46.608948" lon="11.696043"><ele>2165</ele></trkpt>
      <trkpt lat="46.608954" lon="11.696526"><ele>2164</ele></trkpt>
      <trkpt lat="46.608988" lon="11.696997"><ele>2164</ele></trkpt>
      <trkpt lat="46.609007" lon="11.697359"><ele>2164</ele></trkpt>
      <trkpt lat="46.609018" lon="11.697463"><ele>2164</ele></trkpt>
      <trkpt lat="46.609108" lon="11.697926"><ele>2163</ele></trkpt>
      <trkpt lat="46.60925" lon="11.698399"><ele>2163</ele></trkpt>
      <trkpt lat="46.609473" lon="11.699086"><ele>2162</ele></trkpt>
      <trkpt lat="46.609674" lon="11.69974"><ele>2162</ele></trkpt>
      <trkpt lat="46.609698" lon="11.699824"><ele>2162</ele></trkpt>
      <trkpt lat="46.609709" lon="11.699914"><ele>2162</ele></trkpt>
      <trkpt lat="46.609684" lon="11.70061"><ele>2161</ele></trkpt>
      <trkpt lat="46.609773" lon="11.701428"><ele>2162</ele></trkpt>
      <trkpt lat="46.609807" lon="11.701916"><ele>2162</ele></trkpt>
      <trkpt lat="46.609862" lon="11.702493"><ele>2163</ele></trkpt>
      <trkpt lat="46.60987" lon="11.702627"><ele>2163</ele></trkpt>
      <trkpt lat="46.609867" lon="11.703509"><ele>2164</ele></trkpt>
      <trkpt lat="46.609888" lon="11.703726"><ele>2164</ele></trkpt>
      <trkpt lat="46.60989" lon="11.7038"><ele>2164</ele></trkpt>
      <trkpt lat="46.609868" lon="11.704108"><ele>2163</ele></trkpt>
      <trkpt lat="46.609866" lon="11.704471"><ele>2162</ele></trkpt>
      <trkpt lat="46.609879" lon="11.704694"><ele>2163</ele></trkpt>
      <trkpt lat="46.609872" lon="11.704947"><ele>2162</ele></trkpt>
      <trkpt lat="46.609837" lon="11.705267"><ele>2162</ele></trkpt>
      <trkpt lat="46.609808" lon="11.705643"><ele>2162</ele></trkpt>
      <trkpt lat="46.609775" lon="11.705885"><ele>2162</ele></trkpt>
      <trkpt lat="46.609748" lon="11.706266"><ele>2163</ele></trkpt>
      <trkpt lat="46.609725" lon="11.706424"><ele>2162</ele></trkpt>
      <trkpt lat="46.609698" lon="11.70677"><ele>2162</ele></trkpt>
      <trkpt lat="46.609696" lon="11.706877"><ele>2162</ele></trkpt>
      <trkpt lat="46.609704" lon="11.707165"><ele>2162</ele></trkpt>
      <trkpt lat="46.609701" lon="11.707457"><ele>2161</ele></trkpt>
      <trkpt lat="46.609668" lon="11.707826"><ele>2160</ele></trkpt>
      <trkpt lat="46.609672" lon="11.70791"><ele>2160</ele></trkpt>
      <trkpt lat="46.609695" lon="11.708063"><ele>2160</ele></trkpt>
      <trkpt lat="46.609698" lon="11.708295"><ele>2158</ele></trkpt>
      <trkpt lat="46.609724" lon="11.708459"><ele>2159</ele></trkpt>
      <trkpt lat="46.609876" lon="11.708918"><ele>2159</ele></trkpt>
      <trkpt lat="46.610091" lon="11.70935"><ele>2158</ele></trkpt>
      <trkpt lat="46.610326" lon="11.709693"><ele>2158</ele></trkpt>
      <trkpt lat="46.610479" lon="11.710042"><ele>2156</ele></trkpt>
      <trkpt lat="46.610651" lon="11.710392"><ele>2156</ele></trkpt>
      <trkpt lat="46.610684" lon="11.710497"><ele>2156</ele></trkpt>
      <trkpt lat="46.610837" lon="11.711111"><ele>2156</ele></trkpt>
      <trkpt lat="46.610866" lon="11.711201"><ele>2156</ele></trkpt>
      <trkpt lat="46.610927" lon="11.711344"><ele>2157</ele></trkpt>
      <trkpt lat="46.610939" lon="11.711393"><ele>2157</ele></trkpt>
      <trkpt lat="46.610956" lon="11.711502"><ele>2156</ele></trkpt>
      <trkpt lat="46.610983" lon="11.7116"><ele>2156</ele></trkpt>
      <trkpt lat="46.610997" lon="11.711839"><ele>2155</ele></trkpt>
      <trkpt lat="46.611063" lon="11.712432"><ele>2153</ele></trkpt>
      <trkpt lat="46.611138" lon="11.712746"><ele>2153</ele></trkpt>
      <trkpt lat="46.611233" lon="11.713056"><ele>2154</ele></trkpt>
      <trkpt lat="46.611305" lon="11.713254"><ele>2154</ele></trkpt>
      <trkpt lat="46.611318" lon="11.713312"><ele>2154</ele></trkpt>
      <trkpt lat="46.611376" lon="11.7142"><ele>2152</ele></trkpt>
      <trkpt lat="46.611388" lon="11.714264"><ele>2152</ele></trkpt>
      <trkpt lat="46.611454" lon="11.714482"><ele>2153</ele></trkpt>
      <trkpt lat="46.611506" lon="11.715222"><ele>2148</ele></trkpt>
      <trkpt lat="46.611601" lon="11.715703"><ele>2148</ele></trkpt>
      <trkpt lat="46.611622" lon="11.716008"><ele>2147</ele></trkpt>
      <trkpt lat="46.611656" lon="11.71627"><ele>2146</ele></trkpt>
      <trkpt lat="46.611684" lon="11.716576"><ele>2146</ele></trkpt>
      <trkpt lat="46.611683" lon="11.716633"><ele>2146</ele></trkpt>
      <trkpt lat="46.611662" lon="11.716819"><ele>2144</ele></trkpt>
      <trkpt lat="46.611656" lon="11.717056"><ele>2144</ele></trkpt>
      <trkpt lat="46.611665" lon="11.717175"><ele>2144</ele></trkpt>
      <trkpt lat="46.611705" lon="11.717413"><ele>2144</ele></trkpt>
      <trkpt lat="46.611726" lon="11.717558"><ele>2144</ele></trkpt>
      <trkpt lat="46.611721" lon="11.717632"><ele>2143</ele></trkpt>
      <trkpt lat="46.611699" lon="11.717705"><ele>2142</ele></trkpt>
      <trkpt lat="46.611692" lon="11.717783"><ele>2141</ele></trkpt>
      <trkpt lat="46.611685" lon="11.718146"><ele>2140</ele></trkpt>
      <trkpt lat="46.611707" lon="11.71865"><ele>2138</ele></trkpt>
      <trkpt lat="46.611687" lon="11.718828"><ele>2137</ele></trkpt>
      <trkpt lat="46.611683" lon="11.719015"><ele>2136</ele></trkpt>
      <trkpt lat="46.611676" lon="11.719073"><ele>2136</ele></trkpt>
      <trkpt lat="46.611616" lon="11.719334"><ele>2133</ele></trkpt>
      <trkpt lat="46.6116" lon="11.719478"><ele>2133</ele></trkpt>
      <trkpt lat="46.61156" lon="11.719679"><ele>2131</ele></trkpt>
      <trkpt lat="46.611552" lon="11.719762"><ele>2131</ele></trkpt>
      <trkpt lat="46.611543" lon="11.720137"><ele>2130</ele></trkpt>
      <trkpt lat="46.611505" lon="11.720319"><ele>2128</ele></trkpt>
      <trkpt lat="46.611497" lon="11.720401"><ele>2128</ele></trkpt>
      <trkpt lat="46.611491" lon="11.720771"><ele>2126</ele></trkpt>
      <trkpt lat="46.611482" lon="11.720905"><ele>2125</ele></trkpt>
      <trkpt lat="46.611448" lon="11.721112"><ele>2123</ele></trkpt>
      <trkpt lat="46.611392" lon="11.721291"><ele>2121</ele></trkpt>
      <trkpt lat="46.611394" lon="11.721359"><ele>2120</ele></trkpt>
      <trkpt lat="46.611392" lon="11.721467"><ele>2119</ele></trkpt>
      <trkpt lat="46.611381" lon="11.721524"><ele>2118</ele></trkpt>
      <trkpt lat="46.611313" lon="11.721708"><ele>2115</ele></trkpt>
      <trkpt lat="46.611256" lon="11.721935"><ele>2111</ele></trkpt>
      <trkpt lat="46.611169" lon="11.722063"><ele>2109</ele></trkpt>
      <trkpt lat="46.610945" lon="11.722218"><ele>2108</ele></trkpt>
      <trkpt lat="46.610866" lon="11.72233"><ele>2106</ele></trkpt>
      <trkpt lat="46.610721" lon="11.722413"><ele>2106</ele></trkpt>
      <trkpt lat="46.61064" lon="11.722512"><ele>2103</ele></trkpt>
      <trkpt lat="46.610582" lon="11.72266"><ele>2100</ele></trkpt>
      <trkpt lat="46.610434" lon="11.72292"><ele>2095</ele></trkpt>
      <trkpt lat="46.610409" lon="11.723038"><ele>2093</ele></trkpt>
      <trkpt lat="46.610411" lon="11.723237"><ele>2089</ele></trkpt>
      <trkpt lat="46.610426" lon="11.723305"><ele>2087</ele></trkpt>
      <trkpt lat="46.610477" lon="11.723386"><ele>2085</ele></trkpt>
      <trkpt lat="46.610549" lon="11.723561"><ele>2083</ele></trkpt>
      <trkpt lat="46.610603" lon="11.723884"><ele>2077</ele></trkpt>
      <trkpt lat="46.610602" lon="11.723944"><ele>2076</ele></trkpt>
      <trkpt lat="46.61059" lon="11.724008"><ele>2074</ele></trkpt>
      <trkpt lat="46.610537" lon="11.724167"><ele>2072</ele></trkpt>
      <trkpt lat="46.610506" lon="11.724295"><ele>2069</ele></trkpt>
      <trkpt lat="46.610442" lon="11.724659"><ele>2064</ele></trkpt>
      <trkpt lat="46.610416" lon="11.724845"><ele>2062</ele></trkpt>
      <trkpt lat="46.61039" lon="11.72535"><ele>2057</ele></trkpt>
      <trkpt lat="46.610317" lon="11.725918"><ele>2052</ele></trkpt>
      <trkpt lat="46.610271" lon="11.726919"><ele>2047</ele></trkpt>
      <trkpt lat="46.610303" lon="11.727074"><ele>2046</ele></trkpt>
      <trkpt lat="46.610327" lon="11.727161"><ele>2045</ele></trkpt>
      <trkpt lat="46.610362" lon="11.727298"><ele>2043</ele></trkpt>
      <trkpt lat="46.610366" lon="11.727392"><ele>2042</ele></trkpt>
      <trkpt lat="46.610368" lon="11.72743"><ele>2042</ele></trkpt>
      <trkpt lat="46.610293" lon="11.727785"><ele>2041</ele></trkpt>
      <trkpt lat="46.610213" lon="11.728027"><ele>2039</ele></trkpt>
      <trkpt lat="46.610177" lon="11.728198"><ele>2037</ele></trkpt>
      <trkpt lat="46.610138" lon="11.72839"><ele>2037</ele></trkpt>
      <trkpt lat="46.610085" lon="11.72872"><ele>2034</ele></trkpt>
      <trkpt lat="46.61007" lon="11.728912"><ele>2032</ele></trkpt>
      <trkpt lat="46.610055" lon="11.729022"><ele>2031</ele></trkpt>
      <trkpt lat="46.61003" lon="11.729101"><ele>2030</ele></trkpt>
      <trkpt lat="46.609934" lon="11.72922"><ele>2029</ele></trkpt>
      <trkpt lat="46.609834" lon="11.729323"><ele>2026</ele></trkpt>
      <trkpt lat="46.6097" lon="11.7294"><ele>2023</ele></trkpt>
      <trkpt lat="46.609559" lon="11.729405"><ele>2020</ele></trkpt>
      <trkpt lat="46.609453" lon="11.729334"><ele>2018</ele></trkpt>
      <trkpt lat="46.609307" lon="11.728966"><ele>2015</ele></trkpt>
      <trkpt lat="46.609253" lon="11.728927"><ele>2013</ele></trkpt>
      <trkpt lat="46.60921" lon="11.728919"><ele>2011</ele></trkpt>
      <trkpt lat="46.609062" lon="11.728996"><ele>2006</ele></trkpt>
      <trkpt lat="46.608958" lon="11.729016"><ele>2004</ele></trkpt>
      <trkpt lat="46.608837" lon="11.728969"><ele>2003</ele></trkpt>
      <trkpt lat="46.608805" lon="11.728983"><ele>2002</ele></trkpt>
      <trkpt lat="46.608776" lon="11.729051"><ele>2001</ele></trkpt>
      <trkpt lat="46.608776" lon="11.729119"><ele>2000</ele></trkpt>
      <trkpt lat="46.608813" lon="11.729397"><ele>1996</ele></trkpt>
      <trkpt lat="46.60879" lon="11.729466"><ele>1994</ele></trkpt>
      <trkpt lat="46.608648" lon="11.729558"><ele>1989</ele></trkpt>
      <trkpt lat="46.608569" lon="11.729743"><ele>1984</ele></trkpt>
      <trkpt lat="46.608527" lon="11.729767"><ele>1982</ele></trkpt>
      <trkpt lat="46.60839" lon="11.729759"><ele>1981</ele></trkpt>
      <trkpt lat="46.608361" lon="11.729796"><ele>1980</ele></trkpt>
      <trkpt lat="46.608344" lon="11.72986"><ele>1979</ele></trkpt>
      <trkpt lat="46.608334" lon="11.729923"><ele>1979</ele></trkpt>
      <trkpt lat="46.608357" lon="11.730032"><ele>1978</ele></trkpt>
      <trkpt lat="46.608398" lon="11.730338"><ele>1978</ele></trkpt>
      <trkpt lat="46.608402" lon="11.730428"><ele>1978</ele></trkpt>
      <trkpt lat="46.608386" lon="11.730509"><ele>1979</ele></trkpt>
      <trkpt lat="46.608346" lon="11.730574"><ele>1980</ele></trkpt>
      <trkpt lat="46.608299" lon="11.730576"><ele>1981</ele></trkpt>
      <trkpt lat="46.608274" lon="11.730611"><ele>1981</ele></trkpt>
      <trkpt lat="46.608262" lon="11.730691"><ele>1980</ele></trkpt>
      <trkpt lat="46.608214" lon="11.730809"><ele>1979</ele></trkpt>
      <trkpt lat="46.608137" lon="11.730924"><ele>1980</ele></trkpt>
      <trkpt lat="46.60805" lon="11.731213"><ele>1979</ele></trkpt>
      <trkpt lat="46.608006" lon="11.73146"><ele>1978</ele></trkpt>
      <trkpt lat="46.608001" lon="11.732134"><ele>1978</ele></trkpt>
      <trkpt lat="46.608016" lon="11.732409"><ele>1979</ele></trkpt>
      <trkpt lat="46.608003" lon="11.732599"><ele>1980</ele></trkpt>
      <trkpt lat="46.607967" lon="11.732893"><ele>1982</ele></trkpt>
      <trkpt lat="46.607968" lon="11.733017"><ele>1983</ele></trkpt>
      <trkpt lat="46.607994" lon="11.733144"><ele>1985</ele></trkpt>
      <trkpt lat="46.60802" lon="11.73323"><ele>1986</ele></trkpt>
      <trkpt lat="46.608076" lon="11.73328"><ele>1986</ele></trkpt>
      <trkpt lat="46.608117" lon="11.733368"><ele>1987</ele></trkpt>
      <trkpt lat="46.608139" lon="11.733457"><ele>1987</ele></trkpt>
      <trkpt lat="46.608188" lon="11.733885"><ele>1989</ele></trkpt>
      <trkpt lat="46.608181" lon="11.734208"><ele>1991</ele></trkpt>
      <trkpt lat="46.608161" lon="11.73439"><ele>1992</ele></trkpt>
      <trkpt lat="46.608191" lon="11.734587"><ele>1993</ele></trkpt>
      <trkpt lat="46.6082" lon="11.734989"><ele>1995</ele></trkpt>
      <trkpt lat="46.608191" lon="11.734587"><ele>1993</ele></trkpt>
      <trkpt lat="46.608161" lon="11.73439"><ele>1992</ele></trkpt>
      <trkpt lat="46.608181" lon="11.734208"><ele>1991</ele></trkpt>
      <trkpt lat="46.608188" lon="11.733885"><ele>1989</ele></trkpt>
      <trkpt lat="46.608139" lon="11.733457"><ele>1987</ele></trkpt>
      <trkpt lat="46.608117" lon="11.733368"><ele>1987</ele></trkpt>
      <trkpt lat="46.608076" lon="11.73328"><ele>1986</ele></trkpt>
      <trkpt lat="46.60802" lon="11.73323"><ele>1986</ele></trkpt>
      <trkpt lat="46.607994" lon="11.733144"><ele>1985</ele></trkpt>
      <trkpt lat="46.607968" lon="11.733017"><ele>1983</ele></trkpt>
      <trkpt lat="46.607967" lon="11.732893"><ele>1982</ele></trkpt>
      <trkpt lat="46.608003" lon="11.732599"><ele>1980</ele></trkpt>
      <trkpt lat="46.608016" lon="11.732409"><ele>1979</ele></trkpt>
      <trkpt lat="46.608001" lon="11.732134"><ele>1978</ele></trkpt>
      <trkpt lat="46.608006" lon="11.73146"><ele>1978</ele></trkpt>
      <trkpt lat="46.60805" lon="11.731213"><ele>1979</ele></trkpt>
      <trkpt lat="46.608137" lon="11.730924"><ele>1980</ele></trkpt>
      <trkpt lat="46.608214" lon="11.730809"><ele>1979</ele></trkpt>
      <trkpt lat="46.608262" lon="11.730691"><ele>1980</ele></trkpt>
      <trkpt lat="46.608274" lon="11.730611"><ele>1981</ele></trkpt>
      <trkpt lat="46.608299" lon="11.730576"><ele>1981</ele></trkpt>
      <trkpt lat="46.608346" lon="11.730574"><ele>1980</ele></trkpt>
      <trkpt lat="46.608386" lon="11.730509"><ele>1979</ele></trkpt>
      <trkpt lat="46.608402" lon="11.730428"><ele>1978</ele></trkpt>
      <trkpt lat="46.608398" lon="11.730338"><ele>1978</ele></trkpt>
      <trkpt lat="46.608357" lon="11.730032"><ele>1978</ele></trkpt>
      <trkpt lat="46.608334" lon="11.729923"><ele>1979</ele></trkpt>
      <trkpt lat="46.608344" lon="11.72986"><ele>1979</ele></trkpt>
      <trkpt lat="46.608361" lon="11.729796"><ele>1980</ele></trkpt>
      <trkpt lat="46.60839" lon="11.729759"><ele>1981</ele></trkpt>
      <trkpt lat="46.608527" lon="11.729767"><ele>1982</ele></trkpt>
      <trkpt lat="46.608569" lon="11.729743"><ele>1984</ele></trkpt>
      <trkpt lat="46.608648" lon="11.729558"><ele>1989</ele></trkpt>
      <trkpt lat="46.60879" lon="11.729466"><ele>1994</ele></trkpt>
      <trkpt lat="46.608813" lon="11.729397"><ele>1996</ele></trkpt>
      <trkpt lat="46.608776" lon="11.729119"><ele>2000</ele></trkpt>
      <trkpt lat="46.608776" lon="11.729051"><ele>2001</ele></trkpt>
      <trkpt lat="46.608805" lon="11.728983"><ele>2002</ele></trkpt>
      <trkpt lat="46.608837" lon="11.728969"><ele>2003</ele></trkpt>
      <trkpt lat="46.608958" lon="11.729016"><ele>2004</ele></trkpt>
      <trkpt lat="46.609062" lon="11.728996"><ele>2006</ele></trkpt>
      <trkpt lat="46.60921" lon="11.728919"><ele>2011</ele></trkpt>
      <trkpt lat="46.609253" lon="11.728927"><ele>2013</ele></trkpt>
      <trkpt lat="46.609307" lon="11.728966"><ele>2015</ele></trkpt>
      <trkpt lat="46.609453" lon="11.729334"><ele>2018</ele></trkpt>
      <trkpt lat="46.609559" lon="11.729405"><ele>2020</ele></trkpt>
      <trkpt lat="46.6097" lon="11.7294"><ele>2023</ele></trkpt>
      <trkpt lat="46.609834" lon="11.729323"><ele>2026</ele></trkpt>
      <trkpt lat="46.609934" lon="11.72922"><ele>2029</ele></trkpt>
      <trkpt lat="46.61003" lon="11.729101"><ele>2030</ele></trkpt>
      <trkpt lat="46.610055" lon="11.729022"><ele>2031</ele></trkpt>
      <trkpt lat="46.61007" lon="11.728912"><ele>2032</ele></trkpt>
      <trkpt lat="46.610085" lon="11.72872"><ele>2034</ele></trkpt>
      <trkpt lat="46.610138" lon="11.72839"><ele>2037</ele></trkpt>
      <trkpt lat="46.610177" lon="11.728198"><ele>2037</ele></trkpt>
      <trkpt lat="46.610213" lon="11.728027"><ele>2039</ele></trkpt>
      <trkpt lat="46.610293" lon="11.727785"><ele>2041</ele></trkpt>
      <trkpt lat="46.610368" lon="11.72743"><ele>2042</ele></trkpt>
      <trkpt lat="46.610362" lon="11.727298"><ele>2043</ele></trkpt>
      <trkpt lat="46.610327" lon="11.727161"><ele>2045</ele></trkpt>
      <trkpt lat="46.610303" lon="11.727074"><ele>2046</ele></trkpt>
      <trkpt lat="46.610271" lon="11.726919"><ele>2047</ele></trkpt>
      <trkpt lat="46.610317" lon="11.725918"><ele>2052</ele></trkpt>
      <trkpt lat="46.61039" lon="11.72535"><ele>2057</ele></trkpt>
      <trkpt lat="46.610416" lon="11.724845"><ele>2062</ele></trkpt>
      <trkpt lat="46.610442" lon="11.724659"><ele>2064</ele></trkpt>
      <trkpt lat="46.610506" lon="11.724295"><ele>2069</ele></trkpt>
      <trkpt lat="46.610537" lon="11.724167"><ele>2072</ele></trkpt>
      <trkpt lat="46.61059" lon="11.724008"><ele>2074</ele></trkpt>
      <trkpt lat="46.610602" lon="11.723944"><ele>2076</ele></trkpt>
      <trkpt lat="46.610603" lon="11.723884"><ele>2077</ele></trkpt>
      <trkpt lat="46.610549" lon="11.723561"><ele>2083</ele></trkpt>
      <trkpt lat="46.610477" lon="11.723386"><ele>2085</ele></trkpt>
      <trkpt lat="46.610426" lon="11.723305"><ele>2087</ele></trkpt>
      <trkpt lat="46.610411" lon="11.723237"><ele>2089</ele></trkpt>
      <trkpt lat="46.610409" lon="11.723038"><ele>2093</ele></trkpt>
      <trkpt lat="46.610434" lon="11.72292"><ele>2095</ele></trkpt>
      <trkpt lat="46.610582" lon="11.72266"><ele>2100</ele></trkpt>
      <trkpt lat="46.61064" lon="11.722512"><ele>2103</ele></trkpt>
      <trkpt lat="46.610721" lon="11.722413"><ele>2106</ele></trkpt>
      <trkpt lat="46.610866" lon="11.72233"><ele>2106</ele></trkpt>
      <trkpt lat="46.610945" lon="11.722218"><ele>2108</ele></trkpt>
      <trkpt lat="46.611169" lon="11.722063"><ele>2109</ele></trkpt>
      <trkpt lat="46.611256" lon="11.721935"><ele>2111</ele></trkpt>
      <trkpt lat="46.611313" lon="11.721708"><ele>2115</ele></trkpt>
      <trkpt lat="46.611381" lon="11.721524"><ele>2118</ele></trkpt>
      <trkpt lat="46.611392" lon="11.721467"><ele>2119</ele></trkpt>
      <trkpt lat="46.611394" lon="11.721359"><ele>2120</ele></trkpt>
      <trkpt lat="46.611392" lon="11.721291"><ele>2121</ele></trkpt>
      <trkpt lat="46.611352" lon="11.721222"><ele>2121</ele></trkpt>
      <trkpt lat="46.611293" lon="11.720997"><ele>2122</ele></trkpt>
      <trkpt lat="46.611213" lon="11.720799"><ele>2122</ele></trkpt>
      <trkpt lat="46.611022" lon="11.720386"><ele>2119</ele></trkpt>
      <trkpt lat="46.610958" lon="11.720155"><ele>2117</ele></trkpt>
      <trkpt lat="46.610888" lon="11.720056"><ele>2116</ele></trkpt>
      <trkpt lat="46.610762" lon="11.719594"><ele>2113</ele></trkpt>
      <trkpt lat="46.610567" lon="11.719086"><ele>2107</ele></trkpt>
      <trkpt lat="46.610541" lon="11.718964"><ele>2106</ele></trkpt>
      <trkpt lat="46.610586" lon="11.718772"><ele>2104</ele></trkpt>
      <trkpt lat="46.610459" lon="11.718021"><ele>2098</ele></trkpt>
      <trkpt lat="46.61" lon="11.717338"><ele>2088</ele></trkpt>
      <trkpt lat="46.609668" lon="11.716701"><ele>2079</ele></trkpt>
      <trkpt lat="46.609541" lon="11.716421"><ele>2077</ele></trkpt>
      <trkpt lat="46.609418" lon="11.716331"><ele>2076</ele></trkpt>
      <trkpt lat="46.609191" lon="11.716035"><ele>2073</ele></trkpt>
      <trkpt lat="46.609065" lon="11.715805"><ele>2071</ele></trkpt>
      <trkpt lat="46.608942" lon="11.715557"><ele>2068</ele></trkpt>
      <trkpt lat="46.608775" lon="11.71532"><ele>2065</ele></trkpt>
      <trkpt lat="46.608794" lon="11.715244"><ele>2065</ele></trkpt>
      <trkpt lat="46.608599" lon="11.715081"><ele>2062</ele></trkpt>
      <trkpt lat="46.608456" lon="11.714847"><ele>2058</ele></trkpt>
      <trkpt lat="46.608418" lon="11.71472"><ele>2058</ele></trkpt>
      <trkpt lat="46.608375" lon="11.714433"><ele>2055</ele></trkpt>
      <trkpt lat="46.608356" lon="11.714227"><ele>2054</ele></trkpt>
      <trkpt lat="46.6083" lon="11.713965"><ele>2052</ele></trkpt>
      <trkpt lat="46.608288" lon="11.713873"><ele>2051</ele></trkpt>
      <trkpt lat="46.608237" lon="11.713745"><ele>2048</ele></trkpt>
      <trkpt lat="46.608226" lon="11.713631"><ele>2046</ele></trkpt>
      <trkpt lat="46.608238" lon="11.71351"><ele>2046</ele></trkpt>
      <trkpt lat="46.608096" lon="11.712902"><ele>2041</ele></trkpt>
      <trkpt lat="46.607877" lon="11.712398"><ele>2037</ele></trkpt>
      <trkpt lat="46.607698" lon="11.712096"><ele>2032</ele></trkpt>
      <trkpt lat="46.607309" lon="11.711637"><ele>2022</ele></trkpt>
      <trkpt lat="46.606924" lon="11.711466"><ele>2013</ele></trkpt>
      <trkpt lat="46.606532" lon="11.711033"><ele>2004</ele></trkpt>
      <trkpt lat="46.606481" lon="11.711109"><ele>2001</ele></trkpt>
      <trkpt lat="46.606454" lon="11.71125"><ele>2001</ele></trkpt>
      <trkpt lat="46.606403" lon="11.711266"><ele>2000</ele></trkpt>
      <trkpt lat="46.606146" lon="11.711079"><ele>1997</ele></trkpt>
      <trkpt lat="46.60602" lon="11.71103"><ele>1997</ele></trkpt>
      <trkpt lat="46.605905" lon="11.710944"><ele>1995</ele></trkpt>
      <trkpt lat="46.605804" lon="11.710923"><ele>1994</ele></trkpt>
      <trkpt lat="46.605731" lon="11.710866"><ele>1992</ele></trkpt>
      <trkpt lat="46.605641" lon="11.710727"><ele>1990</ele></trkpt>
      <trkpt lat="46.605492" lon="11.710593"><ele>1988</ele></trkpt>
      <trkpt lat="46.605341" lon="11.710307"><ele>1987</ele></trkpt>
      <trkpt lat="46.605261" lon="11.710123"><ele>1985</ele></trkpt>
      <trkpt lat="46.605122" lon="11.709975"><ele>1981</ele></trkpt>
      <trkpt lat="46.604844" lon="11.709468"><ele>1977</ele></trkpt>
      <trkpt lat="46.60469" lon="11.709327"><ele>1973</ele></trkpt>
      <trkpt lat="46.604181" lon="11.708762"><ele>1959</ele></trkpt>
      <trkpt lat="46.60399" lon="11.70862"><ele>1957</ele></trkpt>
      <trkpt lat="46.603902" lon="11.70842"><ele>1956</ele></trkpt>
      <trkpt lat="46.60362" lon="11.708216"><ele>1952</ele></trkpt>
      <trkpt lat="46.603318" lon="11.707501"><ele>1939</ele></trkpt>
      <trkpt lat="46.603004" lon="11.707092"><ele>1927</ele></trkpt>
      <trkpt lat="46.602767" lon="11.706529"><ele>1924</ele></trkpt>
      <trkpt lat="46.602699" lon="11.706215"><ele>1918</ele></trkpt>
      <trkpt lat="46.602727" lon="11.706167"><ele>1918</ele></trkpt>
      <trkpt lat="46.602816" lon="11.706159"><ele>1919</ele></trkpt>
      <trkpt lat="46.60282" lon="11.706073"><ele>1918</ele></trkpt>
      <trkpt lat="46.602771" lon="11.705964"><ele>1914</ele></trkpt>
      <trkpt lat="46.602618" lon="11.705825"><ele>1908</ele></trkpt>
      <trkpt lat="46.60238" lon="11.705941"><ele>1902</ele></trkpt>
      <trkpt lat="46.602157" lon="11.70624"><ele>1898</ele></trkpt>
      <trkpt lat="46.602097" lon="11.706448"><ele>1894</ele></trkpt>
      <trkpt lat="46.602141" lon="11.70666"><ele>1894</ele></trkpt>
      <trkpt lat="46.601874" lon="11.707168"><ele>1881</ele></trkpt>
      <trkpt lat="46.601798" lon="11.707384"><ele>1878</ele></trkpt>
      <trkpt lat="46.601726" lon="11.707903"><ele>1872</ele></trkpt>
      <trkpt lat="46.601634" lon="11.707906"><ele>1868</ele></trkpt>
      <trkpt lat="46.601413" lon="11.707703"><ele>1860</ele></trkpt>
      <trkpt lat="46.601291" lon="11.707455"><ele>1858</ele></trkpt>
      <trkpt lat="46.601108" lon="11.707192"><ele>1851</ele></trkpt>
      <trkpt lat="46.600862" lon="11.70706"><ele>1844</ele></trkpt>
      <trkpt lat="46.600717" lon="11.706745"><ele>1839</ele></trkpt>
      <trkpt lat="46.600565" lon="11.706758"><ele>1835</ele></trkpt>
      <trkpt lat="46.600423" lon="11.706725"><ele>1831</ele></trkpt>
      <trkpt lat="46.600263" lon="11.706676"><ele>1826</ele></trkpt>
      <trkpt lat="46.600128" lon="11.70651"><ele>1824</ele></trkpt>
      <trkpt lat="46.600017" lon="11.706142"><ele>1819</ele></trkpt>
      <trkpt lat="46.599928" lon="11.706128"><ele>1819</ele></trkpt>
      <trkpt lat="46.599835" lon="11.706137"><ele>1820</ele></trkpt>
      <trkpt lat="46.599739" lon="11.706091"><ele>1821</ele></trkpt>
      <trkpt lat="46.599736" lon="11.706076"><ele>1820</ele></trkpt>
      <trkpt lat="46.599699" lon="11.705812"><ele>1818</ele></trkpt>
      <trkpt lat="46.599624" lon="11.705655"><ele>1817</ele></trkpt>
      <trkpt lat="46.599584" lon="11.705505"><ele>1816</ele></trkpt>
      <trkpt lat="46.599397" lon="11.705254"><ele>1814</ele></trkpt>
      <trkpt lat="46.599085" lon="11.704784"><ele>1808</ele></trkpt>
      <trkpt lat="46.598725" lon="11.704169"><ele>1801</ele></trkpt>
      <trkpt lat="46.598592" lon="11.704111"><ele>1801</ele></trkpt>
      <trkpt lat="46.598167" lon="11.704042"><ele>1796</ele></trkpt>
      <trkpt lat="46.597959" lon="11.703885"><ele>1794</ele></trkpt>
      <trkpt lat="46.597724" lon="11.703588"><ele>1791</ele></trkpt>
      <trkpt lat="46.59722" lon="11.703424"><ele>1786</ele></trkpt>
      <trkpt lat="46.596981" lon="11.703313"><ele>1785</ele></trkpt>
      <trkpt lat="46.596815" lon="11.703344"><ele>1784</ele></trkpt>
      <trkpt lat="46.59666" lon="11.70332"><ele>1781</ele></trkpt>
      <trkpt lat="46.596557" lon="11.703369"><ele>1780</ele></trkpt>
      <trkpt lat="46.596474" lon="11.703283"><ele>1777</ele></trkpt>
      <trkpt lat="46.595976" lon="11.703102"><ele>1773</ele></trkpt>
      <trkpt lat="46.595726" lon="11.702945"><ele>1773</ele></trkpt>
      <trkpt lat="46.595555" lon="11.702767"><ele>1770</ele></trkpt>
      <trkpt lat="46.595478" lon="11.702666"><ele>1768</ele></trkpt>
      <trkpt lat="46.595419" lon="11.702628"><ele>1768</ele></trkpt>
      <trkpt lat="46.59532" lon="11.702589"><ele>1768</ele></trkpt>
      <trkpt lat="46.594982" lon="11.702389"><ele>1764</ele></trkpt>
      <trkpt lat="46.594627" lon="11.70213"><ele>1760</ele></trkpt>
      <trkpt lat="46.594408" lon="11.702037"><ele>1758</ele></trkpt>
      <trkpt lat="46.594235" lon="11.701984"><ele>1756</ele></trkpt>
      <trkpt lat="46.594046" lon="11.702004"><ele>1754</ele></trkpt>
      <trkpt lat="46.593746" lon="11.701973"><ele>1750</ele></trkpt>
      <trkpt lat="46.593033" lon="11.701756"><ele>1744</ele></trkpt>
      <trkpt lat="46.592939" lon="11.701689"><ele>1744</ele></trkpt>
      <trkpt lat="46.592737" lon="11.701448"><ele>1741</ele></trkpt>
      <trkpt lat="46.592573" lon="11.701174"><ele>1738</ele></trkpt>
      <trkpt lat="46.592406" lon="11.700951"><ele>1736</ele></trkpt>
      <trkpt lat="46.592295" lon="11.70084"><ele>1734</ele></trkpt>
      <trkpt lat="46.591955" lon="11.700644"><ele>1730</ele></trkpt>
      <trkpt lat="46.591634" lon="11.700543"><ele>1727</ele></trkpt>
      <trkpt lat="46.591564" lon="11.700626"><ele>1726</ele></trkpt>
      <trkpt lat="46.591516" lon="11.700659"><ele>1726</ele></trkpt>
      <trkpt lat="46.591374" lon="11.700682"><ele>1725</ele></trkpt>
      <trkpt lat="46.591283" lon="11.700677"><ele>1725</ele></trkpt>
      <trkpt lat="46.591208" lon="11.700661"><ele>1724</ele></trkpt>
      <trkpt lat="46.591128" lon="11.700604"><ele>1724</ele></trkpt>
      <trkpt lat="46.59108" lon="11.700539"><ele>1724</ele></trkpt>
      <trkpt lat="46.59104" lon="11.700458"><ele>1724</ele></trkpt>
      <trkpt lat="46.591012" lon="11.700381"><ele>1724</ele></trkpt>
      <trkpt lat="46.590967" lon="11.70033"><ele>1725</ele></trkpt>
      <trkpt lat="46.590824" lon="11.700239"><ele>1727</ele></trkpt>
      <trkpt lat="46.590512" lon="11.700115"><ele>1731</ele></trkpt>
      <trkpt lat="46.590373" lon="11.700083"><ele>1735</ele></trkpt>
      <trkpt lat="46.590306" lon="11.700104"><ele>1737</ele></trkpt>
      <trkpt lat="46.590237" lon="11.70015"><ele>1738</ele></trkpt>
      <trkpt lat="46.590177" lon="11.700215"><ele>1737</ele></trkpt>
      <trkpt lat="46.590015" lon="11.700427"><ele>1735</ele></trkpt>
      <trkpt lat="46.589952" lon="11.700527"><ele>1734</ele></trkpt>
      <trkpt lat="46.589921" lon="11.700603"><ele>1733</ele></trkpt>
      <trkpt lat="46.589905" lon="11.700681"><ele>1732</ele></trkpt>
      <trkpt lat="46.589901" lon="11.700771"><ele>1731</ele></trkpt>
      <trkpt lat="46.589906" lon="11.700856"><ele>1731</ele></trkpt>
      <trkpt lat="46.589936" lon="11.701104"><ele>1731</ele></trkpt>
      <trkpt lat="46.589944" lon="11.701234"><ele>1730</ele></trkpt>
      <trkpt lat="46.589935" lon="11.701371"><ele>1729</ele></trkpt>
      <trkpt lat="46.589942" lon="11.701761"><ele>1727</ele></trkpt>
      <trkpt lat="46.589932" lon="11.701876"><ele>1727</ele></trkpt>
      <trkpt lat="46.589862" lon="11.702112"><ele>1727</ele></trkpt>
      <trkpt lat="46.589875" lon="11.702235"><ele>1728</ele></trkpt>
      <trkpt lat="46.589897" lon="11.702305"><ele>1727</ele></trkpt>
      <trkpt lat="46.589965" lon="11.702433"><ele>1725</ele></trkpt>
      <trkpt lat="46.590032" lon="11.70251"><ele>1725</ele></trkpt>
      <trkpt lat="46.590059" lon="11.70256"><ele>1725</ele></trkpt>
      <trkpt lat="46.590134" lon="11.702788"><ele>1721</ele></trkpt>
      <trkpt lat="46.59018" lon="11.702868"><ele>1721</ele></trkpt>
      <trkpt lat="46.590314" lon="11.703344"><ele>1717</ele></trkpt>
      <trkpt lat="46.590458" lon="11.703885"><ele>1712</ele></trkpt>
      <trkpt lat="46.590449" lon="11.704288"><ele>1711</ele></trkpt>
      <trkpt lat="46.590356" lon="11.704743"><ele>1714</ele></trkpt>
      <trkpt lat="46.590301" lon="11.704882"><ele>1716</ele></trkpt>
      <trkpt lat="46.590331" lon="11.704956"><ele>1718</ele></trkpt>
      <trkpt lat="46.590367" lon="11.705123"><ele>1721</ele></trkpt>
      <trkpt lat="46.59042" lon="11.705253"><ele>1722</ele></trkpt>
      <trkpt lat="46.590485" lon="11.705337"><ele>1723</ele></trkpt>
      <trkpt lat="46.590734" lon="11.705578"><ele>1725</ele></trkpt>
      <trkpt lat="46.590828" lon="11.70565"><ele>1725</ele></trkpt>
      <trkpt lat="46.591036" lon="11.705729"><ele>1727</ele></trkpt>
      <trkpt lat="46.591152" lon="11.705906"><ele>1728</ele></trkpt>
      <trkpt lat="46.591383" lon="11.706447"><ele>1731</ele></trkpt>
      <trkpt lat="46.591449" lon="11.70666"><ele>1734</ele></trkpt>
      <trkpt lat="46.591528" lon="11.706998"><ele>1739</ele></trkpt>
      <trkpt lat="46.591494" lon="11.707118"><ele>1740</ele></trkpt>
      <trkpt lat="46.591485" lon="11.707174"><ele>1741</ele></trkpt>
      <trkpt lat="46.591481" lon="11.707211"><ele>1741</ele></trkpt>
      <trkpt lat="46.591572" lon="11.707555"><ele>1745</ele></trkpt>
      <trkpt lat="46.591612" lon="11.707668"><ele>1746</ele></trkpt>
      <trkpt lat="46.592021" lon="11.708536"><ele>1760</ele></trkpt>
      <trkpt lat="46.59231" lon="11.709212"><ele>1770</ele></trkpt>
      <trkpt lat="46.592386" lon="11.709364"><ele>1773</ele></trkpt>
      <trkpt lat="46.592483" lon="11.70949"><ele>1774</ele></trkpt>
      <trkpt lat="46.592627" lon="11.709601"><ele>1778</ele></trkpt>
      <trkpt lat="46.592874" lon="11.709757"><ele>1783</ele></trkpt>
      <trkpt lat="46.593152" lon="11.709889"><ele>1788</ele></trkpt>
      <trkpt lat="46.593493" lon="11.710066"><ele>1795</ele></trkpt>
      <trkpt lat="46.593634" lon="11.710187"><ele>1798</ele></trkpt>
      <trkpt lat="46.593785" lon="11.710404"><ele>1803</ele></trkpt>
      <trkpt lat="46.593941" lon="11.710657"><ele>1807</ele></trkpt>
      <trkpt lat="46.59408" lon="11.710822"><ele>1811</ele></trkpt>
      <trkpt lat="46.594262" lon="11.711074"><ele>1816</ele></trkpt>
      <trkpt lat="46.594388" lon="11.711273"><ele>1820</ele></trkpt>
      <trkpt lat="46.594457" lon="11.711401"><ele>1822</ele></trkpt>
      <trkpt lat="46.594501" lon="11.71152"><ele>1825</ele></trkpt>
      <trkpt lat="46.594534" lon="11.711688"><ele>1827</ele></trkpt>
      <trkpt lat="46.594608" lon="11.712282"><ele>1836</ele></trkpt>
      <trkpt lat="46.594634" lon="11.712546"><ele>1841</ele></trkpt>
      <trkpt lat="46.594643" lon="11.712746"><ele>1845</ele></trkpt>
      <trkpt lat="46.594638" lon="11.712891"><ele>1847</ele></trkpt>
      <trkpt lat="46.594621" lon="11.713031"><ele>1849</ele></trkpt>
      <trkpt lat="46.594593" lon="11.713095"><ele>1851</ele></trkpt>
      <trkpt lat="46.594551" lon="11.713136"><ele>1852</ele></trkpt>
      <trkpt lat="46.594485" lon="11.71315"><ele>1853</ele></trkpt>
      <trkpt lat="46.59437" lon="11.713127"><ele>1855</ele></trkpt>
      <trkpt lat="46.594314" lon="11.713124"><ele>1856</ele></trkpt>
      <trkpt lat="46.594269" lon="11.713134"><ele>1858</ele></trkpt>
      <trkpt lat="46.593891" lon="11.7133"><ele>1865</ele></trkpt>
      <trkpt lat="46.593722" lon="11.713337"><ele>1870</ele></trkpt>
      <trkpt lat="46.593582" lon="11.713319"><ele>1874</ele></trkpt>
      <trkpt lat="46.593399" lon="11.713272"><ele>1879</ele></trkpt>
      <trkpt lat="46.593261" lon="11.71325"><ele>1883</ele></trkpt>
      <trkpt lat="46.593207" lon="11.713265"><ele>1885</ele></trkpt>
      <trkpt lat="46.593159" lon="11.71329"><ele>1887</ele></trkpt>
      <trkpt lat="46.593054" lon="11.713405"><ele>1892</ele></trkpt>
      <trkpt lat="46.592859" lon="11.713799"><ele>1899</ele></trkpt>
      <trkpt lat="46.59281" lon="11.713877"><ele>1902</ele></trkpt>
      <trkpt lat="46.592753" lon="11.713945"><ele>1904</ele></trkpt>
      <trkpt lat="46.592678" lon="11.714018"><ele>1905</ele></trkpt>
      <trkpt lat="46.592602" lon="11.714071"><ele>1906</ele></trkpt>
      <trkpt lat="46.591659" lon="11.714642"><ele>1928</ele></trkpt>
      <trkpt lat="46.591602" lon="11.714692"><ele>1931</ele></trkpt>
      <trkpt lat="46.591571" lon="11.714757"><ele>1934</ele></trkpt>
      <trkpt lat="46.59156" lon="11.714818"><ele>1936</ele></trkpt>
      <trkpt lat="46.591563" lon="11.714907"><ele>1938</ele></trkpt>
      <trkpt lat="46.591583" lon="11.714971"><ele>1940</ele></trkpt>
      <trkpt lat="46.591617" lon="11.715025"><ele>1941</ele></trkpt>
      <trkpt lat="46.591681" lon="11.715076"><ele>1942</ele></trkpt>
      <trkpt lat="46.591774" lon="11.715139"><ele>1945</ele></trkpt>
      <trkpt lat="46.592528" lon="11.715572"><ele>1962</ele></trkpt>
      <trkpt lat="46.593406" lon="11.716016"><ele>1986</ele></trkpt>
      <trkpt lat="46.593458" lon="11.716067"><ele>1988</ele></trkpt>
      <trkpt lat="46.593496" lon="11.716141"><ele>1991</ele></trkpt>
      <trkpt lat="46.593514" lon="11.716226"><ele>1993</ele></trkpt>
      <trkpt lat="46.593509" lon="11.716313"><ele>1995</ele></trkpt>
      <trkpt lat="46.593486" lon="11.716392"><ele>1996</ele></trkpt>
      <trkpt lat="46.593407" lon="11.71652"><ele>1998</ele></trkpt>
      <trkpt lat="46.593344" lon="11.716575"><ele>1999</ele></trkpt>
      <trkpt lat="46.593005" lon="11.716767"><ele>2005</ele></trkpt>
      <trkpt lat="46.592726" lon="11.716965"><ele>2014</ele></trkpt>
      <trkpt lat="46.591825" lon="11.7177"><ele>2045</ele></trkpt>
      <trkpt lat="46.591613" lon="11.717833"><ele>2052</ele></trkpt>
      <trkpt lat="46.591455" lon="11.717916"><ele>2056</ele></trkpt>
      <trkpt lat="46.591321" lon="11.71795"><ele>2061</ele></trkpt>
      <trkpt lat="46.591185" lon="11.717963"><ele>2066</ele></trkpt>
      <trkpt lat="46.591001" lon="11.717946"><ele>2069</ele></trkpt>
      <trkpt lat="46.590918" lon="11.717958"><ele>2071</ele></trkpt>
      <trkpt lat="46.590813" lon="11.717999"><ele>2074</ele></trkpt>
      <trkpt lat="46.590504" lon="11.718262"><ele>2080</ele></trkpt>
      <trkpt lat="46.590368" lon="11.718403"><ele>2083</ele></trkpt>
      <trkpt lat="46.590246" lon="11.718557"><ele>2084</ele></trkpt>
      <trkpt lat="46.589628" lon="11.719597"><ele>2107</ele></trkpt>
      <trkpt lat="46.589577" lon="11.719676"><ele>2110</ele></trkpt>
      <trkpt lat="46.589512" lon="11.719748"><ele>2111</ele></trkpt>
      <trkpt lat="46.589325" lon="11.71983"><ele>2112</ele></trkpt>
      <trkpt lat="46.589243" lon="11.719886"><ele>2114</ele></trkpt>
      <trkpt lat="46.589169" lon="11.719959"><ele>2117</ele></trkpt>
      <trkpt lat="46.589076" lon="11.720101"><ele>2118</ele></trkpt>
      <trkpt lat="46.588621" lon="11.721012"><ele>2128</ele></trkpt>
      <trkpt lat="46.588281" lon="11.721423"><ele>2136</ele></trkpt>
      <trkpt lat="46.587955" lon="11.721687"><ele>2142</ele></trkpt>
      <trkpt lat="46.587921" lon="11.721723"><ele>2143</ele></trkpt>
      <trkpt lat="46.587842" lon="11.721835"><ele>2145</ele></trkpt>
      <trkpt lat="46.587858" lon="11.721887"><ele>2147</ele></trkpt>
      <trkpt lat="46.587885" lon="11.721919"><ele>2149</ele></trkpt>
      <trkpt lat="46.587934" lon="11.721932"><ele>2150</ele></trkpt>
      <trkpt lat="46.588052" lon="11.721909"><ele>2151</ele></trkpt>
      <trkpt lat="46.588129" lon="11.721955"><ele>2154</ele></trkpt>
      <trkpt lat="46.588399" lon="11.722157"><ele>2163</ele></trkpt>
      <trkpt lat="46.588951" lon="11.722549"><ele>2180</ele></trkpt>
      <trkpt lat="46.589234" lon="11.722774"><ele>2190</ele></trkpt>
      <trkpt lat="46.589579" lon="11.723058"><ele>2198</ele></trkpt>
      <trkpt lat="46.589833" lon="11.723253"><ele>2203</ele></trkpt>
      <trkpt lat="46.590078" lon="11.723491"><ele>2210</ele></trkpt>
      <trkpt lat="46.590122" lon="11.723512"><ele>2211</ele></trkpt>
      <trkpt lat="46.590176" lon="11.723516"><ele>2213</ele></trkpt>
      <trkpt lat="46.590232" lon="11.723506"><ele>2215</ele></trkpt>
      <trkpt lat="46.590299" lon="11.723473"><ele>2216</ele></trkpt>
      <trkpt lat="46.590353" lon="11.723431"><ele>2218</ele></trkpt>
      <trkpt lat="46.590401" lon="11.723374"><ele>2219</ele></trkpt>
      <trkpt lat="46.590428" lon="11.72332"><ele>2219</ele></trkpt>
      <trkpt lat="46.590453" lon="11.723243"><ele>2220</ele></trkpt>
      <trkpt lat="46.590632" lon="11.722484"><ele>2231</ele></trkpt>
      <trkpt lat="46.590678" lon="11.722325"><ele>2232</ele></trkpt>
      <trkpt lat="46.590731" lon="11.722358"><ele>2235</ele></trkpt>
      <trkpt lat="46.590774" lon="11.722376"><ele>2236</ele></trkpt>
      <trkpt lat="46.590831" lon="11.722428"><ele>2238</ele></trkpt>
      <trkpt lat="46.590981" lon="11.722689"><ele>2247</ele></trkpt>
      <trkpt lat="46.591066" lon="11.722915"><ele>2252</ele></trkpt>
      <trkpt lat="46.591204" lon="11.723369"><ele>2264</ele></trkpt>
      <trkpt lat="46.591303" lon="11.723848"><ele>2273</ele></trkpt>
      <trkpt lat="46.591339" lon="11.723977"><ele>2275</ele></trkpt>
      <trkpt lat="46.591481" lon="11.724329"><ele>2282</ele></trkpt>
      <trkpt lat="46.591572" lon="11.724728"><ele>2285</ele></trkpt>
      <trkpt lat="46.591629" lon="11.724949"><ele>2289</ele></trkpt>
      <trkpt lat="46.591721" lon="11.725277"><ele>2291</ele></trkpt>
      <trkpt lat="46.591813" lon="11.725525"><ele>2293</ele></trkpt>
      <trkpt lat="46.591902" lon="11.725744"><ele>2294</ele></trkpt>
      <trkpt lat="46.592378" lon="11.726704"><ele>2299</ele></trkpt>
      <trkpt lat="46.592421" lon="11.726755"><ele>2300</ele></trkpt>
      <trkpt lat="46.592467" lon="11.726791"><ele>2300</ele></trkpt>
      <trkpt lat="46.592555" lon="11.726822"><ele>2301</ele></trkpt>
      <trkpt lat="46.592758" lon="11.726847"><ele>2302</ele></trkpt>
      <trkpt lat="46.592921" lon="11.726847"><ele>2303</ele></trkpt>
      <trkpt lat="46.592921" lon="11.726786"><ele>2304</ele></trkpt>
      <trkpt lat="46.592932" lon="11.726722"><ele>2304</ele></trkpt>
      <trkpt lat="46.592963" lon="11.726642"><ele>2306</ele></trkpt>
      <trkpt lat="46.593016" lon="11.726579"><ele>2308</ele></trkpt>
      <trkpt lat="46.593061" lon="11.726547"><ele>2309</ele></trkpt>
      <trkpt lat="46.593112" lon="11.72653"><ele>2310</ele></trkpt>
      <trkpt lat="46.593164" lon="11.726527"><ele>2310</ele></trkpt>
      <trkpt lat="46.593323" lon="11.726561"><ele>2311</ele></trkpt>
      <trkpt lat="46.593417" lon="11.726568"><ele>2313</ele></trkpt>
      <trkpt lat="46.593535" lon="11.726562"><ele>2315</ele></trkpt>
      <trkpt lat="46.593669" lon="11.726528"><ele>2317</ele></trkpt>
      <trkpt lat="46.593872" lon="11.726423"><ele>2320</ele></trkpt>
      <trkpt lat="46.593914" lon="11.726412"><ele>2321</ele></trkpt>
      <trkpt lat="46.593966" lon="11.72642"><ele>2322</ele></trkpt>
      <trkpt lat="46.594089" lon="11.726499"><ele>2322</ele></trkpt>
      <trkpt lat="46.594177" lon="11.726533"><ele>2322</ele></trkpt>
      <trkpt lat="46.594349" lon="11.726532"><ele>2323</ele></trkpt>
      <trkpt lat="46.594624" lon="11.726553"><ele>2326</ele></trkpt>
      <trkpt lat="46.594682" lon="11.726563"><ele>2326</ele></trkpt>
      <trkpt lat="46.594737" lon="11.726601"><ele>2326</ele></trkpt>
      <trkpt lat="46.594802" lon="11.726663"><ele>2328</ele></trkpt>
      <trkpt lat="46.594993" lon="11.727052"><ele>2333</ele></trkpt>
      <trkpt lat="46.595043" lon="11.727139"><ele>2333</ele></trkpt>
      <trkpt lat="46.595081" lon="11.727183"><ele>2333</ele></trkpt>
      <trkpt lat="46.595119" lon="11.727202"><ele>2333</ele></trkpt>
      <trkpt lat="46.595159" lon="11.727209"><ele>2333</ele></trkpt>
      <trkpt lat="46.595273" lon="11.727205"><ele>2334</ele></trkpt>
      <trkpt lat="46.595344" lon="11.727252"><ele>2336</ele></trkpt>
      <trkpt lat="46.595437" lon="11.727449"><ele>2339</ele></trkpt>
      <trkpt lat="46.595514" lon="11.7276"><ele>2339</ele></trkpt>
      <trkpt lat="46.595606" lon="11.727804"><ele>2341</ele></trkpt>
      <trkpt lat="46.595655" lon="11.727884"><ele>2342</ele></trkpt>
      <trkpt lat="46.595896" lon="11.728122"><ele>2345</ele></trkpt>
      <trkpt lat="46.595999" lon="11.728185"><ele>2348</ele></trkpt>
      <trkpt lat="46.596045" lon="11.728237"><ele>2348</ele></trkpt>
      <trkpt lat="46.596186" lon="11.728451"><ele>2350</ele></trkpt>
      <trkpt lat="46.596271" lon="11.728554"><ele>2351</ele></trkpt>
      <trkpt lat="46.596355" lon="11.728632"><ele>2351</ele></trkpt>
      <trkpt lat="46.596418" lon="11.72867"><ele>2352</ele></trkpt>
      <trkpt lat="46.596484" lon="11.728692"><ele>2353</ele></trkpt>
      <trkpt lat="46.596545" lon="11.728699"><ele>2355</ele></trkpt>
      <trkpt lat="46.59677" lon="11.728684"><ele>2362</ele></trkpt>
      <trkpt lat="46.596843" lon="11.728708"><ele>2363</ele></trkpt>
      <trkpt lat="46.596897" lon="11.728747"><ele>2364</ele></trkpt>
      <trkpt lat="46.596955" lon="11.728809"><ele>2365</ele></trkpt>
      <trkpt lat="46.597022" lon="11.7289"><ele>2366</ele></trkpt>
      <trkpt lat="46.597141" lon="11.729108"><ele>2368</ele></trkpt>
      <trkpt lat="46.597262" lon="11.72934"><ele>2371</ele></trkpt>
      <trkpt lat="46.597346" lon="11.729414"><ele>2373</ele></trkpt>
      <trkpt lat="46.597399" lon="11.729444"><ele>2374</ele></trkpt>
      <trkpt lat="46.597708" lon="11.729461"><ele>2380</ele></trkpt>
      <trkpt lat="46.597822" lon="11.72945"><ele>2382</ele></trkpt>
      <trkpt lat="46.597866" lon="11.729424"><ele>2383</ele></trkpt>
      <trkpt lat="46.597899" lon="11.729335"><ele>2385</ele></trkpt>
      <trkpt lat="46.597903" lon="11.72918"><ele>2388</ele></trkpt>
      <trkpt lat="46.597887" lon="11.728699"><ele>2394</ele></trkpt>
      <trkpt lat="46.59783" lon="11.72831"><ele>2400</ele></trkpt>
      <trkpt lat="46.597714" lon="11.727778"><ele>2408</ele></trkpt>
      <trkpt lat="46.597666" lon="11.727597"><ele>2410</ele></trkpt>
      <trkpt lat="46.597583" lon="11.727393"><ele>2412</ele></trkpt>
      <trkpt lat="46.597569" lon="11.727318"><ele>2412</ele></trkpt>
      <trkpt lat="46.597553" lon="11.727172"><ele>2413</ele></trkpt>
      <trkpt lat="46.597591" lon="11.726846"><ele>2413</ele></trkpt>
      <trkpt lat="46.59767" lon="11.726588"><ele>2416</ele></trkpt>
      <trkpt lat="46.597717" lon="11.726534"><ele>2417</ele></trkpt>
      <trkpt lat="46.597741" lon="11.726486"><ele>2418</ele></trkpt>
      <trkpt lat="46.597745" lon="11.726461"><ele>2418</ele></trkpt>
      <trkpt lat="46.597726" lon="11.726354"><ele>2419</ele></trkpt>
      <trkpt lat="46.597737" lon="11.726326"><ele>2420</ele></trkpt>
      <trkpt lat="46.597781" lon="11.726305"><ele>2421</ele></trkpt>
      <trkpt lat="46.597843" lon="11.726289"><ele>2423</ele></trkpt>
      <trkpt lat="46.598007" lon="11.726263"><ele>2427</ele></trkpt>
      <trkpt lat="46.598068" lon="11.726243"><ele>2429</ele></trkpt>
      <trkpt lat="46.598088" lon="11.726225"><ele>2430</ele></trkpt>
      <trkpt lat="46.598097" lon="11.726193"><ele>2431</ele></trkpt>
      <trkpt lat="46.598082" lon="11.726162"><ele>2431</ele></trkpt>
      <trkpt lat="46.598066" lon="11.726101"><ele>2432</ele></trkpt>
      <trkpt lat="46.598047" lon="11.72592"><ele>2434</ele></trkpt>
      <trkpt lat="46.598048" lon="11.725859"><ele>2435</ele></trkpt>
      <trkpt lat="46.598063" lon="11.72577"><ele>2437</ele></trkpt>
      <trkpt lat="46.598132" lon="11.725551"><ele>2442</ele></trkpt>
      <trkpt lat="46.598135" lon="11.725457"><ele>2443</ele></trkpt>
      <trkpt lat="46.598128" lon="11.725406"><ele>2444</ele></trkpt>
      <trkpt lat="46.598083" lon="11.72527"><ele>2446</ele></trkpt>
      <trkpt lat="46.598068" lon="11.725135"><ele>2448</ele></trkpt>
      <trkpt lat="46.598054" lon="11.725072"><ele>2449</ele></trkpt>
      <trkpt lat="46.597958" lon="11.724882"><ele>2452</ele></trkpt>
      <trkpt lat="46.597928" lon="11.724778"><ele>2454</ele></trkpt>
      <trkpt lat="46.598001" lon="11.72476"><ele>2456</ele></trkpt>
      <trkpt lat="46.598237" lon="11.724652"><ele>2461</ele></trkpt>
      <trkpt lat="46.598292" lon="11.724612"><ele>2463</ele></trkpt>
      <trkpt lat="46.598357" lon="11.724536"><ele>2465</ele></trkpt>
      <trkpt lat="46.598418" lon="11.724442"><ele>2467</ele></trkpt>
      <trkpt lat="46.598477" lon="11.724319"><ele>2466</ele></trkpt>
      <trkpt lat="46.598521" lon="11.724266"><ele>2467</ele></trkpt>
      <trkpt lat="46.598609" lon="11.724193"><ele>2470</ele></trkpt>
      <trkpt lat="46.598653" lon="11.724171"><ele>2471</ele></trkpt>
      <trkpt lat="46.598767" lon="11.724139"><ele>2470</ele></trkpt>
      <trkpt lat="46.598835" lon="11.724134"><ele>2470</ele></trkpt>
      <trkpt lat="46.598893" lon="11.724147"><ele>2472</ele></trkpt>
      <trkpt lat="46.599066" lon="11.724238"><ele>2471</ele></trkpt>
      <trkpt lat="46.599402" lon="11.724479"><ele>2479</ele></trkpt>
      <trkpt lat="46.59971" lon="11.724861"><ele>2487</ele></trkpt>
      <trkpt lat="46.59987" lon="11.725018"><ele>2491</ele></trkpt>
      <trkpt lat="46.600323" lon="11.725538"><ele>2507</ele></trkpt>
      <trkpt lat="46.600403" lon="11.725576"><ele>2508</ele></trkpt>
      <trkpt lat="46.60054" lon="11.725617"><ele>2510</ele></trkpt>
      <trkpt lat="46.600549" lon="11.725696"><ele>2512</ele></trkpt>
      <trkpt lat="46.600535" lon="11.725795"><ele>2514</ele></trkpt>
      <trkpt lat="46.600539" lon="11.725861"><ele>2516</ele></trkpt>
      <trkpt lat="46.600559" lon="11.7259"><ele>2516</ele></trkpt>
      <trkpt lat="46.600589" lon="11.725793"><ele>2513</ele></trkpt>
    </trkseg>
  </trk>
</gpx>
