<?xml version="1.0" encoding="UTF-8"?>
<gpx version="1.1" creator="hike-trip" xmlns="http://www.topografix.com/GPX/1/1">
  <metadata>
    <name>Sass Rigais Summit (via ferrata)</name>
    <desc>Routed with BRouter (hiking-mountain) over OpenStreetMap data through hand-verified anchor points. Schematic in places — verify against signage on the ground. Track traces one direction — return the same way.</desc>
    <copyright author="OpenStreetMap contributors"><license>https://www.openstreetmap.org/copyright</license></copyright>
    <bounds minlat="46.588906" minlon="11.68172" maxlat="46.60953" maxlon="11.704316"/>
  </metadata>
  <wpt lat="46.5887" lon="11.7047"><name>Trailhead — Sass Rigais Summit (via ferrata)</name><sym>Trail Head</sym></wpt>
  <wpt lat="46.6131" lon="11.6917"><ele>3025</ele><name>Sass Rigais</name><sym>Summit</sym></wpt>
  <trk>
    <name>Sass Rigais Summit (via ferrata) (No. 2 / via ferrata)</name>
    <type>hiking</type>
    <trkseg>
      <trkpt lat="46.589072" lon="11.704316"><ele>1689</ele></trkpt>
      <trkpt lat="46.589055" lon="11.704282"><ele>1688</ele></trkpt>
      <trkpt lat="46.589038" lon="11.704059"><ele>1687</ele></trkpt>
      <trkpt lat="46.589003" lon="11.703586"><ele>1682</ele></trkpt>
      <trkpt lat="46.589007" lon="11.703533"><ele>1682</ele></trkpt>
      <trkpt lat="46.588999" lon="11.70348"><ele>1682</ele></trkpt>
      <trkpt lat="46.588931" lon="11.703242"><ele>1684</ele></trkpt>
      <trkpt lat="46.588906" lon="11.703112"><ele>1685</ele></trkpt>
      <trkpt lat="46.588932" lon="11.70293"><ele>1688</ele></trkpt>
      <trkpt lat="46.588951" lon="11.702699"><ele>1691</ele></trkpt>
      <trkpt lat="46.588975" lon="11.702805"><ele>1691</ele></trkpt>
      <trkpt lat="46.589012" lon="11.702898"><ele>1691</ele></trkpt>
      <trkpt lat="46.589059" lon="11.702959"><ele>1692</ele></trkpt>
      <trkpt lat="46.589218" lon="11.703073"><ele>1694</ele></trkpt>
      <trkpt lat="46.589247" lon="11.703114"><ele>1694</ele></trkpt>
      <trkpt lat="46.589268" lon="11.703155"><ele>1694</ele></trkpt>
      <trkpt lat="46.589322" lon="11.703331"><ele>1693</ele></trkpt>
      <trkpt lat="46.589353" lon="11.703404"><ele>1694</ele></trkpt>
      <trkpt lat="46.589423" lon="11.703504"><ele>1697</ele></trkpt>
      <trkpt lat="46.589521" lon="11.703687"><ele>1700</ele></trkpt>
      <trkpt lat="46.589506" lon="11.703778"><ele>1701</ele></trkpt>
      <trkpt lat="46.589607" lon="11.703756"><ele>1702</ele></trkpt>
      <trkpt lat="46.589623" lon="11.703728"><ele>1702</ele></trkpt>
      <trkpt lat="46.589621" lon="11.703678"><ele>1702</ele></trkpt>
      <trkpt lat="46.58963" lon="11.703622"><ele>1702</ele></trkpt>
      <trkpt lat="46.589647" lon="11.703571"><ele>1702</ele></trkpt>
      <trkpt lat="46.589837" lon="11.703259"><ele>1706</ele></trkpt>
      <trkpt lat="46.589842" lon="11.703228"><ele>1707</ele></trkpt>
      <trkpt lat="46.589842" lon="11.703131"><ele>1708</ele></trkpt>
      <trkpt lat="46.589855" lon="11.703034"><ele>1709</ele></trkpt>
      <trkpt lat="46.589848" lon="11.70298"><ele>1710</ele></trkpt>
      <trkpt lat="46.589862" lon="11.702936"><ele>1711</ele></trkpt>
      <trkpt lat="46.589934" lon="11.702907"><ele>1713</ele></trkpt>
      <trkpt lat="46.589966" lon="11.702859"><ele>1715</ele></trkpt>
      <trkpt lat="46.590059" lon="11.702803"><ele>1718</ele></trkpt>
      <trkpt lat="46.590105" lon="11.702808"><ele>1720</ele></trkpt>
      <trkpt lat="46.590134" lon="11.702788"><ele>1721</ele></trkpt>
      <trkpt lat="46.590059" lon="11.70256"><ele>1725</ele></trkpt>
      <trkpt lat="46.590032" lon="11.70251"><ele>1725</ele></trkpt>
      <trkpt lat="46.589965" lon="11.702433"><ele>1725</ele></trkpt>
      <trkpt lat="46.589897" lon="11.702305"><ele>1727</ele></trkpt>
      <trkpt lat="46.589875" lon="11.702235"><ele>1728</ele></trkpt>
      <trkpt lat="46.589862" lon="11.702112"><ele>1727</ele></trkpt>
      <trkpt lat="46.589932" lon="11.701876"><ele>1727</ele></trkpt>
      <trkpt lat="46.589942" lon="11.701761"><ele>1727</ele></trkpt>
      <trkpt lat="46.589935" lon="11.701371"><ele>1729</ele></trkpt>
      <trkpt lat="46.589944" lon="11.701234"><ele>1730</ele></trkpt>
      <trkpt lat="46.589936" lon="11.701104"><ele>1731</ele></trkpt>
      <trkpt lat="46.589906" lon="11.700856"><ele>1731</ele></trkpt>
      <trkpt lat="46.589901" lon="11.700771"><ele>1731</ele></trkpt>
      <trkpt lat="46.589905" lon="11.700681"><ele>1732</ele></trkpt>
      <trkpt lat="46.589921" lon="11.700603"><ele>1733</ele></trkpt>
      <trkpt lat="46.589952" lon="11.700527"><ele>1734</ele></trkpt>
      <trkpt lat="46.590015" lon="11.700427"><ele>1735</ele></trkpt>
      <trkpt lat="46.590177" lon="11.700215"><ele>1737</ele></trkpt>
      <trkpt lat="46.590237" lon="11.70015"><ele>1738</ele></trkpt>
      <trkpt lat="46.590306" lon="11.700104"><ele>1737</ele></trkpt>
      <trkpt lat="46.590373" lon="11.700083"><ele>1735</ele></trkpt>
      <trkpt lat="46.590512" lon="11.700115"><ele>1731</ele></trkpt>
      <trkpt lat="46.590824" lon="11.700239"><ele>1727</ele></trkpt>
      <trkpt lat="46.590967" lon="11.70033"><ele>1725</ele></trkpt>
      <trkpt lat="46.591012" lon="11.700381"><ele>1724</ele></trkpt>
      <trkpt lat="46.59104" lon="11.700458"><ele>1724</ele></trkpt>
      <trkpt lat="46.59108" lon="11.700539"><ele>1724</ele></trkpt>
      <trkpt lat="46.591128" lon="11.700604"><ele>1724</ele></trkpt>
      <trkpt lat="46.591208" lon="11.700661"><ele>1724</ele></trkpt>
      <trkpt lat="46.591283" lon="11.700677"><ele>1725</ele></trkpt>
      <trkpt lat="46.591374" lon="11.700682"><ele>1725</ele></trkpt>
      <trkpt lat="46.591516" lon="11.700659"><ele>1726</ele></trkpt>
      <trkpt lat="46.591564" lon="11.700626"><ele>1726</ele></trkpt>
      <trkpt lat="46.591634" lon="11.700543"><ele>1727</ele></trkpt>
      <trkpt lat="46.591692" lon="11.700485"><ele>1726</ele></trkpt>
      <trkpt lat="46.591756" lon="11.700448"><ele>1726</ele></trkpt>
      <trkpt lat="46.59184" lon="11.700444"><ele>1727</ele></trkpt>
      <trkpt lat="46.591944" lon="11.700467"><ele>1728</ele></trkpt>
      <trkpt lat="46.591991" lon="11.700462"><ele>1728</ele></trkpt>
      <trkpt lat="46.592031" lon="11.699826"><ele>1728</ele></trkpt>
      <trkpt lat="46.591906" lon="11.699755"><ele>1728</ele></trkpt>
      <trkpt lat="46.591876" lon="11.699713"><ele>1728</ele></trkpt>
      <trkpt lat="46.591863" lon="11.699668"><ele>1729</ele></trkpt>
      <trkpt lat="46.591864" lon="11.69963"><ele>1730</ele></trkpt>
      <trkpt lat="46.591877" lon="11.699583"><ele>1731</ele></trkpt>
      <trkpt lat="46.591906" lon="11.699541"><ele>1732</ele></trkpt>
      <trkpt lat="46.591977" lon="11.699475"><ele>1734</ele></trkpt>
      <trkpt lat="46.592062" lon="11.699419"><ele>1736</ele></trkpt>
      <trkpt lat="46.592263" lon="11.69932"><ele>1740</ele></trkpt>
      <trkpt lat="46.592368" lon="11.699283"><ele>1743</ele></trkpt>
      <trkpt lat="46.592498" lon="11.699277"><ele>1745</ele></trkpt>
      <trkpt lat="46.592765" lon="11.699214"><ele>1749</ele></trkpt>
      <trkpt lat="46.592988" lon="11.699112"><ele>1753</ele></trkpt>
      <trkpt lat="46.593419" lon="11.698748"><ele>1759</ele></trkpt>
      <trkpt lat="46.593706" lon="11.69837"><ele>1764</ele></trkpt>
      <trkpt lat="46.593827" lon="11.698139"><ele>1767</ele></trkpt>
      <trkpt lat="46.593847" lon="11.698047"><ele>1768</ele></trkpt>
      <trkpt lat="46.593843" lon="11.697972"><ele>1769</ele></trkpt>
      <trkpt lat="46.593824" lon="11.697869"><ele>1770</ele></trkpt>
      <trkpt lat="46.593721" lon="11.697606"><ele>1774</ele></trkpt>
      <trkpt lat="46.59369" lon="11.69746"><ele>1776</ele></trkpt>
      <trkpt lat="46.593679" lon="11.697358"><ele>1777</ele></trkpt>
      <trkpt lat="46.593677" lon="11.697152"><ele>1780</ele></trkpt>
      <trkpt lat="46.593665" lon="11.696966"><ele>1784</ele></trkpt>
      <trkpt lat="46.593626" lon="11.696817"><ele>1787</ele></trkpt>
      <trkpt lat="46.593582" lon="11.696735"><ele>1788</ele></trkpt>
      <trkpt lat="46.59346" lon="11.696635"><ele>1791</ele></trkpt>
      <trkpt lat="46.593404" lon="11.69662"><ele>1792</ele></trkpt>
      <trkpt lat="46.593726" lon="11.696174"><ele>1794</ele></trkpt>
      <trkpt lat="46.593805" lon="11.696073"><ele>1795</ele></trkpt>
      <trkpt lat="46.593887" lon="11.695996"><ele>1796</ele></trkpt>
      <trkpt lat="46.594225" lon="11.695799"><ele>1797</ele></trkpt>
      <trkpt lat="46.594338" lon="11.695748"><ele>1798</ele></trkpt>
      <trkpt lat="46.594576" lon="11.69569"><ele>1799</ele></trkpt>
      <trkpt lat="46.594874" lon="11.695671"><ele>1801</ele></trkpt>
      <trkpt lat="46.595491" lon="11.695726"><ele>1804</ele></trkpt>
      <trkpt lat="46.596106" lon="11.695696"><ele>1807</ele></trkpt>
      <trkpt lat="46.596367" lon="11.69574"><ele>1808</ele></trkpt>
      <trkpt lat="46.596982" lon="11.695775"><ele>1811</ele></trkpt>
      <trkpt lat="46.597382" lon="11.695879"><ele>1810</ele></trkpt>
      <trkpt lat="46.596982" lon="11.695775"><ele>1811</ele></trkpt>
      <trkpt lat="46.596367" lon="11.69574"><ele>1808</ele></trkpt>
      <trkpt lat="46.596106" lon="11.695696"><ele>1807</ele></trkpt>
      <trkpt lat="46.595491" lon="11.695726"><ele>1804</ele></trkpt>
      <trkpt lat="46.594874" lon="11.695671"><ele>1801</ele></trkpt>
      <trkpt lat="46.594576" lon="11.69569"><ele>1799</ele></trkpt>
      <trkpt lat="46.594338" lon="11.695748"><ele>1798</ele></trkpt>
      <trkpt lat="46.594225" lon="11.695799"><ele>1797</ele></trkpt>
      <trkpt lat="46.593887" lon="11.695996"><ele>1796</ele></trkpt>
      <trkpt lat="46.593805" lon="11.696073"><ele>1795</ele></trkpt>
      <trkpt lat="46.593726" lon="11.696174"><ele>1794</ele></trkpt>
      <trkpt lat="46.593404" lon="11.69662"><ele>1792</ele></trkpt>
      <trkpt lat="46.593233" lon="11.696754"><ele>1791</ele></trkpt>
      <trkpt lat="46.593239" lon="11.696654"><ele>1792</ele></trkpt>
      <trkpt lat="46.593268" lon="11.696569"><ele>1793</ele></trkpt>
      <trkpt lat="46.593289" lon="11.696463"><ele>1793</ele></trkpt>
      <trkpt lat="46.593298" lon="11.696334"><ele>1794</ele></trkpt>
      <trkpt lat="46.593295" lon="11.696248"><ele>1795</ele></trkpt>
      <trkpt lat="46.593216" lon="11.695725"><ele>1798</ele></trkpt>
      <trkpt lat="46.593211" lon="11.695562"><ele>1800</ele></trkpt>
      <trkpt lat="46.593223" lon="11.695271"><ele>1803</ele></trkpt>
      <trkpt lat="46.593211" lon="11.695129"><ele>1805</ele></trkpt>
      <trkpt lat="46.593147" lon="11.694854"><ele>1809</ele></trkpt>
      <trkpt lat="46.593009" lon="11.694431"><ele>1816</ele></trkpt>
      <trkpt lat="46.59296" lon="11.694342"><ele>1818</ele></trkpt>
      <trkpt lat="46.592851" lon="11.6942"><ele>1822</ele></trkpt>
      <trkpt lat="46.592809" lon="11.694105"><ele>1824</ele></trkpt>
      <trkpt lat="46.592792" lon="11.694002"><ele>1827</ele></trkpt>
      <trkpt lat="46.592827" lon="11.693768"><ele>1832</ele></trkpt>
      <trkpt lat="46.592952" lon="11.693393"><ele>1840</ele></trkpt>
      <trkpt lat="46.593462" lon="11.692732"><ele>1863</ele></trkpt>
      <trkpt lat="46.593786" lon="11.692268"><ele>1877</ele></trkpt>
      <trkpt lat="46.59393" lon="11.691856"><ele>1884</ele></trkpt>
      <trkpt lat="46.594211" lon="11.691466"><ele>1893</ele></trkpt>
      <trkpt lat="46.59483" lon="11.690259"><ele>1921</ele></trkpt>
      <trkpt lat="46.595033" lon="11.690121"><ele>1926</ele></trkpt>
      <trkpt lat="46.595416" lon="11.690175"><ele>1934</ele></trkpt>
      <trkpt lat="46.59585" lon="11.690025"><ele>1941</ele></trkpt>
      <trkpt lat="46.596531" lon="11.689161"><ele>1960</ele></trkpt>
      <trkpt lat="46.596784" lon="11.689066"><ele>1967</ele></trkpt>
      <trkpt lat="46.596888" lon="11.688964"><ele>1972</ele></trkpt>
      <trkpt lat="46.596933" lon="11.688803"><ele>1976</ele></trkpt>
      <trkpt lat="46.597276" lon="11.688574"><ele>1986</ele></trkpt>
      <trkpt lat="46.59748" lon="11.687611"><ele>2014</ele></trkpt>
      <trkpt lat="46.59766" lon="11.687272"><ele>2025</ele></trkpt>
      <trkpt lat="46.597714" lon="11.68685"><ele>2038</ele></trkpt>
      <trkpt lat="46.597623" lon="11.686292"><ele>2052</ele></trkpt>
      <trkpt lat="46.597743" lon="11.685642"><ele>2070</ele></trkpt>
      <trkpt lat="46.597969" lon="11.685446"><ele>2080</ele></trkpt>
      <trkpt lat="46.598109" lon="11.684352"><ele>2092</ele></trkpt>
      <trkpt lat="46.598473" lon="11.683403"><ele>2104</ele></trkpt>
      <trkpt lat="46.598543" lon="11.682884"><ele>2109</ele></trkpt>
      <trkpt lat="46.598588" lon="11.682646"><ele>2112</ele></trkpt>
      <trkpt lat="46.598916" lon="11.682331"><ele>2120</ele></trkpt>
      <trkpt lat="46.598929" lon="11.682202"><ele>2121</ele></trkpt>
      <trkpt lat="46.598909" lon="11.682083"><ele>2121</ele></trkpt>
      <trkpt lat="46.598983" lon="11.682248"><ele>2123</ele></trkpt>
      <trkpt lat="46.599145" lon="11.682531"><ele>2128</ele></trkpt>
      <trkpt lat="46.599176" lon="11.682574"><ele>2129</ele></trkpt>
      <trkpt lat="46.599212" lon="11.68259"><ele>2129</ele></trkpt>
      <trkpt lat="46.599263" lon="11.682583"><ele>2130</ele></trkpt>
      <trkpt lat="46.599366" lon="11.68257"><ele>2130</ele></trkpt>
      <trkpt lat="46.599707" lon="11.682667"><ele>2123</ele></trkpt>
      <trkpt lat="46.59976" lon="11.682671"><ele>2121</ele></trkpt>
      <trkpt lat="46.599891" lon="11.682642"><ele>2118</ele></trkpt>
      <trkpt lat="46.60001" lon="11.682651"><ele>2114</ele></trkpt>
      <trkpt lat="46.600171" lon="11.68265"><ele>2111</ele></trkpt>
      <trkpt lat="46.600323" lon="11.682681"><ele>2107</ele></trkpt>
      <trkpt lat="46.600842" lon="11.682709"><ele>2094</ele></trkpt>
      <trkpt lat="46.600896" lon="11.682695"><ele>2093</ele></trkpt>
      <trkpt lat="46.601583" lon="11.682384"><ele>2082</ele></trkpt>
      <trkpt lat="46.602002" lon="11.68214"><ele>2077</ele></trkpt>
      <trkpt lat="46.60218" lon="11.682083"><ele>2076</ele></trkpt>
      <trkpt lat="46.60229" lon="11.682036"><ele>2075</ele></trkpt>
      <trkpt lat="46.602339" lon="11.68201"><ele>2075</ele></trkpt>
      <trkpt lat="46.602367" lon="11.681978"><ele>2075</ele></trkpt>
      <trkpt lat="46.602391" lon="11.681937"><ele>2076</ele></trkpt>
      <trkpt lat="46.602504" lon="11.681869"><ele>2075</ele></trkpt>
      <trkpt lat="46.602666" lon="11.68185"><ele>2075</ele></trkpt>
      <trkpt lat="46.6028" lon="11.681846"><ele>2074</ele></trkpt>
      <trkpt lat="46.602975" lon="11.681776"><ele>2075</ele></trkpt>
      <trkpt lat="46.603274" lon="11.681738"><ele>2077</ele></trkpt>
      <trkpt lat="46.603529" lon="11.68172"><ele>2077</ele></trkpt>
      <trkpt lat="46.603666" lon="11.681741"><ele>2078</ele></trkpt>
      <trkpt lat="46.603699" lon="11.681762"><ele>2078</ele></trkpt>
      <trkpt lat="46.603722" lon="11.681792"><ele>2078</ele></trkpt>
      <trkpt lat="46.603764" lon="11.681878"><ele>2077</ele></trkpt>
      <trkpt lat="46.6039" lon="11.681992"><ele>2079</ele></trkpt>
      <trkpt lat="46.603938" lon="11.682039"><ele>2079</ele></trkpt>
      <trkpt lat="46.603958" lon="11.682082"><ele>2079</ele></trkpt>
      <trkpt lat="46.604128" lon="11.682561"><ele>2079</ele></trkpt>
      <trkpt lat="46.604247" lon="11.682804"><ele>2082</ele></trkpt>
      <trkpt lat="46.604293" lon="11.682882"><ele>2083</ele></trkpt>
      <trkpt lat="46.604513" lon="11.683503"><ele>2088</ele></trkpt>
      <trkpt lat="46.604596" lon="11.683652"><ele>2090</ele></trkpt>
      <trkpt lat="46.604638" lon="11.683745"><ele>2090</ele></trkpt>
      <trkpt lat="46.604709" lon="11.683966"><ele>2090</ele></trkpt>
      <trkpt lat="46.604729" lon="11.684012"><ele>2090</ele></trkpt>
      <trkpt lat="46.604782" lon="11.684118"><ele>2091</ele></trkpt>
      <trkpt lat="46.604933" lon="11.684317"><ele>2092</ele></trkpt>
      <trkpt lat="46.604982" lon="11.684357"><ele>2092</ele></trkpt>
      <trkpt lat="46.605048" lon="11.684397"><ele>2092</ele></trkpt>
      <trkpt lat="46.605255" lon="11.684457"><ele>2093</ele></trkpt>
      <trkpt lat="46.60542" lon="11.684484"><ele>2093</ele></trkpt>
      <trkpt lat="46.606073" lon="11.684551"><ele>2089</ele></trkpt>
      <trkpt lat="46.606567" lon="11.684529"><ele>2086</ele></trkpt>
      <trkpt lat="46.606598" lon="11.68454"><ele>2086</ele></trkpt>
      <trkpt lat="46.606626" lon="11.684561"><ele>2085</ele></trkpt>
      <trkpt lat="46.60665" lon="11.684622"><ele>2085</ele></trkpt>
      <trkpt lat="46.606653" lon="11.68467"><ele>2085</ele></trkpt>
      <trkpt lat="46.606628" lon="11.685022"><ele>2086</ele></trkpt>
      <trkpt lat="46.606633" lon="11.685265"><ele>2089</ele></trkpt>
      <trkpt lat="46.606574" lon="11.686071"><ele>2095</ele></trkpt>
      <trkpt lat="46.606577" lon="11.686164"><ele>2096</ele></trkpt>
      <trkpt lat="46.606591" lon="11.686255"><ele>2096</ele></trkpt>
      <trkpt lat="46.606634" lon="11.686401"><ele>2098</ele></trkpt>
      <trkpt lat="46.606828" lon="11.686645"><ele>2101</ele></trkpt>
      <trkpt lat="46.607157" lon="11.687032"><ele>2107</ele></trkpt>
      <trkpt lat="46.60721" lon="11.68711"><ele>2108</ele></trkpt>
      <trkpt lat="46.607229" lon="11.68717"><ele>2109</ele></trkpt>
      <trkpt lat="46.607294" lon="11.687451"><ele>2111</ele></trkpt>
      <trkpt lat="46.607324" lon="11.687537"><ele>2112</ele></trkpt>
      <trkpt lat="46.607381" lon="11.687632"><ele>2114</ele></trkpt>
      <trkpt lat="46.607539" lon="11.6878"><ele>2118</ele></trkpt>
      <trkpt lat="46.607627" lon="11.687916"><ele>2120</ele></trkpt>
      <trkpt lat="46.607699" lon="11.688036"><ele>2122</ele></trkpt>
      <trkpt lat="46.607742" lon="11.688161"><ele>2122</ele></trkpt>
      <trkpt lat="46.60778" lon="11.688232"><ele>2123</ele></trkpt>
      <trkpt lat="46.607825" lon="11.688308"><ele>2124</ele></trkpt>
      <trkpt lat="46.607971" lon="11.688488"><ele>2126</ele></trkpt>
      <trkpt lat="46.608018" lon="11.688559"><ele>2126</ele></trkpt>
      <trkpt lat="46.608057" lon="11.688655"><ele>2127</ele></trkpt>
      <trkpt lat="46.608137" lon="11.688861"><ele>2129</ele></trkpt>
      <trkpt lat="46.608158" lon="11.68893"><ele>2130</ele></trkpt>
      <trkpt lat="46.608171" lon="11.689013"><ele>2131</ele></trkpt>
      <trkpt lat="46.60818" lon="11.689234"><ele>2132</ele></trkpt>
      <trkpt lat="46.608191" lon="11.689318"><ele>2133</ele></trkpt>
      <trkpt lat="46.608207" lon="11.6894"><ele>2134</ele></trkpt>
      <trkpt lat="46.608227" lon="11.689462"><ele>2135</ele></trkpt>
      <trkpt lat="46.608268" lon="11.689545"><ele>2136</ele></trkpt>
      <trkpt lat="46.608294" lon="11.689658"><ele>2138</ele></trkpt>
      <trkpt lat="46.608309" lon="11.689729"><ele>2138</ele></trkpt>
      <trkpt lat="46.608342" lon="11.690008"><ele>2140</ele></trkpt>
      <trkpt lat="46.608357" lon="11.690083"><ele>2141</ele></trkpt>
      <trkpt lat="46.60839" lon="11.690201"><ele>2142</ele></trkpt>
      <trkpt lat="46.608492" lon="11.690513"><ele>2143</ele></trkpt>
      <trkpt lat="46.608635" lon="11.690823"><ele>2147</ele></trkpt>
      <trkpt lat="46.608791" lon="11.691216"><ele>2150</ele></trkpt>
      <trkpt lat="46.609007" lon="11.691956"><ele>2154</ele></trkpt>
      <trkpt lat="46.609036" lon="11.692044"><ele>2154</ele></trkpt>
      <trkpt lat="46.609092" lon="11.692175"><ele>2155</ele></trkpt>
      <trkpt lat="46.609127" lon="11.692287"><ele>2155</ele></trkpt>
      <trkpt lat="46.609174" lon="11.692396"><ele>2155</ele></trkpt>
      <trkpt lat="46.609237" lon="11.692637"><ele>2155</ele></trkpt>
      <trkpt lat="46.609361" lon="11.693017"><ele>2155</ele></trkpt>
      <trkpt lat="46.609402" lon="11.693174"><ele>2155</ele></trkpt>
      <trkpt lat="46.609491" lon="11.693903"><ele>2156</ele></trkpt>
      <trkpt lat="46.609527" lon="11.694131"><ele>2156</ele></trkpt>
      <trkpt lat="46.60953" lon="11.694218"><ele>2157</ele></trkpt>
      <trkpt lat="46.609522" lon="11.694355"><ele>2157</ele></trkpt>
      <trkpt lat="46.609505" lon="11.694486"><ele>2157</ele></trkpt>
      <trkpt lat="46.609429" lon="11.694727"><ele>2159</ele></trkpt>
      <trkpt lat="46.609393" lon="11.694797"><ele>2159</ele></trkpt>
      <trkpt lat="46.609169" lon="11.695145"><ele>2162</ele></trkpt>
      <trkpt lat="46.609069" lon="11.695355"><ele>2163</ele></trkpt>
      <trkpt lat="46.609008" lon="11.69551"><ele>2164</ele></trkpt>
      <trkpt lat="46.608976" lon="11.695701"><ele>2165</ele></trkpt>
      <trkpt lat="46.609008" lon="11.69551"><ele>2164</ele></trkpt>
      <trkpt lat="46.609069" lon="11.695355"><ele>2163</ele></trkpt>
      <trkpt lat="46.609169" lon="11.695145"><ele>2162</ele></trkpt>
      <trkpt lat="46.609393" lon="11.694797"><ele>2159</ele></trkpt>
      <trkpt lat="46.609429" lon="11.694727"><ele>2159</ele></trkpt>
      <trkpt lat="46.609505" lon="11.694486"><ele>2157</ele></trkpt>
      <trkpt lat="46.609522" lon="11.694355"><ele>2157</ele></trkpt>
      <trkpt lat="46.60953" lon="11.694218"><ele>2157</ele></trkpt>
      <trkpt lat="46.609527" lon="11.694131"><ele>2156</ele></trkpt>
      <trkpt lat="46.609491" lon="11.693903"><ele>2156</ele></trkpt>
      <trkpt lat="46.609402" lon="11.693174"><ele>2155</ele></trkpt>
    </trkseg>
  </trk>
</gpx>
