<?xml version="1.0" encoding="UTF-8"?>
<gpx version="1.1" creator="hike-trip" xmlns="http://www.topografix.com/GPX/1/1">
  <metadata>
    <name>Seceda – Pieralongia – Col Raiser</name>
    <desc>Routed with BRouter (hiking-mountain) over OpenStreetMap data through hand-verified anchor points. Schematic in places — verify against signage on the ground.</desc>
    <copyright author="OpenStreetMap contributors"><license>https://www.openstreetmap.org/copyright</license></copyright>
    <bounds minlat="46.584791" minlon="11.724358" maxlat="46.59989" maxlon="11.750169"/>
  </metadata>
  <wpt lat="46.5979" lon="11.7243"><name>Trailhead — Seceda – Pieralongia – Col Raiser</name><sym>Trail Head</sym></wpt>
  <wpt lat="46.5972" lon="11.7477"><ele>2493</ele><name>Seceda</name><sym>Summit</sym></wpt>
  <trk>
    <name>Seceda – Pieralongia – Col Raiser (No. 2b / 1)</name>
    <type>hiking</type>
    <trkseg>
      <trkpt lat="46.597921" lon="11.724358"><ele>2457</ele></trkpt>
      <trkpt lat="46.597838" lon="11.724423"><ele>2457</ele></trkpt>
      <trkpt lat="46.597791" lon="11.724455"><ele>2456</ele></trkpt>
      <trkpt lat="46.597928" lon="11.724778"><ele>2454</ele></trkpt>
      <trkpt lat="46.597958" lon="11.724882"><ele>2452</ele></trkpt>
      <trkpt lat="46.598054" lon="11.725072"><ele>2449</ele></trkpt>
      <trkpt lat="46.598068" lon="11.725135"><ele>2448</ele></trkpt>
      <trkpt lat="46.598083" lon="11.72527"><ele>2446</ele></trkpt>
      <trkpt lat="46.598128" lon="11.725406"><ele>2444</ele></trkpt>
      <trkpt lat="46.598135" lon="11.725457"><ele>2443</ele></trkpt>
      <trkpt lat="46.598132" lon="11.725551"><ele>2442</ele></trkpt>
      <trkpt lat="46.598063" lon="11.72577"><ele>2437</ele></trkpt>
      <trkpt lat="46.598048" lon="11.725859"><ele>2435</ele></trkpt>
      <trkpt lat="46.598047" lon="11.72592"><ele>2434</ele></trkpt>
      <trkpt lat="46.598066" lon="11.726101"><ele>2432</ele></trkpt>
      <trkpt lat="46.598082" lon="11.726162"><ele>2431</ele></trkpt>
      <trkpt lat="46.598097" lon="11.726193"><ele>2431</ele></trkpt>
      <trkpt lat="46.598088" lon="11.726225"><ele>2430</ele></trkpt>
      <trkpt lat="46.598068" lon="11.726243"><ele>2429</ele></trkpt>
      <trkpt lat="46.598007" lon="11.726263"><ele>2427</ele></trkpt>
      <trkpt lat="46.597843" lon="11.726289"><ele>2423</ele></trkpt>
      <trkpt lat="46.597781" lon="11.726305"><ele>2421</ele></trkpt>
      <trkpt lat="46.597737" lon="11.726326"><ele>2420</ele></trkpt>
      <trkpt lat="46.597726" lon="11.726354"><ele>2419</ele></trkpt>
      <trkpt lat="46.597745" lon="11.726461"><ele>2418</ele></trkpt>
      <trkpt lat="46.597741" lon="11.726486"><ele>2418</ele></trkpt>
      <trkpt lat="46.597717" lon="11.726534"><ele>2417</ele></trkpt>
      <trkpt lat="46.59767" lon="11.726588"><ele>2416</ele></trkpt>
      <trkpt lat="46.597591" lon="11.726846"><ele>2413</ele></trkpt>
      <trkpt lat="46.597553" lon="11.727172"><ele>2413</ele></trkpt>
      <trkpt lat="46.597569" lon="11.727318"><ele>2412</ele></trkpt>
      <trkpt lat="46.597583" lon="11.727393"><ele>2412</ele></trkpt>
      <trkpt lat="46.597666" lon="11.727597"><ele>2410</ele></trkpt>
      <trkpt lat="46.597714" lon="11.727778"><ele>2408</ele></trkpt>
      <trkpt lat="46.59783" lon="11.72831"><ele>2400</ele></trkpt>
      <trkpt lat="46.597887" lon="11.728699"><ele>2394</ele></trkpt>
      <trkpt lat="46.597903" lon="11.72918"><ele>2388</ele></trkpt>
      <trkpt lat="46.597899" lon="11.729335"><ele>2385</ele></trkpt>
      <trkpt lat="46.597866" lon="11.729424"><ele>2383</ele></trkpt>
      <trkpt lat="46.598145" lon="11.729694"><ele>2383</ele></trkpt>
      <trkpt lat="46.598234" lon="11.729769"><ele>2383</ele></trkpt>
      <trkpt lat="46.598368" lon="11.729855"><ele>2384</ele></trkpt>
      <trkpt lat="46.598591" lon="11.730059"><ele>2384</ele></trkpt>
      <trkpt lat="46.598647" lon="11.730135"><ele>2384</ele></trkpt>
      <trkpt lat="46.598735" lon="11.730326"><ele>2384</ele></trkpt>
      <trkpt lat="46.598978" lon="11.730792"><ele>2389</ele></trkpt>
      <trkpt lat="46.59907" lon="11.73095"><ele>2391</ele></trkpt>
      <trkpt lat="46.59918" lon="11.731033"><ele>2393</ele></trkpt>
      <trkpt lat="46.599304" lon="11.731102"><ele>2396</ele></trkpt>
      <trkpt lat="46.599522" lon="11.731578"><ele>2400</ele></trkpt>
      <trkpt lat="46.599629" lon="11.731761"><ele>2401</ele></trkpt>
      <trkpt lat="46.599687" lon="11.731989"><ele>2402</ele></trkpt>
      <trkpt lat="46.599725" lon="11.732055"><ele>2404</ele></trkpt>
      <trkpt lat="46.599759" lon="11.73208"><ele>2405</ele></trkpt>
      <trkpt lat="46.599784" lon="11.732149"><ele>2405</ele></trkpt>
      <trkpt lat="46.599785" lon="11.732247"><ele>2404</ele></trkpt>
      <trkpt lat="46.599747" lon="11.732617"><ele>2398</ele></trkpt>
      <trkpt lat="46.599756" lon="11.733005"><ele>2395</ele></trkpt>
      <trkpt lat="46.599813" lon="11.733649"><ele>2390</ele></trkpt>
      <trkpt lat="46.59982" lon="11.734187"><ele>2388</ele></trkpt>
      <trkpt lat="46.599798" lon="11.734384"><ele>2387</ele></trkpt>
      <trkpt lat="46.599825" lon="11.734543"><ele>2386</ele></trkpt>
      <trkpt lat="46.599813" lon="11.734663"><ele>2384</ele></trkpt>
      <trkpt lat="46.599817" lon="11.734723"><ele>2383</ele></trkpt>
      <trkpt lat="46.599849" lon="11.734822"><ele>2383</ele></trkpt>
      <trkpt lat="46.599878" lon="11.734937"><ele>2382</ele></trkpt>
      <trkpt lat="46.59989" lon="11.735059"><ele>2381</ele></trkpt>
      <trkpt lat="46.599874" lon="11.735282"><ele>2378</ele></trkpt>
      <trkpt lat="46.599872" lon="11.735433"><ele>2377</ele></trkpt>
      <trkpt lat="46.599844" lon="11.735528"><ele>2375</ele></trkpt>
      <trkpt lat="46.599799" lon="11.735615"><ele>2373</ele></trkpt>
      <trkpt lat="46.599791" lon="11.735707"><ele>2372</ele></trkpt>
      <trkpt lat="46.599798" lon="11.735837"><ele>2371</ele></trkpt>
      <trkpt lat="46.599766" lon="11.736006"><ele>2367</ele></trkpt>
      <trkpt lat="46.599752" lon="11.736166"><ele>2364</ele></trkpt>
      <trkpt lat="46.599737" lon="11.736218"><ele>2363</ele></trkpt>
      <trkpt lat="46.59974" lon="11.736261"><ele>2363</ele></trkpt>
      <trkpt lat="46.599783" lon="11.736305"><ele>2364</ele></trkpt>
      <trkpt lat="46.599799" lon="11.736336"><ele>2364</ele></trkpt>
      <trkpt lat="46.599799" lon="11.736384"><ele>2364</ele></trkpt>
      <trkpt lat="46.59979" lon="11.736455"><ele>2362</ele></trkpt>
      <trkpt lat="46.599754" lon="11.736543"><ele>2360</ele></trkpt>
      <trkpt lat="46.599724" lon="11.736659"><ele>2356</ele></trkpt>
      <trkpt lat="46.599729" lon="11.736708"><ele>2355</ele></trkpt>
      <trkpt lat="46.59975" lon="11.736767"><ele>2355</ele></trkpt>
      <trkpt lat="46.59974" lon="11.736893"><ele>2351</ele></trkpt>
      <trkpt lat="46.599749" lon="11.737019"><ele>2350</ele></trkpt>
      <trkpt lat="46.599695" lon="11.73715"><ele>2345</ele></trkpt>
      <trkpt lat="46.599691" lon="11.737209"><ele>2344</ele></trkpt>
      <trkpt lat="46.599708" lon="11.737372"><ele>2342</ele></trkpt>
      <trkpt lat="46.599697" lon="11.737441"><ele>2340</ele></trkpt>
      <trkpt lat="46.59971" lon="11.737525"><ele>2339</ele></trkpt>
      <trkpt lat="46.599761" lon="11.737641"><ele>2339</ele></trkpt>
      <trkpt lat="46.599774" lon="11.737884"><ele>2334</ele></trkpt>
      <trkpt lat="46.599815" lon="11.737957"><ele>2334</ele></trkpt>
      <trkpt lat="46.599813" lon="11.738013"><ele>2333</ele></trkpt>
      <trkpt lat="46.599749" lon="11.737952"><ele>2331</ele></trkpt>
      <trkpt lat="46.599707" lon="11.737944"><ele>2329</ele></trkpt>
      <trkpt lat="46.599733" lon="11.738142"><ele>2326</ele></trkpt>
      <trkpt lat="46.59973" lon="11.738276"><ele>2324</ele></trkpt>
      <trkpt lat="46.599747" lon="11.738362"><ele>2324</ele></trkpt>
      <trkpt lat="46.599762" lon="11.738414"><ele>2324</ele></trkpt>
      <trkpt lat="46.599804" lon="11.738444"><ele>2327</ele></trkpt>
      <trkpt lat="46.599829" lon="11.738483"><ele>2328</ele></trkpt>
      <trkpt lat="46.599838" lon="11.738539"><ele>2327</ele></trkpt>
      <trkpt lat="46.599821" lon="11.738593"><ele>2326</ele></trkpt>
      <trkpt lat="46.599796" lon="11.738632"><ele>2324</ele></trkpt>
      <trkpt lat="46.599782" lon="11.738684"><ele>2324</ele></trkpt>
      <trkpt lat="46.599787" lon="11.738745"><ele>2324</ele></trkpt>
      <trkpt lat="46.599749" lon="11.738883"><ele>2323</ele></trkpt>
      <trkpt lat="46.599756" lon="11.738937"><ele>2324</ele></trkpt>
      <trkpt lat="46.59977" lon="11.73896"><ele>2324</ele></trkpt>
      <trkpt lat="46.599774" lon="11.738993"><ele>2324</ele></trkpt>
      <trkpt lat="46.599745" lon="11.739088"><ele>2323</ele></trkpt>
      <trkpt lat="46.599743" lon="11.739141"><ele>2323</ele></trkpt>
      <trkpt lat="46.599733" lon="11.739178"><ele>2323</ele></trkpt>
      <trkpt lat="46.5997" lon="11.739244"><ele>2322</ele></trkpt>
      <trkpt lat="46.599668" lon="11.739283"><ele>2321</ele></trkpt>
      <trkpt lat="46.59964" lon="11.739338"><ele>2321</ele></trkpt>
      <trkpt lat="46.59961" lon="11.73942"><ele>2321</ele></trkpt>
      <trkpt lat="46.599582" lon="11.739558"><ele>2320</ele></trkpt>
      <trkpt lat="46.599575" lon="11.739598"><ele>2320</ele></trkpt>
      <trkpt lat="46.599584" lon="11.73964"><ele>2320</ele></trkpt>
      <trkpt lat="46.59958" lon="11.73979"><ele>2320</ele></trkpt>
      <trkpt lat="46.599591" lon="11.739866"><ele>2321</ele></trkpt>
      <trkpt lat="46.599592" lon="11.739953"><ele>2320</ele></trkpt>
      <trkpt lat="46.599599" lon="11.739985"><ele>2321</ele></trkpt>
      <trkpt lat="46.599593" lon="11.740008"><ele>2320</ele></trkpt>
      <trkpt lat="46.599583" lon="11.740019"><ele>2320</ele></trkpt>
      <trkpt lat="46.599571" lon="11.740142"><ele>2320</ele></trkpt>
      <trkpt lat="46.599537" lon="11.740232"><ele>2320</ele></trkpt>
      <trkpt lat="46.599458" lon="11.740347"><ele>2316</ele></trkpt>
      <trkpt lat="46.599468" lon="11.740409"><ele>2316</ele></trkpt>
      <trkpt lat="46.599482" lon="11.740495"><ele>2316</ele></trkpt>
      <trkpt lat="46.599492" lon="11.740658"><ele>2316</ele></trkpt>
      <trkpt lat="46.59947" lon="11.740757"><ele>2316</ele></trkpt>
      <trkpt lat="46.59944" lon="11.740842"><ele>2315</ele></trkpt>
      <trkpt lat="46.599453" lon="11.740923"><ele>2315</ele></trkpt>
      <trkpt lat="46.599479" lon="11.740974"><ele>2315</ele></trkpt>
      <trkpt lat="46.599496" lon="11.741046"><ele>2315</ele></trkpt>
      <trkpt lat="46.599505" lon="11.741138"><ele>2315</ele></trkpt>
      <trkpt lat="46.599499" lon="11.741187"><ele>2315</ele></trkpt>
      <trkpt lat="46.599466" lon="11.741236"><ele>2313</ele></trkpt>
      <trkpt lat="46.59945" lon="11.741335"><ele>2312</ele></trkpt>
      <trkpt lat="46.599463" lon="11.741382"><ele>2312</ele></trkpt>
      <trkpt lat="46.599487" lon="11.74142"><ele>2313</ele></trkpt>
      <trkpt lat="46.599483" lon="11.741489"><ele>2312</ele></trkpt>
      <trkpt lat="46.599458" lon="11.741536"><ele>2311</ele></trkpt>
      <trkpt lat="46.599407" lon="11.741565"><ele>2308</ele></trkpt>
      <trkpt lat="46.599363" lon="11.741655"><ele>2306</ele></trkpt>
      <trkpt lat="46.599329" lon="11.741751"><ele>2304</ele></trkpt>
      <trkpt lat="46.599349" lon="11.741889"><ele>2304</ele></trkpt>
      <trkpt lat="46.599338" lon="11.741964"><ele>2303</ele></trkpt>
      <trkpt lat="46.59934" lon="11.742054"><ele>2303</ele></trkpt>
      <trkpt lat="46.599323" lon="11.742181"><ele>2302</ele></trkpt>
      <trkpt lat="46.599291" lon="11.742281"><ele>2300</ele></trkpt>
      <trkpt lat="46.599286" lon="11.742338"><ele>2300</ele></trkpt>
      <trkpt lat="46.599272" lon="11.742394"><ele>2298</ele></trkpt>
      <trkpt lat="46.599284" lon="11.742474"><ele>2298</ele></trkpt>
      <trkpt lat="46.599339" lon="11.742656"><ele>2299</ele></trkpt>
      <trkpt lat="46.599341" lon="11.742706"><ele>2299</ele></trkpt>
      <trkpt lat="46.599357" lon="11.742739"><ele>2299</ele></trkpt>
      <trkpt lat="46.599355" lon="11.742787"><ele>2298</ele></trkpt>
      <trkpt lat="46.599338" lon="11.742844"><ele>2298</ele></trkpt>
      <trkpt lat="46.599362" lon="11.743096"><ele>2298</ele></trkpt>
      <trkpt lat="46.599333" lon="11.743167"><ele>2298</ele></trkpt>
      <trkpt lat="46.599272" lon="11.743225"><ele>2296</ele></trkpt>
      <trkpt lat="46.599225" lon="11.743289"><ele>2295</ele></trkpt>
      <trkpt lat="46.599197" lon="11.743313"><ele>2295</ele></trkpt>
      <trkpt lat="46.599145" lon="11.74339"><ele>2295</ele></trkpt>
      <trkpt lat="46.599038" lon="11.743525"><ele>2293</ele></trkpt>
      <trkpt lat="46.599024" lon="11.743595"><ele>2293</ele></trkpt>
      <trkpt lat="46.599028" lon="11.743699"><ele>2294</ele></trkpt>
      <trkpt lat="46.599041" lon="11.743837"><ele>2294</ele></trkpt>
      <trkpt lat="46.599059" lon="11.74389"><ele>2295</ele></trkpt>
      <trkpt lat="46.599052" lon="11.743908"><ele>2295</ele></trkpt>
      <trkpt lat="46.599032" lon="11.74393"><ele>2294</ele></trkpt>
      <trkpt lat="46.598997" lon="11.744082"><ele>2294</ele></trkpt>
      <trkpt lat="46.598989" lon="11.744169"><ele>2295</ele></trkpt>
      <trkpt lat="46.598994" lon="11.744235"><ele>2295</ele></trkpt>
      <trkpt lat="46.598981" lon="11.744308"><ele>2295</ele></trkpt>
      <trkpt lat="46.598928" lon="11.744364"><ele>2294</ele></trkpt>
      <trkpt lat="46.598911" lon="11.744431"><ele>2294</ele></trkpt>
      <trkpt lat="46.598886" lon="11.744579"><ele>2295</ele></trkpt>
      <trkpt lat="46.598872" lon="11.74461"><ele>2295</ele></trkpt>
      <trkpt lat="46.598832" lon="11.744657"><ele>2293</ele></trkpt>
      <trkpt lat="46.598659" lon="11.744865"><ele>2293</ele></trkpt>
      <trkpt lat="46.598594" lon="11.744908"><ele>2292</ele></trkpt>
      <trkpt lat="46.598519" lon="11.744977"><ele>2292</ele></trkpt>
      <trkpt lat="46.598444" lon="11.74506"><ele>2292</ele></trkpt>
      <trkpt lat="46.598356" lon="11.74518"><ele>2292</ele></trkpt>
      <trkpt lat="46.598307" lon="11.745213"><ele>2292</ele></trkpt>
      <trkpt lat="46.598269" lon="11.745265"><ele>2293</ele></trkpt>
      <trkpt lat="46.598177" lon="11.745339"><ele>2296</ele></trkpt>
      <trkpt lat="46.598076" lon="11.745385"><ele>2297</ele></trkpt>
      <trkpt lat="46.597979" lon="11.745415"><ele>2297</ele></trkpt>
      <trkpt lat="46.597895" lon="11.745495"><ele>2299</ele></trkpt>
      <trkpt lat="46.597804" lon="11.745511"><ele>2298</ele></trkpt>
      <trkpt lat="46.597795" lon="11.745546"><ele>2300</ele></trkpt>
      <trkpt lat="46.597675" lon="11.745665"><ele>2302</ele></trkpt>
      <trkpt lat="46.597612" lon="11.745751"><ele>2304</ele></trkpt>
      <trkpt lat="46.597473" lon="11.745847"><ele>2304</ele></trkpt>
      <trkpt lat="46.5974" lon="11.745867"><ele>2304</ele></trkpt>
      <trkpt lat="46.5973" lon="11.745932"><ele>2305</ele></trkpt>
      <trkpt lat="46.597157" lon="11.746008"><ele>2305</ele></trkpt>
      <trkpt lat="46.597117" lon="11.746011"><ele>2305</ele></trkpt>
      <trkpt lat="46.597083" lon="11.746075"><ele>2306</ele></trkpt>
      <trkpt lat="46.596994" lon="11.746207"><ele>2305</ele></trkpt>
      <trkpt lat="46.596966" lon="11.746273"><ele>2304</ele></trkpt>
      <trkpt lat="46.596958" lon="11.746364"><ele>2304</ele></trkpt>
      <trkpt lat="46.596943" lon="11.74645"><ele>2304</ele></trkpt>
      <trkpt lat="46.59694" lon="11.746523"><ele>2303</ele></trkpt>
      <trkpt lat="46.596948" lon="11.746611"><ele>2303</ele></trkpt>
      <trkpt lat="46.596982" lon="11.746717"><ele>2304</ele></trkpt>
      <trkpt lat="46.596995" lon="11.746813"><ele>2303</ele></trkpt>
      <trkpt lat="46.597027" lon="11.746894"><ele>2303</ele></trkpt>
      <trkpt lat="46.597027" lon="11.746956"><ele>2303</ele></trkpt>
      <trkpt lat="46.597056" lon="11.747037"><ele>2302</ele></trkpt>
      <trkpt lat="46.597084" lon="11.747185"><ele>2301</ele></trkpt>
      <trkpt lat="46.597109" lon="11.747257"><ele>2301</ele></trkpt>
      <trkpt lat="46.597161" lon="11.747325"><ele>2300</ele></trkpt>
      <trkpt lat="46.597179" lon="11.747377"><ele>2299</ele></trkpt>
      <trkpt lat="46.597177" lon="11.74744"><ele>2298</ele></trkpt>
      <trkpt lat="46.597263" lon="11.747642"><ele>2295</ele></trkpt>
      <trkpt lat="46.597264" lon="11.747644"><ele>2295</ele></trkpt>
      <trkpt lat="46.597296" lon="11.747685"><ele>2295</ele></trkpt>
      <trkpt lat="46.597367" lon="11.747778"><ele>2295</ele></trkpt>
      <trkpt lat="46.597418" lon="11.747879"><ele>2294</ele></trkpt>
      <trkpt lat="46.597446" lon="11.747951"><ele>2294</ele></trkpt>
      <trkpt lat="46.597436" lon="11.748402"><ele>2290</ele></trkpt>
      <trkpt lat="46.597177" lon="11.749157"><ele>2273</ele></trkpt>
      <trkpt lat="46.59714" lon="11.749705"><ele>2264</ele></trkpt>
      <trkpt lat="46.597105" lon="11.749932"><ele>2260</ele></trkpt>
      <trkpt lat="46.597088" lon="11.750008"><ele>2259</ele></trkpt>
      <trkpt lat="46.597059" lon="11.750037"><ele>2257</ele></trkpt>
      <trkpt lat="46.596941" lon="11.750016"><ele>2254</ele></trkpt>
      <trkpt lat="46.59683" lon="11.749881"><ele>2252</ele></trkpt>
      <trkpt lat="46.596735" lon="11.749764"><ele>2250</ele></trkpt>
      <trkpt lat="46.596641" lon="11.749616"><ele>2249</ele></trkpt>
      <trkpt lat="46.596591" lon="11.749573"><ele>2248</ele></trkpt>
      <trkpt lat="46.596493" lon="11.749547"><ele>2245</ele></trkpt>
      <trkpt lat="46.596471" lon="11.749541"><ele>2245</ele></trkpt>
      <trkpt lat="46.59639" lon="11.749576"><ele>2243</ele></trkpt>
      <trkpt lat="46.596324" lon="11.749667"><ele>2241</ele></trkpt>
      <trkpt lat="46.596204" lon="11.749739"><ele>2238</ele></trkpt>
      <trkpt lat="46.596114" lon="11.749825"><ele>2235</ele></trkpt>
      <trkpt lat="46.596047" lon="11.749935"><ele>2233</ele></trkpt>
      <trkpt lat="46.595731" lon="11.750169"><ele>2226</ele></trkpt>
      <trkpt lat="46.595662" lon="11.750136"><ele>2224</ele></trkpt>
      <trkpt lat="46.595569" lon="11.749813"><ele>2219</ele></trkpt>
      <trkpt lat="46.595534" lon="11.749623"><ele>2217</ele></trkpt>
      <trkpt lat="46.59548" lon="11.749238"><ele>2213</ele></trkpt>
      <trkpt lat="46.595424" lon="11.748972"><ele>2212</ele></trkpt>
      <trkpt lat="46.595397" lon="11.748921"><ele>2211</ele></trkpt>
      <trkpt lat="46.595236" lon="11.748782"><ele>2207</ele></trkpt>
      <trkpt lat="46.595179" lon="11.748701"><ele>2208</ele></trkpt>
      <trkpt lat="46.595157" lon="11.748647"><ele>2208</ele></trkpt>
      <trkpt lat="46.595129" lon="11.748578"><ele>2208</ele></trkpt>
      <trkpt lat="46.595096" lon="11.748535"><ele>2208</ele></trkpt>
      <trkpt lat="46.595002" lon="11.748471"><ele>2206</ele></trkpt>
      <trkpt lat="46.594981" lon="11.748415"><ele>2206</ele></trkpt>
      <trkpt lat="46.594925" lon="11.748331"><ele>2205</ele></trkpt>
      <trkpt lat="46.594726" lon="11.748192"><ele>2205</ele></trkpt>
      <trkpt lat="46.594604" lon="11.74809"><ele>2205</ele></trkpt>
      <trkpt lat="46.594501" lon="11.747969"><ele>2203</ele></trkpt>
      <trkpt lat="46.594453" lon="11.747851"><ele>2202</ele></trkpt>
      <trkpt lat="46.594412" lon="11.747713"><ele>2203</ele></trkpt>
      <trkpt lat="46.594337" lon="11.747462"><ele>2204</ele></trkpt>
      <trkpt lat="46.59428" lon="11.747358"><ele>2203</ele></trkpt>
      <trkpt lat="46.594167" lon="11.746894"><ele>2199</ele></trkpt>
      <trkpt lat="46.594036" lon="11.746445"><ele>2202</ele></trkpt>
      <trkpt lat="46.594036" lon="11.745859"><ele>2205</ele></trkpt>
      <trkpt lat="46.593977" lon="11.745721"><ele>2205</ele></trkpt>
      <trkpt lat="46.593945" lon="11.745663"><ele>2204</ele></trkpt>
      <trkpt lat="46.593913" lon="11.745606"><ele>2204</ele></trkpt>
      <trkpt lat="46.593843" lon="11.745426"><ele>2202</ele></trkpt>
      <trkpt lat="46.593788" lon="11.745338"><ele>2200</ele></trkpt>
      <trkpt lat="46.593627" lon="11.745166"><ele>2195</ele></trkpt>
      <trkpt lat="46.593458" lon="11.744917"><ele>2190</ele></trkpt>
      <trkpt lat="46.593431" lon="11.744861"><ele>2189</ele></trkpt>
      <trkpt lat="46.593409" lon="11.744664"><ele>2187</ele></trkpt>
      <trkpt lat="46.593387" lon="11.744598"><ele>2186</ele></trkpt>
      <trkpt lat="46.593366" lon="11.744558"><ele>2185</ele></trkpt>
      <trkpt lat="46.593325" lon="11.74453"><ele>2184</ele></trkpt>
      <trkpt lat="46.593258" lon="11.74455"><ele>2183</ele></trkpt>
      <trkpt lat="46.593093" lon="11.744563"><ele>2180</ele></trkpt>
      <trkpt lat="46.592883" lon="11.744611"><ele>2176</ele></trkpt>
      <trkpt lat="46.59279" lon="11.744613"><ele>2174</ele></trkpt>
      <trkpt lat="46.59258" lon="11.744541"><ele>2169</ele></trkpt>
      <trkpt lat="46.59252" lon="11.744544"><ele>2168</ele></trkpt>
      <trkpt lat="46.592494" lon="11.744558"><ele>2167</ele></trkpt>
      <trkpt lat="46.592407" lon="11.744606"><ele>2166</ele></trkpt>
      <trkpt lat="46.592317" lon="11.74463"><ele>2165</ele></trkpt>
      <trkpt lat="46.592193" lon="11.744608"><ele>2163</ele></trkpt>
      <trkpt lat="46.592083" lon="11.744565"><ele>2160</ele></trkpt>
      <trkpt lat="46.591959" lon="11.74448"><ele>2157</ele></trkpt>
      <trkpt lat="46.59186" lon="11.744345"><ele>2158</ele></trkpt>
      <trkpt lat="46.591714" lon="11.744206"><ele>2156</ele></trkpt>
      <trkpt lat="46.591642" lon="11.744099"><ele>2155</ele></trkpt>
      <trkpt lat="46.591497" lon="11.743832"><ele>2153</ele></trkpt>
      <trkpt lat="46.591336" lon="11.743613"><ele>2149</ele></trkpt>
      <trkpt lat="46.59131" lon="11.74358"><ele>2146</ele></trkpt>
      <trkpt lat="46.591226" lon="11.743476"><ele>2146</ele></trkpt>
      <trkpt lat="46.59109" lon="11.743378"><ele>2143</ele></trkpt>
      <trkpt lat="46.591015" lon="11.743312"><ele>2141</ele></trkpt>
      <trkpt lat="46.590866" lon="11.74331"><ele>2140</ele></trkpt>
      <trkpt lat="46.590778" lon="11.743286"><ele>2137</ele></trkpt>
      <trkpt lat="46.590723" lon="11.743233"><ele>2135</ele></trkpt>
      <trkpt lat="46.590591" lon="11.743243"><ele>2131</ele></trkpt>
      <trkpt lat="46.590459" lon="11.743283"><ele>2129</ele></trkpt>
      <trkpt lat="46.59036" lon="11.743362"><ele>2129</ele></trkpt>
      <trkpt lat="46.590247" lon="11.743562"><ele>2126</ele></trkpt>
      <trkpt lat="46.590182" lon="11.743558"><ele>2124</ele></trkpt>
      <trkpt lat="46.590107" lon="11.743498"><ele>2122</ele></trkpt>
      <trkpt lat="46.590016" lon="11.743383"><ele>2119</ele></trkpt>
      <trkpt lat="46.589775" lon="11.743219"><ele>2115</ele></trkpt>
      <trkpt lat="46.589724" lon="11.743155"><ele>2114</ele></trkpt>
      <trkpt lat="46.589692" lon="11.743223"><ele>2113</ele></trkpt>
      <trkpt lat="46.58968" lon="11.743301"><ele>2113</ele></trkpt>
      <trkpt lat="46.589683" lon="11.743478"><ele>2113</ele></trkpt>
      <trkpt lat="46.589705" lon="11.743691"><ele>2114</ele></trkpt>
      <trkpt lat="46.589708" lon="11.743828"><ele>2114</ele></trkpt>
      <trkpt lat="46.589686" lon="11.743975"><ele>2114</ele></trkpt>
      <trkpt lat="46.589612" lon="11.74412"><ele>2113</ele></trkpt>
      <trkpt lat="46.58955" lon="11.744191"><ele>2112</ele></trkpt>
      <trkpt lat="46.589508" lon="11.744304"><ele>2113</ele></trkpt>
      <trkpt lat="46.589476" lon="11.744369"><ele>2113</ele></trkpt>
      <trkpt lat="46.589421" lon="11.744416"><ele>2113</ele></trkpt>
      <trkpt lat="46.589334" lon="11.744408"><ele>2113</ele></trkpt>
      <trkpt lat="46.589243" lon="11.744368"><ele>2112</ele></trkpt>
      <trkpt lat="46.589187" lon="11.744372"><ele>2112</ele></trkpt>
      <trkpt lat="46.589093" lon="11.744418"><ele>2111</ele></trkpt>
      <trkpt lat="46.588828" lon="11.74468"><ele>2108</ele></trkpt>
      <trkpt lat="46.588428" lon="11.74484"><ele>2107</ele></trkpt>
      <trkpt lat="46.587978" lon="11.744886"><ele>2101</ele></trkpt>
      <trkpt lat="46.587881" lon="11.74492"><ele>2100</ele></trkpt>
      <trkpt lat="46.587797" lon="11.744989"><ele>2099</ele></trkpt>
      <trkpt lat="46.587722" lon="11.745122"><ele>2101</ele></trkpt>
      <trkpt lat="46.587663" lon="11.74516"><ele>2101</ele></trkpt>
      <trkpt lat="46.587419" lon="11.745189"><ele>2096</ele></trkpt>
      <trkpt lat="46.587333" lon="11.745236"><ele>2096</ele></trkpt>
      <trkpt lat="46.587183" lon="11.745257"><ele>2095</ele></trkpt>
      <trkpt lat="46.587061" lon="11.745181"><ele>2093</ele></trkpt>
      <trkpt lat="46.586849" lon="11.745134"><ele>2094</ele></trkpt>
      <trkpt lat="46.586603" lon="11.745136"><ele>2098</ele></trkpt>
      <trkpt lat="46.586209" lon="11.745021"><ele>2100</ele></trkpt>
      <trkpt lat="46.5861" lon="11.745028"><ele>2101</ele></trkpt>
      <trkpt lat="46.585967" lon="11.744988"><ele>2102</ele></trkpt>
      <trkpt lat="46.585895" lon="11.744999"><ele>2103</ele></trkpt>
      <trkpt lat="46.585638" lon="11.745198"><ele>2104</ele></trkpt>
      <trkpt lat="46.585521" lon="11.745267"><ele>2104</ele></trkpt>
      <trkpt lat="46.585447" lon="11.745437"><ele>2102</ele></trkpt>
      <trkpt lat="46.585428" lon="11.745517"><ele>2101</ele></trkpt>
      <trkpt lat="46.585283" lon="11.745685"><ele>2102</ele></trkpt>
      <trkpt lat="46.585199" lon="11.745737"><ele>2104</ele></trkpt>
      <trkpt lat="46.585066" lon="11.745795"><ele>2105</ele></trkpt>
      <trkpt lat="46.585025" lon="11.745788"><ele>2106</ele></trkpt>
      <trkpt lat="46.584987" lon="11.745753"><ele>2106</ele></trkpt>
      <trkpt lat="46.584901" lon="11.745533"><ele>2105</ele></trkpt>
      <trkpt lat="46.584791" lon="11.745484"><ele>2105</ele></trkpt>
      <trkpt lat="46.584823" lon="11.745335"><ele>2104</ele></trkpt>
      <trkpt lat="46.584794" lon="11.745322"><ele>2104</ele></trkpt>
    </trkseg>
  </trk>
</gpx>
