<?xml version="1.0" encoding="UTF-8"?>
<gpx version="1.1" creator="hike-trip" xmlns="http://www.topografix.com/GPX/1/1">
  <metadata>
    <name>Selva → Rifugio Puez (Crespeina Plateau)</name>
    <desc>Routed with BRouter (hiking-mountain) over OpenStreetMap data through hand-verified anchor points. Schematic in places — verify against signage on the ground.</desc>
    <copyright author="OpenStreetMap contributors"><license>https://www.openstreetmap.org/copyright</license></copyright>
    <bounds minlat="46.553982" minlon="11.783133" maxlat="46.590048" maxlon="11.838848"/>
  </metadata>
  <wpt lat="46.554" lon="11.8"><name>Trailhead — Selva → Rifugio Puez (Crespeina Plateau)</name><sym>Trail Head</sym></wpt>
  <wpt lat="46.5901" lon="11.8292"><ele>2528</ele><name>Passo Crespeina</name><sym>Summit</sym></wpt>
  <trk>
    <name>Selva → Rifugio Puez (Crespeina Plateau) (Alta Via 2 / No. 12A, 2, 16, 14)</name>
    <type>hiking</type>
    <trkseg>
      <trkpt lat="46.553996" lon="11.800002"><ele>2288</ele></trkpt>
      <trkpt lat="46.554032" lon="11.800068"><ele>2288</ele></trkpt>
      <trkpt lat="46.554075" lon="11.800162"><ele>2287</ele></trkpt>
      <trkpt lat="46.554095" lon="11.800278"><ele>2284</ele></trkpt>
      <trkpt lat="46.554096" lon="11.800369"><ele>2285</ele></trkpt>
      <trkpt lat="46.55408" lon="11.800473"><ele>2285</ele></trkpt>
      <trkpt lat="46.554022" lon="11.800664"><ele>2284</ele></trkpt>
      <trkpt lat="46.553988" lon="11.800806"><ele>2284</ele></trkpt>
      <trkpt lat="46.553982" lon="11.800943"><ele>2283</ele></trkpt>
      <trkpt lat="46.553995" lon="11.801013"><ele>2282</ele></trkpt>
      <trkpt lat="46.554021" lon="11.801053"><ele>2283</ele></trkpt>
      <trkpt lat="46.554337" lon="11.801362"><ele>2280</ele></trkpt>
      <trkpt lat="46.554439" lon="11.801484"><ele>2279</ele></trkpt>
      <trkpt lat="46.554494" lon="11.80158"><ele>2278</ele></trkpt>
      <trkpt lat="46.554516" lon="11.801658"><ele>2278</ele></trkpt>
      <trkpt lat="46.554529" lon="11.801766"><ele>2278</ele></trkpt>
      <trkpt lat="46.554515" lon="11.801889"><ele>2277</ele></trkpt>
      <trkpt lat="46.554436" lon="11.802288"><ele>2274</ele></trkpt>
      <trkpt lat="46.5545" lon="11.802319"><ele>2275</ele></trkpt>
      <trkpt lat="46.554552" lon="11.802416"><ele>2275</ele></trkpt>
      <trkpt lat="46.554588" lon="11.80244"><ele>2276</ele></trkpt>
      <trkpt lat="46.554589" lon="11.802471"><ele>2276</ele></trkpt>
      <trkpt lat="46.554682" lon="11.802897"><ele>2275</ele></trkpt>
      <trkpt lat="46.554698" lon="11.803029"><ele>2274</ele></trkpt>
      <trkpt lat="46.554783" lon="11.803244"><ele>2276</ele></trkpt>
      <trkpt lat="46.55473" lon="11.803517"><ele>2274</ele></trkpt>
      <trkpt lat="46.554719" lon="11.803757"><ele>2273</ele></trkpt>
      <trkpt lat="46.554721" lon="11.803907"><ele>2273</ele></trkpt>
      <trkpt lat="46.554759" lon="11.804189"><ele>2272</ele></trkpt>
      <trkpt lat="46.554772" lon="11.804345"><ele>2271</ele></trkpt>
      <trkpt lat="46.554794" lon="11.80438"><ele>2271</ele></trkpt>
      <trkpt lat="46.554909" lon="11.804404"><ele>2271</ele></trkpt>
      <trkpt lat="46.555009" lon="11.80448"><ele>2270</ele></trkpt>
      <trkpt lat="46.555074" lon="11.80457"><ele>2270</ele></trkpt>
      <trkpt lat="46.555156" lon="11.804743"><ele>2268</ele></trkpt>
      <trkpt lat="46.55516" lon="11.804843"><ele>2267</ele></trkpt>
      <trkpt lat="46.555147" lon="11.804952"><ele>2266</ele></trkpt>
      <trkpt lat="46.555148" lon="11.805013"><ele>2266</ele></trkpt>
      <trkpt lat="46.555203" lon="11.8054"><ele>2263</ele></trkpt>
      <trkpt lat="46.555278" lon="11.805768"><ele>2257</ele></trkpt>
      <trkpt lat="46.555353" lon="11.805901"><ele>2257</ele></trkpt>
      <trkpt lat="46.555579" lon="11.806117"><ele>2258</ele></trkpt>
      <trkpt lat="46.555646" lon="11.806381"><ele>2255</ele></trkpt>
      <trkpt lat="46.555719" lon="11.806577"><ele>2254</ele></trkpt>
      <trkpt lat="46.555894" lon="11.806734"><ele>2257</ele></trkpt>
      <trkpt lat="46.556244" lon="11.80711"><ele>2260</ele></trkpt>
      <trkpt lat="46.55627" lon="11.807278"><ele>2258</ele></trkpt>
      <trkpt lat="46.556322" lon="11.80741"><ele>2258</ele></trkpt>
      <trkpt lat="46.556322" lon="11.807656"><ele>2255</ele></trkpt>
      <trkpt lat="46.556415" lon="11.807905"><ele>2254</ele></trkpt>
      <trkpt lat="46.556422" lon="11.808007"><ele>2253</ele></trkpt>
      <trkpt lat="46.556455" lon="11.80827"><ele>2251</ele></trkpt>
      <trkpt lat="46.556488" lon="11.808452"><ele>2249</ele></trkpt>
      <trkpt lat="46.556632" lon="11.808731"><ele>2251</ele></trkpt>
      <trkpt lat="46.55669" lon="11.808893"><ele>2250</ele></trkpt>
      <trkpt lat="46.556743" lon="11.809016"><ele>2247</ele></trkpt>
      <trkpt lat="46.556845" lon="11.809193"><ele>2245</ele></trkpt>
      <trkpt lat="46.557004" lon="11.809585"><ele>2241</ele></trkpt>
      <trkpt lat="46.557037" lon="11.809687"><ele>2239</ele></trkpt>
      <trkpt lat="46.557038" lon="11.809772"><ele>2238</ele></trkpt>
      <trkpt lat="46.557022" lon="11.809864"><ele>2237</ele></trkpt>
      <trkpt lat="46.556919" lon="11.810175"><ele>2233</ele></trkpt>
      <trkpt lat="46.556891" lon="11.810292"><ele>2233</ele></trkpt>
      <trkpt lat="46.556868" lon="11.810491"><ele>2233</ele></trkpt>
      <trkpt lat="46.556838" lon="11.81062"><ele>2232</ele></trkpt>
      <trkpt lat="46.556784" lon="11.81077"><ele>2231</ele></trkpt>
      <trkpt lat="46.55675" lon="11.810904"><ele>2230</ele></trkpt>
      <trkpt lat="46.556736" lon="11.810995"><ele>2229</ele></trkpt>
      <trkpt lat="46.556669" lon="11.811228"><ele>2227</ele></trkpt>
      <trkpt lat="46.556597" lon="11.811283"><ele>2225</ele></trkpt>
      <trkpt lat="46.556643" lon="11.811353"><ele>2226</ele></trkpt>
      <trkpt lat="46.556669" lon="11.811603"><ele>2231</ele></trkpt>
      <trkpt lat="46.556815" lon="11.811635"><ele>2238</ele></trkpt>
      <trkpt lat="46.556836" lon="11.811777"><ele>2241</ele></trkpt>
      <trkpt lat="46.556928" lon="11.811812"><ele>2246</ele></trkpt>
      <trkpt lat="46.55694" lon="11.811922"><ele>2248</ele></trkpt>
      <trkpt lat="46.557009" lon="11.811997"><ele>2252</ele></trkpt>
      <trkpt lat="46.556998" lon="11.812106"><ele>2252</ele></trkpt>
      <trkpt lat="46.557138" lon="11.812288"><ele>2261</ele></trkpt>
      <trkpt lat="46.557221" lon="11.812285"><ele>2266</ele></trkpt>
      <trkpt lat="46.557279" lon="11.812377"><ele>2269</ele></trkpt>
      <trkpt lat="46.557358" lon="11.812386"><ele>2274</ele></trkpt>
      <trkpt lat="46.557439" lon="11.812662"><ele>2282</ele></trkpt>
      <trkpt lat="46.557396" lon="11.812772"><ele>2282</ele></trkpt>
      <trkpt lat="46.557378" lon="11.812967"><ele>2288</ele></trkpt>
      <trkpt lat="46.557356" lon="11.81307"><ele>2290</ele></trkpt>
      <trkpt lat="46.557384" lon="11.813127"><ele>2294</ele></trkpt>
      <trkpt lat="46.557352" lon="11.813221"><ele>2295</ele></trkpt>
      <trkpt lat="46.557409" lon="11.813242"><ele>2300</ele></trkpt>
      <trkpt lat="46.557339" lon="11.813443"><ele>2303</ele></trkpt>
      <trkpt lat="46.557371" lon="11.813504"><ele>2307</ele></trkpt>
      <trkpt lat="46.557337" lon="11.813628"><ele>2308</ele></trkpt>
      <trkpt lat="46.557401" lon="11.813681"><ele>2312</ele></trkpt>
      <trkpt lat="46.557455" lon="11.813637"><ele>2315</ele></trkpt>
      <trkpt lat="46.557506" lon="11.81369"><ele>2319</ele></trkpt>
      <trkpt lat="46.557553" lon="11.813675"><ele>2322</ele></trkpt>
      <trkpt lat="46.557613" lon="11.813752"><ele>2326</ele></trkpt>
      <trkpt lat="46.557651" lon="11.813669"><ele>2328</ele></trkpt>
      <trkpt lat="46.557679" lon="11.813726"><ele>2330</ele></trkpt>
      <trkpt lat="46.557675" lon="11.814009"><ele>2333</ele></trkpt>
      <trkpt lat="46.557698" lon="11.814254"><ele>2339</ele></trkpt>
      <trkpt lat="46.557703" lon="11.814558"><ele>2342</ele></trkpt>
      <trkpt lat="46.557658" lon="11.814672"><ele>2340</ele></trkpt>
      <trkpt lat="46.557772" lon="11.814829"><ele>2348</ele></trkpt>
      <trkpt lat="46.557815" lon="11.814927"><ele>2354</ele></trkpt>
      <trkpt lat="46.558015" lon="11.815581"><ele>2376</ele></trkpt>
      <trkpt lat="46.558045" lon="11.815537"><ele>2377</ele></trkpt>
      <trkpt lat="46.558098" lon="11.815685"><ele>2382</ele></trkpt>
      <trkpt lat="46.558196" lon="11.815596"><ele>2389</ele></trkpt>
      <trkpt lat="46.55832" lon="11.81576"><ele>2394</ele></trkpt>
      <trkpt lat="46.558486" lon="11.815845"><ele>2400</ele></trkpt>
      <trkpt lat="46.55865" lon="11.816083"><ele>2402</ele></trkpt>
      <trkpt lat="46.558724" lon="11.816174"><ele>2403</ele></trkpt>
      <trkpt lat="46.558766" lon="11.816389"><ele>2399</ele></trkpt>
      <trkpt lat="46.558895" lon="11.816413"><ele>2406</ele></trkpt>
      <trkpt lat="46.559083" lon="11.816583"><ele>2408</ele></trkpt>
      <trkpt lat="46.559142" lon="11.81669"><ele>2408</ele></trkpt>
      <trkpt lat="46.55923" lon="11.816635"><ele>2410</ele></trkpt>
      <trkpt lat="46.559267" lon="11.816563"><ele>2412</ele></trkpt>
      <trkpt lat="46.559335" lon="11.816625"><ele>2412</ele></trkpt>
      <trkpt lat="46.559369" lon="11.816973"><ele>2414</ele></trkpt>
      <trkpt lat="46.559454" lon="11.81719"><ele>2420</ele></trkpt>
      <trkpt lat="46.559637" lon="11.817236"><ele>2420</ele></trkpt>
      <trkpt lat="46.559786" lon="11.81713"><ele>2420</ele></trkpt>
      <trkpt lat="46.559927" lon="11.816992"><ele>2420</ele></trkpt>
      <trkpt lat="46.560359" lon="11.816669"><ele>2421</ele></trkpt>
      <trkpt lat="46.560457" lon="11.816689"><ele>2422</ele></trkpt>
      <trkpt lat="46.560591" lon="11.816645"><ele>2423</ele></trkpt>
      <trkpt lat="46.56075" lon="11.81655"><ele>2428</ele></trkpt>
      <trkpt lat="46.560752" lon="11.816421"><ele>2428</ele></trkpt>
      <trkpt lat="46.56074" lon="11.816364"><ele>2429</ele></trkpt>
      <trkpt lat="46.560845" lon="11.816391"><ele>2433</ele></trkpt>
      <trkpt lat="46.560711" lon="11.816164"><ele>2434</ele></trkpt>
      <trkpt lat="46.560822" lon="11.816154"><ele>2441</ele></trkpt>
      <trkpt lat="46.560996" lon="11.816291"><ele>2445</ele></trkpt>
      <trkpt lat="46.560969" lon="11.816197"><ele>2447</ele></trkpt>
      <trkpt lat="46.561088" lon="11.816252"><ele>2452</ele></trkpt>
      <trkpt lat="46.561024" lon="11.816164"><ele>2452</ele></trkpt>
      <trkpt lat="46.561122" lon="11.816203"><ele>2456</ele></trkpt>
      <trkpt lat="46.561047" lon="11.816052"><ele>2457</ele></trkpt>
      <trkpt lat="46.561118" lon="11.815981"><ele>2463</ele></trkpt>
      <trkpt lat="46.561132" lon="11.815924"><ele>2464</ele></trkpt>
      <trkpt lat="46.56124" lon="11.815744"><ele>2463</ele></trkpt>
      <trkpt lat="46.561302" lon="11.815716"><ele>2461</ele></trkpt>
      <trkpt lat="46.561426" lon="11.815821"><ele>2459</ele></trkpt>
      <trkpt lat="46.561472" lon="11.815895"><ele>2457</ele></trkpt>
      <trkpt lat="46.561487" lon="11.815974"><ele>2457</ele></trkpt>
      <trkpt lat="46.56152" lon="11.815927"><ele>2453</ele></trkpt>
      <trkpt lat="46.561527" lon="11.816051"><ele>2454</ele></trkpt>
      <trkpt lat="46.56157" lon="11.815998"><ele>2449</ele></trkpt>
      <trkpt lat="46.56159" lon="11.816135"><ele>2448</ele></trkpt>
      <trkpt lat="46.56162" lon="11.816144"><ele>2445</ele></trkpt>
      <trkpt lat="46.561645" lon="11.81635"><ele>2440</ele></trkpt>
      <trkpt lat="46.561677" lon="11.81653"><ele>2440</ele></trkpt>
      <trkpt lat="46.561696" lon="11.816705"><ele>2442</ele></trkpt>
      <trkpt lat="46.561681" lon="11.816902"><ele>2446</ele></trkpt>
      <trkpt lat="46.561844" lon="11.817407"><ele>2439</ele></trkpt>
      <trkpt lat="46.561788" lon="11.81774"><ele>2450</ele></trkpt>
      <trkpt lat="46.561846" lon="11.817947"><ele>2447</ele></trkpt>
      <trkpt lat="46.561899" lon="11.818167"><ele>2445</ele></trkpt>
      <trkpt lat="46.56189" lon="11.818393"><ele>2449</ele></trkpt>
      <trkpt lat="46.56192" lon="11.818606"><ele>2449</ele></trkpt>
      <trkpt lat="46.561983" lon="11.818782"><ele>2447</ele></trkpt>
      <trkpt lat="46.56201" lon="11.81891"><ele>2449</ele></trkpt>
      <trkpt lat="46.562089" lon="11.819081"><ele>2448</ele></trkpt>
      <trkpt lat="46.56215" lon="11.819319"><ele>2449</ele></trkpt>
      <trkpt lat="46.56224" lon="11.819513"><ele>2447</ele></trkpt>
      <trkpt lat="46.562434" lon="11.819818"><ele>2445</ele></trkpt>
      <trkpt lat="46.562587" lon="11.820314"><ele>2451</ele></trkpt>
      <trkpt lat="46.563971" lon="11.821691"><ele>2470</ele></trkpt>
      <trkpt lat="46.564062" lon="11.821715"><ele>2472</ele></trkpt>
      <trkpt lat="46.564115" lon="11.82175"><ele>2473</ele></trkpt>
      <trkpt lat="46.564154" lon="11.821781"><ele>2474</ele></trkpt>
      <trkpt lat="46.564222" lon="11.821774"><ele>2477</ele></trkpt>
      <trkpt lat="46.564425" lon="11.821647"><ele>2484</ele></trkpt>
      <trkpt lat="46.564463" lon="11.821686"><ele>2488</ele></trkpt>
      <trkpt lat="46.564519" lon="11.821694"><ele>2492</ele></trkpt>
      <trkpt lat="46.564512" lon="11.821745"><ele>2493</ele></trkpt>
      <trkpt lat="46.564541" lon="11.821765"><ele>2495</ele></trkpt>
      <trkpt lat="46.564526" lon="11.821861"><ele>2496</ele></trkpt>
      <trkpt lat="46.564554" lon="11.821877"><ele>2499</ele></trkpt>
      <trkpt lat="46.564531" lon="11.821975"><ele>2500</ele></trkpt>
      <trkpt lat="46.564575" lon="11.82201"><ele>2504</ele></trkpt>
      <trkpt lat="46.564547" lon="11.82208"><ele>2504</ele></trkpt>
      <trkpt lat="46.564576" lon="11.822097"><ele>2507</ele></trkpt>
      <trkpt lat="46.56456" lon="11.822296"><ele>2512</ele></trkpt>
      <trkpt lat="46.564598" lon="11.822306"><ele>2514</ele></trkpt>
      <trkpt lat="46.56458" lon="11.822398"><ele>2516</ele></trkpt>
      <trkpt lat="46.564611" lon="11.822468"><ele>2520</ele></trkpt>
      <trkpt lat="46.564568" lon="11.822534"><ele>2519</ele></trkpt>
      <trkpt lat="46.564574" lon="11.822597"><ele>2520</ele></trkpt>
      <trkpt lat="46.564557" lon="11.82267"><ele>2521</ele></trkpt>
      <trkpt lat="46.564572" lon="11.822745"><ele>2523</ele></trkpt>
      <trkpt lat="46.564576" lon="11.822758"><ele>2524</ele></trkpt>
      <trkpt lat="46.564601" lon="11.822797"><ele>2526</ele></trkpt>
      <trkpt lat="46.564677" lon="11.822918"><ele>2526</ele></trkpt>
      <trkpt lat="46.564846" lon="11.823206"><ele>2522</ele></trkpt>
      <trkpt lat="46.564886" lon="11.823204"><ele>2520</ele></trkpt>
      <trkpt lat="46.564918" lon="11.823132"><ele>2520</ele></trkpt>
      <trkpt lat="46.564954" lon="11.823127"><ele>2519</ele></trkpt>
      <trkpt lat="46.565003" lon="11.823182"><ele>2517</ele></trkpt>
      <trkpt lat="46.56502" lon="11.823237"><ele>2516</ele></trkpt>
      <trkpt lat="46.565046" lon="11.823253"><ele>2515</ele></trkpt>
      <trkpt lat="46.565129" lon="11.823494"><ele>2509</ele></trkpt>
      <trkpt lat="46.565141" lon="11.823642"><ele>2506</ele></trkpt>
      <trkpt lat="46.565233" lon="11.823729"><ele>2500</ele></trkpt>
      <trkpt lat="46.565409" lon="11.823645"><ele>2496</ele></trkpt>
      <trkpt lat="46.565433" lon="11.823818"><ele>2489</ele></trkpt>
      <trkpt lat="46.565512" lon="11.8238"><ele>2487</ele></trkpt>
      <trkpt lat="46.565473" lon="11.824106"><ele>2477</ele></trkpt>
      <trkpt lat="46.565648" lon="11.824159"><ele>2471</ele></trkpt>
      <trkpt lat="46.565637" lon="11.824227"><ele>2468</ele></trkpt>
      <trkpt lat="46.565531" lon="11.824366"><ele>2464</ele></trkpt>
      <trkpt lat="46.565507" lon="11.824564"><ele>2456</ele></trkpt>
      <trkpt lat="46.565482" lon="11.824716"><ele>2450</ele></trkpt>
      <trkpt lat="46.565497" lon="11.824802"><ele>2446</ele></trkpt>
      <trkpt lat="46.565639" lon="11.824799"><ele>2441</ele></trkpt>
      <trkpt lat="46.565746" lon="11.824852"><ele>2437</ele></trkpt>
      <trkpt lat="46.565776" lon="11.824932"><ele>2434</ele></trkpt>
      <trkpt lat="46.56592" lon="11.825159"><ele>2425</ele></trkpt>
      <trkpt lat="46.566037" lon="11.82527"><ele>2423</ele></trkpt>
      <trkpt lat="46.566106" lon="11.825404"><ele>2422</ele></trkpt>
      <trkpt lat="46.566115" lon="11.825518"><ele>2420</ele></trkpt>
      <trkpt lat="46.566089" lon="11.82557"><ele>2419</ele></trkpt>
      <trkpt lat="46.566032" lon="11.825575"><ele>2419</ele></trkpt>
      <trkpt lat="46.565925" lon="11.825529"><ele>2418</ele></trkpt>
      <trkpt lat="46.565939" lon="11.826231"><ele>2408</ele></trkpt>
      <trkpt lat="46.566084" lon="11.826206"><ele>2406</ele></trkpt>
      <trkpt lat="46.566136" lon="11.826325"><ele>2405</ele></trkpt>
      <trkpt lat="46.566294" lon="11.826441"><ele>2403</ele></trkpt>
      <trkpt lat="46.566411" lon="11.826637"><ele>2397</ele></trkpt>
      <trkpt lat="46.56696" lon="11.826728"><ele>2388</ele></trkpt>
      <trkpt lat="46.567418" lon="11.82634"><ele>2387</ele></trkpt>
      <trkpt lat="46.567614" lon="11.826411"><ele>2382</ele></trkpt>
      <trkpt lat="46.567662" lon="11.826288"><ele>2381</ele></trkpt>
      <trkpt lat="46.567712" lon="11.826012"><ele>2379</ele></trkpt>
      <trkpt lat="46.567842" lon="11.825805"><ele>2378</ele></trkpt>
      <trkpt lat="46.568132" lon="11.825459"><ele>2377</ele></trkpt>
      <trkpt lat="46.568139" lon="11.825359"><ele>2380</ele></trkpt>
      <trkpt lat="46.568132" lon="11.825459"><ele>2377</ele></trkpt>
      <trkpt lat="46.567842" lon="11.825805"><ele>2378</ele></trkpt>
      <trkpt lat="46.567712" lon="11.826012"><ele>2379</ele></trkpt>
      <trkpt lat="46.567662" lon="11.826288"><ele>2381</ele></trkpt>
      <trkpt lat="46.567614" lon="11.826411"><ele>2382</ele></trkpt>
      <trkpt lat="46.567418" lon="11.82634"><ele>2387</ele></trkpt>
      <trkpt lat="46.56696" lon="11.826728"><ele>2388</ele></trkpt>
      <trkpt lat="46.566411" lon="11.826637"><ele>2397</ele></trkpt>
      <trkpt lat="46.566294" lon="11.826441"><ele>2403</ele></trkpt>
      <trkpt lat="46.566136" lon="11.826325"><ele>2405</ele></trkpt>
      <trkpt lat="46.566084" lon="11.826206"><ele>2406</ele></trkpt>
      <trkpt lat="46.565939" lon="11.826231"><ele>2408</ele></trkpt>
      <trkpt lat="46.565945" lon="11.826341"><ele>2407</ele></trkpt>
      <trkpt lat="46.566005" lon="11.826555"><ele>2405</ele></trkpt>
      <trkpt lat="46.566048" lon="11.826863"><ele>2403</ele></trkpt>
      <trkpt lat="46.566055" lon="11.826987"><ele>2403</ele></trkpt>
      <trkpt lat="46.566076" lon="11.82715"><ele>2403</ele></trkpt>
      <trkpt lat="46.566134" lon="11.827417"><ele>2402</ele></trkpt>
      <trkpt lat="46.566203" lon="11.827599"><ele>2401</ele></trkpt>
      <trkpt lat="46.566207" lon="11.827649"><ele>2401</ele></trkpt>
      <trkpt lat="46.566305" lon="11.827866"><ele>2401</ele></trkpt>
      <trkpt lat="46.566354" lon="11.82805"><ele>2402</ele></trkpt>
      <trkpt lat="46.566549" lon="11.82829"><ele>2402</ele></trkpt>
      <trkpt lat="46.566693" lon="11.828452"><ele>2401</ele></trkpt>
      <trkpt lat="46.566834" lon="11.82864"><ele>2400</ele></trkpt>
      <trkpt lat="46.566977" lon="11.828801"><ele>2400</ele></trkpt>
      <trkpt lat="46.567086" lon="11.829105"><ele>2403</ele></trkpt>
      <trkpt lat="46.567146" lon="11.829101"><ele>2401</ele></trkpt>
      <trkpt lat="46.567187" lon="11.829178"><ele>2401</ele></trkpt>
      <trkpt lat="46.567332" lon="11.829258"><ele>2402</ele></trkpt>
      <trkpt lat="46.567393" lon="11.829318"><ele>2403</ele></trkpt>
      <trkpt lat="46.567581" lon="11.829254"><ele>2401</ele></trkpt>
      <trkpt lat="46.567877" lon="11.829261"><ele>2401</ele></trkpt>
      <trkpt lat="46.567983" lon="11.829375"><ele>2401</ele></trkpt>
      <trkpt lat="46.568028" lon="11.829465"><ele>2402</ele></trkpt>
      <trkpt lat="46.568047" lon="11.829556"><ele>2403</ele></trkpt>
      <trkpt lat="46.568077" lon="11.82955"><ele>2404</ele></trkpt>
      <trkpt lat="46.568093" lon="11.829583"><ele>2405</ele></trkpt>
      <trkpt lat="46.568088" lon="11.829621"><ele>2405</ele></trkpt>
      <trkpt lat="46.56813" lon="11.829702"><ele>2408</ele></trkpt>
      <trkpt lat="46.568164" lon="11.829718"><ele>2409</ele></trkpt>
      <trkpt lat="46.568202" lon="11.829692"><ele>2410</ele></trkpt>
      <trkpt lat="46.568324" lon="11.829545"><ele>2411</ele></trkpt>
      <trkpt lat="46.568396" lon="11.829485"><ele>2413</ele></trkpt>
      <trkpt lat="46.568597" lon="11.829389"><ele>2424</ele></trkpt>
      <trkpt lat="46.568698" lon="11.829391"><ele>2426</ele></trkpt>
      <trkpt lat="46.568838" lon="11.829344"><ele>2429</ele></trkpt>
      <trkpt lat="46.568955" lon="11.82938"><ele>2430</ele></trkpt>
      <trkpt lat="46.569084" lon="11.829459"><ele>2431</ele></trkpt>
      <trkpt lat="46.569237" lon="11.829507"><ele>2431</ele></trkpt>
      <trkpt lat="46.569391" lon="11.829517"><ele>2429</ele></trkpt>
      <trkpt lat="46.569563" lon="11.829637"><ele>2428</ele></trkpt>
      <trkpt lat="46.569723" lon="11.829663"><ele>2426</ele></trkpt>
      <trkpt lat="46.569809" lon="11.829812"><ele>2424</ele></trkpt>
      <trkpt lat="46.569936" lon="11.829877"><ele>2421</ele></trkpt>
      <trkpt lat="46.570099" lon="11.830325"><ele>2418</ele></trkpt>
      <trkpt lat="46.570438" lon="11.830837"><ele>2421</ele></trkpt>
      <trkpt lat="46.570857" lon="11.831201"><ele>2423</ele></trkpt>
      <trkpt lat="46.571035" lon="11.831405"><ele>2425</ele></trkpt>
      <trkpt lat="46.571242" lon="11.831427"><ele>2426</ele></trkpt>
      <trkpt lat="46.571417" lon="11.83154"><ele>2425</ele></trkpt>
      <trkpt lat="46.571968" lon="11.832365"><ele>2422</ele></trkpt>
      <trkpt lat="46.572093" lon="11.832435"><ele>2420</ele></trkpt>
      <trkpt lat="46.572333" lon="11.832457"><ele>2418</ele></trkpt>
      <trkpt lat="46.572801" lon="11.832709"><ele>2414</ele></trkpt>
      <trkpt lat="46.572957" lon="11.832778"><ele>2415</ele></trkpt>
      <trkpt lat="46.573053" lon="11.832846"><ele>2415</ele></trkpt>
      <trkpt lat="46.573178" lon="11.832854"><ele>2414</ele></trkpt>
      <trkpt lat="46.57327" lon="11.832883"><ele>2413</ele></trkpt>
      <trkpt lat="46.573363" lon="11.832935"><ele>2413</ele></trkpt>
      <trkpt lat="46.573427" lon="11.833054"><ele>2414</ele></trkpt>
      <trkpt lat="46.573574" lon="11.833171"><ele>2414</ele></trkpt>
      <trkpt lat="46.573807" lon="11.833379"><ele>2411</ele></trkpt>
      <trkpt lat="46.573837" lon="11.833515"><ele>2407</ele></trkpt>
      <trkpt lat="46.573841" lon="11.833589"><ele>2406</ele></trkpt>
      <trkpt lat="46.573876" lon="11.833638"><ele>2404</ele></trkpt>
      <trkpt lat="46.573935" lon="11.83367"><ele>2403</ele></trkpt>
      <trkpt lat="46.574058" lon="11.833652"><ele>2403</ele></trkpt>
      <trkpt lat="46.57412" lon="11.833667"><ele>2403</ele></trkpt>
      <trkpt lat="46.574217" lon="11.833799"><ele>2401</ele></trkpt>
      <trkpt lat="46.574431" lon="11.834349"><ele>2398</ele></trkpt>
      <trkpt lat="46.574527" lon="11.834636"><ele>2398</ele></trkpt>
      <trkpt lat="46.574612" lon="11.835068"><ele>2397</ele></trkpt>
      <trkpt lat="46.57461" lon="11.835496"><ele>2400</ele></trkpt>
      <trkpt lat="46.574653" lon="11.83567"><ele>2400</ele></trkpt>
      <trkpt lat="46.574734" lon="11.835762"><ele>2399</ele></trkpt>
      <trkpt lat="46.574797" lon="11.836008"><ele>2397</ele></trkpt>
      <trkpt lat="46.574891" lon="11.836254"><ele>2393</ele></trkpt>
      <trkpt lat="46.575178" lon="11.836499"><ele>2387</ele></trkpt>
      <trkpt lat="46.575237" lon="11.836548"><ele>2386</ele></trkpt>
      <trkpt lat="46.575291" lon="11.836645"><ele>2383</ele></trkpt>
      <trkpt lat="46.575363" lon="11.83673"><ele>2382</ele></trkpt>
      <trkpt lat="46.575529" lon="11.836828"><ele>2380</ele></trkpt>
      <trkpt lat="46.575696" lon="11.836983"><ele>2377</ele></trkpt>
      <trkpt lat="46.575796" lon="11.837012"><ele>2376</ele></trkpt>
      <trkpt lat="46.575872" lon="11.837077"><ele>2373</ele></trkpt>
      <trkpt lat="46.576231" lon="11.837162"><ele>2375</ele></trkpt>
      <trkpt lat="46.576269" lon="11.837179"><ele>2376</ele></trkpt>
      <trkpt lat="46.576315" lon="11.837227"><ele>2376</ele></trkpt>
      <trkpt lat="46.576398" lon="11.83738"><ele>2372</ele></trkpt>
      <trkpt lat="46.576455" lon="11.837426"><ele>2371</ele></trkpt>
      <trkpt lat="46.576831" lon="11.837507"><ele>2370</ele></trkpt>
      <trkpt lat="46.576984" lon="11.837576"><ele>2367</ele></trkpt>
      <trkpt lat="46.577001" lon="11.837594"><ele>2366</ele></trkpt>
      <trkpt lat="46.577037" lon="11.83763"><ele>2366</ele></trkpt>
      <trkpt lat="46.57709" lon="11.837818"><ele>2367</ele></trkpt>
      <trkpt lat="46.577147" lon="11.837929"><ele>2369</ele></trkpt>
      <trkpt lat="46.577152" lon="11.838096"><ele>2368</ele></trkpt>
      <trkpt lat="46.577167" lon="11.838071"><ele>2369</ele></trkpt>
      <trkpt lat="46.577178" lon="11.838126"><ele>2371</ele></trkpt>
      <trkpt lat="46.577196" lon="11.838066"><ele>2371</ele></trkpt>
      <trkpt lat="46.577232" lon="11.838112"><ele>2375</ele></trkpt>
      <trkpt lat="46.577261" lon="11.838051"><ele>2375</ele></trkpt>
      <trkpt lat="46.577408" lon="11.83807"><ele>2383</ele></trkpt>
      <trkpt lat="46.577525" lon="11.83802"><ele>2387</ele></trkpt>
      <trkpt lat="46.577577" lon="11.838057"><ele>2387</ele></trkpt>
      <trkpt lat="46.577678" lon="11.838108"><ele>2388</ele></trkpt>
      <trkpt lat="46.577731" lon="11.838118"><ele>2388</ele></trkpt>
      <trkpt lat="46.577783" lon="11.838153"><ele>2389</ele></trkpt>
      <trkpt lat="46.577969" lon="11.838212"><ele>2389</ele></trkpt>
      <trkpt lat="46.57807" lon="11.838231"><ele>2390</ele></trkpt>
      <trkpt lat="46.578124" lon="11.838253"><ele>2390</ele></trkpt>
      <trkpt lat="46.578175" lon="11.838263"><ele>2390</ele></trkpt>
      <trkpt lat="46.578261" lon="11.838225"><ele>2391</ele></trkpt>
      <trkpt lat="46.578428" lon="11.838245"><ele>2392</ele></trkpt>
      <trkpt lat="46.57859" lon="11.838316"><ele>2395</ele></trkpt>
      <trkpt lat="46.578642" lon="11.838329"><ele>2395</ele></trkpt>
      <trkpt lat="46.578717" lon="11.838319"><ele>2396</ele></trkpt>
      <trkpt lat="46.578843" lon="11.838349"><ele>2398</ele></trkpt>
      <trkpt lat="46.578884" lon="11.838379"><ele>2399</ele></trkpt>
      <trkpt lat="46.57902" lon="11.838405"><ele>2399</ele></trkpt>
      <trkpt lat="46.579102" lon="11.838462"><ele>2400</ele></trkpt>
      <trkpt lat="46.579147" lon="11.838466"><ele>2400</ele></trkpt>
      <trkpt lat="46.579186" lon="11.838481"><ele>2400</ele></trkpt>
      <trkpt lat="46.579256" lon="11.838544"><ele>2401</ele></trkpt>
      <trkpt lat="46.579325" lon="11.838552"><ele>2401</ele></trkpt>
      <trkpt lat="46.579398" lon="11.838543"><ele>2400</ele></trkpt>
      <trkpt lat="46.579453" lon="11.838553"><ele>2400</ele></trkpt>
      <trkpt lat="46.579497" lon="11.838598"><ele>2402</ele></trkpt>
      <trkpt lat="46.579549" lon="11.838619"><ele>2402</ele></trkpt>
      <trkpt lat="46.579599" lon="11.838662"><ele>2403</ele></trkpt>
      <trkpt lat="46.579674" lon="11.838638"><ele>2403</ele></trkpt>
      <trkpt lat="46.579719" lon="11.838602"><ele>2402</ele></trkpt>
      <trkpt lat="46.579759" lon="11.838591"><ele>2402</ele></trkpt>
      <trkpt lat="46.579806" lon="11.838692"><ele>2404</ele></trkpt>
      <trkpt lat="46.579845" lon="11.838741"><ele>2405</ele></trkpt>
      <trkpt lat="46.579963" lon="11.838809"><ele>2406</ele></trkpt>
      <trkpt lat="46.580054" lon="11.838795"><ele>2407</ele></trkpt>
      <trkpt lat="46.580118" lon="11.838848"><ele>2409</ele></trkpt>
      <trkpt lat="46.580164" lon="11.838836"><ele>2409</ele></trkpt>
      <trkpt lat="46.580178" lon="11.838822"><ele>2409</ele></trkpt>
      <trkpt lat="46.580249" lon="11.838796"><ele>2410</ele></trkpt>
      <trkpt lat="46.580279" lon="11.838768"><ele>2410</ele></trkpt>
      <trkpt lat="46.58035" lon="11.83865"><ele>2410</ele></trkpt>
      <trkpt lat="46.580561" lon="11.838538"><ele>2411</ele></trkpt>
      <trkpt lat="46.580608" lon="11.838482"><ele>2411</ele></trkpt>
      <trkpt lat="46.580678" lon="11.83846"><ele>2411</ele></trkpt>
      <trkpt lat="46.580714" lon="11.838414"><ele>2411</ele></trkpt>
      <trkpt lat="46.58075" lon="11.838383"><ele>2410</ele></trkpt>
      <trkpt lat="46.580841" lon="11.838367"><ele>2411</ele></trkpt>
      <trkpt lat="46.580888" lon="11.838348"><ele>2411</ele></trkpt>
      <trkpt lat="46.581034" lon="11.838312"><ele>2413</ele></trkpt>
      <trkpt lat="46.581128" lon="11.838244"><ele>2413</ele></trkpt>
      <trkpt lat="46.581294" lon="11.838248"><ele>2415</ele></trkpt>
      <trkpt lat="46.581455" lon="11.838304"><ele>2418</ele></trkpt>
      <trkpt lat="46.581553" lon="11.838277"><ele>2419</ele></trkpt>
      <trkpt lat="46.581642" lon="11.838279"><ele>2421</ele></trkpt>
      <trkpt lat="46.581747" lon="11.838241"><ele>2421</ele></trkpt>
      <trkpt lat="46.581934" lon="11.838254"><ele>2424</ele></trkpt>
      <trkpt lat="46.582028" lon="11.838247"><ele>2425</ele></trkpt>
      <trkpt lat="46.582116" lon="11.838252"><ele>2426</ele></trkpt>
      <trkpt lat="46.582192" lon="11.838274"><ele>2427</ele></trkpt>
      <trkpt lat="46.582265" lon="11.838267"><ele>2427</ele></trkpt>
      <trkpt lat="46.582293" lon="11.838234"><ele>2426</ele></trkpt>
      <trkpt lat="46.582332" lon="11.838213"><ele>2425</ele></trkpt>
      <trkpt lat="46.582397" lon="11.838203"><ele>2425</ele></trkpt>
      <trkpt lat="46.58248" lon="11.83815"><ele>2424</ele></trkpt>
      <trkpt lat="46.582515" lon="11.838146"><ele>2424</ele></trkpt>
      <trkpt lat="46.582575" lon="11.838122"><ele>2423</ele></trkpt>
      <trkpt lat="46.582655" lon="11.838052"><ele>2422</ele></trkpt>
      <trkpt lat="46.582696" lon="11.83804"><ele>2422</ele></trkpt>
      <trkpt lat="46.582844" lon="11.837966"><ele>2422</ele></trkpt>
      <trkpt lat="46.582924" lon="11.837962"><ele>2423</ele></trkpt>
      <trkpt lat="46.582953" lon="11.837946"><ele>2423</ele></trkpt>
      <trkpt lat="46.582977" lon="11.837918"><ele>2423</ele></trkpt>
      <trkpt lat="46.583028" lon="11.837804"><ele>2422</ele></trkpt>
      <trkpt lat="46.583054" lon="11.837775"><ele>2422</ele></trkpt>
      <trkpt lat="46.583082" lon="11.837762"><ele>2422</ele></trkpt>
      <trkpt lat="46.583339" lon="11.837741"><ele>2423</ele></trkpt>
      <trkpt lat="46.583489" lon="11.837719"><ele>2424</ele></trkpt>
      <trkpt lat="46.583544" lon="11.837645"><ele>2422</ele></trkpt>
      <trkpt lat="46.583646" lon="11.837567"><ele>2422</ele></trkpt>
      <trkpt lat="46.583691" lon="11.837553"><ele>2424</ele></trkpt>
      <trkpt lat="46.583781" lon="11.837457"><ele>2423</ele></trkpt>
      <trkpt lat="46.583973" lon="11.837368"><ele>2426</ele></trkpt>
      <trkpt lat="46.584073" lon="11.837273"><ele>2427</ele></trkpt>
      <trkpt lat="46.584139" lon="11.837247"><ele>2428</ele></trkpt>
      <trkpt lat="46.584232" lon="11.837181"><ele>2428</ele></trkpt>
      <trkpt lat="46.584276" lon="11.83716"><ele>2428</ele></trkpt>
      <trkpt lat="46.584382" lon="11.837153"><ele>2430</ele></trkpt>
      <trkpt lat="46.584424" lon="11.837139"><ele>2430</ele></trkpt>
      <trkpt lat="46.584534" lon="11.83705"><ele>2429</ele></trkpt>
      <trkpt lat="46.584619" lon="11.837032"><ele>2430</ele></trkpt>
      <trkpt lat="46.584686" lon="11.836982"><ele>2429</ele></trkpt>
      <trkpt lat="46.5849" lon="11.836895"><ele>2425</ele></trkpt>
      <trkpt lat="46.585061" lon="11.836969"><ele>2427</ele></trkpt>
      <trkpt lat="46.58513" lon="11.83705"><ele>2429</ele></trkpt>
      <trkpt lat="46.58518" lon="11.837062"><ele>2428</ele></trkpt>
      <trkpt lat="46.585236" lon="11.837092"><ele>2427</ele></trkpt>
      <trkpt lat="46.58526" lon="11.837153"><ele>2427</ele></trkpt>
      <trkpt lat="46.585288" lon="11.837171"><ele>2426</ele></trkpt>
      <trkpt lat="46.585319" lon="11.837173"><ele>2425</ele></trkpt>
      <trkpt lat="46.585349" lon="11.837194"><ele>2425</ele></trkpt>
      <trkpt lat="46.585374" lon="11.83724"><ele>2426</ele></trkpt>
      <trkpt lat="46.585468" lon="11.837357"><ele>2427</ele></trkpt>
      <trkpt lat="46.58558" lon="11.837438"><ele>2427</ele></trkpt>
      <trkpt lat="46.585627" lon="11.837454"><ele>2428</ele></trkpt>
      <trkpt lat="46.585799" lon="11.837425"><ele>2428</ele></trkpt>
      <trkpt lat="46.585861" lon="11.837368"><ele>2428</ele></trkpt>
      <trkpt lat="46.586011" lon="11.837244"><ele>2430</ele></trkpt>
      <trkpt lat="46.586059" lon="11.837183"><ele>2431</ele></trkpt>
      <trkpt lat="46.586119" lon="11.837022"><ele>2432</ele></trkpt>
      <trkpt lat="46.586167" lon="11.83695"><ele>2433</ele></trkpt>
      <trkpt lat="46.586202" lon="11.836863"><ele>2433</ele></trkpt>
      <trkpt lat="46.58623" lon="11.836775"><ele>2432</ele></trkpt>
      <trkpt lat="46.586232" lon="11.836671"><ele>2431</ele></trkpt>
      <trkpt lat="46.586253" lon="11.836594"><ele>2432</ele></trkpt>
      <trkpt lat="46.586269" lon="11.836471"><ele>2433</ele></trkpt>
      <trkpt lat="46.586232" lon="11.836333"><ele>2429</ele></trkpt>
      <trkpt lat="46.586246" lon="11.836208"><ele>2429</ele></trkpt>
      <trkpt lat="46.586276" lon="11.836076"><ele>2429</ele></trkpt>
      <trkpt lat="46.58632" lon="11.835951"><ele>2431</ele></trkpt>
      <trkpt lat="46.586416" lon="11.835713"><ele>2433</ele></trkpt>
      <trkpt lat="46.586479" lon="11.835605"><ele>2434</ele></trkpt>
      <trkpt lat="46.586564" lon="11.835511"><ele>2436</ele></trkpt>
      <trkpt lat="46.586623" lon="11.835433"><ele>2438</ele></trkpt>
      <trkpt lat="46.58664" lon="11.835156"><ele>2440</ele></trkpt>
      <trkpt lat="46.586619" lon="11.834993"><ele>2441</ele></trkpt>
      <trkpt lat="46.586584" lon="11.834802"><ele>2445</ele></trkpt>
      <trkpt lat="46.586393" lon="11.834369"><ele>2446</ele></trkpt>
      <trkpt lat="46.586378" lon="11.834287"><ele>2446</ele></trkpt>
      <trkpt lat="46.586383" lon="11.834209"><ele>2446</ele></trkpt>
      <trkpt lat="46.586418" lon="11.834151"><ele>2449</ele></trkpt>
      <trkpt lat="46.586456" lon="11.834068"><ele>2450</ele></trkpt>
      <trkpt lat="46.586486" lon="11.833963"><ele>2449</ele></trkpt>
      <trkpt lat="46.586505" lon="11.833958"><ele>2451</ele></trkpt>
      <trkpt lat="46.586527" lon="11.834004"><ele>2453</ele></trkpt>
      <trkpt lat="46.586552" lon="11.833997"><ele>2455</ele></trkpt>
      <trkpt lat="46.586563" lon="11.83393"><ele>2454</ele></trkpt>
      <trkpt lat="46.586634" lon="11.833695"><ele>2458</ele></trkpt>
      <trkpt lat="46.586659" lon="11.833589"><ele>2459</ele></trkpt>
      <trkpt lat="46.586657" lon="11.833512"><ele>2456</ele></trkpt>
      <trkpt lat="46.586672" lon="11.833419"><ele>2454</ele></trkpt>
      <trkpt lat="46.586707" lon="11.833315"><ele>2454</ele></trkpt>
      <trkpt lat="46.586815" lon="11.833188"><ele>2460</ele></trkpt>
      <trkpt lat="46.58688" lon="11.8331"><ele>2463</ele></trkpt>
      <trkpt lat="46.586916" lon="11.83299"><ele>2465</ele></trkpt>
      <trkpt lat="46.586942" lon="11.832767"><ele>2465</ele></trkpt>
      <trkpt lat="46.586937" lon="11.832727"><ele>2464</ele></trkpt>
      <trkpt lat="46.586943" lon="11.832694"><ele>2465</ele></trkpt>
      <trkpt lat="46.586972" lon="11.832673"><ele>2466</ele></trkpt>
      <trkpt lat="46.586984" lon="11.832624"><ele>2466</ele></trkpt>
      <trkpt lat="46.586989" lon="11.832472"><ele>2466</ele></trkpt>
      <trkpt lat="46.58698" lon="11.832397"><ele>2466</ele></trkpt>
      <trkpt lat="46.586999" lon="11.832364"><ele>2467</ele></trkpt>
      <trkpt lat="46.587028" lon="11.832349"><ele>2468</ele></trkpt>
      <trkpt lat="46.587062" lon="11.832182"><ele>2469</ele></trkpt>
      <trkpt lat="46.587065" lon="11.832115"><ele>2468</ele></trkpt>
      <trkpt lat="46.587091" lon="11.83202"><ele>2469</ele></trkpt>
      <trkpt lat="46.587092" lon="11.831926"><ele>2468</ele></trkpt>
      <trkpt lat="46.587124" lon="11.831869"><ele>2469</ele></trkpt>
      <trkpt lat="46.587134" lon="11.831787"><ele>2468</ele></trkpt>
      <trkpt lat="46.58721" lon="11.83162"><ele>2469</ele></trkpt>
      <trkpt lat="46.587274" lon="11.831349"><ele>2469</ele></trkpt>
      <trkpt lat="46.587287" lon="11.831229"><ele>2470</ele></trkpt>
      <trkpt lat="46.587279" lon="11.831124"><ele>2469</ele></trkpt>
      <trkpt lat="46.587308" lon="11.830946"><ele>2465</ele></trkpt>
      <trkpt lat="46.587341" lon="11.830835"><ele>2463</ele></trkpt>
      <trkpt lat="46.587378" lon="11.830784"><ele>2465</ele></trkpt>
      <trkpt lat="46.587404" lon="11.830702"><ele>2465</ele></trkpt>
      <trkpt lat="46.587486" lon="11.830599"><ele>2472</ele></trkpt>
      <trkpt lat="46.587666" lon="11.830467"><ele>2474</ele></trkpt>
      <trkpt lat="46.587794" lon="11.830415"><ele>2475</ele></trkpt>
      <trkpt lat="46.587906" lon="11.830387"><ele>2475</ele></trkpt>
      <trkpt lat="46.588014" lon="11.830415"><ele>2475</ele></trkpt>
      <trkpt lat="46.588104" lon="11.830426"><ele>2476</ele></trkpt>
      <trkpt lat="46.588217" lon="11.830462"><ele>2478</ele></trkpt>
      <trkpt lat="46.588452" lon="11.830433"><ele>2480</ele></trkpt>
      <trkpt lat="46.588569" lon="11.830387"><ele>2480</ele></trkpt>
      <trkpt lat="46.588663" lon="11.83036"><ele>2480</ele></trkpt>
      <trkpt lat="46.588881" lon="11.830242"><ele>2480</ele></trkpt>
      <trkpt lat="46.589068" lon="11.83016"><ele>2480</ele></trkpt>
      <trkpt lat="46.589303" lon="11.829869"><ele>2475</ele></trkpt>
      <trkpt lat="46.589404" lon="11.829781"><ele>2475</ele></trkpt>
      <trkpt lat="46.589483" lon="11.829741"><ele>2475</ele></trkpt>
      <trkpt lat="46.589548" lon="11.829668"><ele>2475</ele></trkpt>
      <trkpt lat="46.589586" lon="11.82957"><ele>2474</ele></trkpt>
      <trkpt lat="46.589633" lon="11.829535"><ele>2474</ele></trkpt>
      <trkpt lat="46.589683" lon="11.829544"><ele>2475</ele></trkpt>
      <trkpt lat="46.589756" lon="11.829581"><ele>2476</ele></trkpt>
      <trkpt lat="46.58986" lon="11.829604"><ele>2478</ele></trkpt>
      <trkpt lat="46.589965" lon="11.829572"><ele>2479</ele></trkpt>
      <trkpt lat="46.590005" lon="11.829576"><ele>2479</ele></trkpt>
      <trkpt lat="46.590036" lon="11.829476"><ele>2478</ele></trkpt>
      <trkpt lat="46.590048" lon="11.829374"><ele>2479</ele></trkpt>
      <trkpt lat="46.590026" lon="11.82922"><ele>2479</ele></trkpt>
      <trkpt lat="46.590048" lon="11.829374"><ele>2479</ele></trkpt>
      <trkpt lat="46.590036" lon="11.829476"><ele>2478</ele></trkpt>
      <trkpt lat="46.590005" lon="11.829576"><ele>2479</ele></trkpt>
      <trkpt lat="46.589965" lon="11.829572"><ele>2479</ele></trkpt>
      <trkpt lat="46.58986" lon="11.829604"><ele>2478</ele></trkpt>
      <trkpt lat="46.589756" lon="11.829581"><ele>2476</ele></trkpt>
      <trkpt lat="46.589683" lon="11.829544"><ele>2475</ele></trkpt>
      <trkpt lat="46.589633" lon="11.829535"><ele>2474</ele></trkpt>
      <trkpt lat="46.589586" lon="11.82957"><ele>2474</ele></trkpt>
      <trkpt lat="46.589548" lon="11.829668"><ele>2475</ele></trkpt>
      <trkpt lat="46.58948" lon="11.829643"><ele>2473</ele></trkpt>
      <trkpt lat="46.5892" lon="11.829754"><ele>2469</ele></trkpt>
      <trkpt lat="46.589154" lon="11.829711"><ele>2466</ele></trkpt>
      <trkpt lat="46.589056" lon="11.829738"><ele>2463</ele></trkpt>
      <trkpt lat="46.589" lon="11.829682"><ele>2460</ele></trkpt>
      <trkpt lat="46.588917" lon="11.829748"><ele>2459</ele></trkpt>
      <trkpt lat="46.588716" lon="11.829633"><ele>2450</ele></trkpt>
      <trkpt lat="46.588624" lon="11.829652"><ele>2448</ele></trkpt>
      <trkpt lat="46.588503" lon="11.8295"><ele>2441</ele></trkpt>
      <trkpt lat="46.588388" lon="11.829575"><ele>2440</ele></trkpt>
      <trkpt lat="46.587996" lon="11.829474"><ele>2423</ele></trkpt>
      <trkpt lat="46.587903" lon="11.829602"><ele>2422</ele></trkpt>
      <trkpt lat="46.587855" lon="11.829569"><ele>2418</ele></trkpt>
      <trkpt lat="46.587759" lon="11.829635"><ele>2413</ele></trkpt>
      <trkpt lat="46.587682" lon="11.829806"><ele>2416</ele></trkpt>
      <trkpt lat="46.587591" lon="11.829842"><ele>2408</ele></trkpt>
      <trkpt lat="46.587444" lon="11.829853"><ele>2394</ele></trkpt>
      <trkpt lat="46.587299" lon="11.829741"><ele>2380</ele></trkpt>
      <trkpt lat="46.587054" lon="11.829851"><ele>2367</ele></trkpt>
      <trkpt lat="46.586892" lon="11.829889"><ele>2358</ele></trkpt>
      <trkpt lat="46.586754" lon="11.830015"><ele>2353</ele></trkpt>
      <trkpt lat="46.586673" lon="11.830163"><ele>2349</ele></trkpt>
      <trkpt lat="46.586695" lon="11.830241"><ele>2352</ele></trkpt>
      <trkpt lat="46.586668" lon="11.830303"><ele>2351</ele></trkpt>
      <trkpt lat="46.586624" lon="11.830312"><ele>2347</ele></trkpt>
      <trkpt lat="46.586593" lon="11.830303"><ele>2344</ele></trkpt>
      <trkpt lat="46.586534" lon="11.830357"><ele>2340</ele></trkpt>
      <trkpt lat="46.586493" lon="11.830425"><ele>2337</ele></trkpt>
      <trkpt lat="46.586427" lon="11.830702"><ele>2334</ele></trkpt>
      <trkpt lat="46.586411" lon="11.830832"><ele>2333</ele></trkpt>
      <trkpt lat="46.586374" lon="11.830976"><ele>2336</ele></trkpt>
      <trkpt lat="46.586358" lon="11.830895"><ele>2330</ele></trkpt>
      <trkpt lat="46.586188" lon="11.83126"><ele>2322</ele></trkpt>
      <trkpt lat="46.586105" lon="11.831447"><ele>2311</ele></trkpt>
      <trkpt lat="46.586049" lon="11.831652"><ele>2310</ele></trkpt>
      <trkpt lat="46.585968" lon="11.831816"><ele>2308</ele></trkpt>
      <trkpt lat="46.585937" lon="11.831904"><ele>2307</ele></trkpt>
      <trkpt lat="46.585847" lon="11.831932"><ele>2302</ele></trkpt>
      <trkpt lat="46.585809" lon="11.832092"><ele>2301</ele></trkpt>
      <trkpt lat="46.585754" lon="11.832206"><ele>2298</ele></trkpt>
      <trkpt lat="46.585704" lon="11.832351"><ele>2295</ele></trkpt>
      <trkpt lat="46.585676" lon="11.832457"><ele>2292</ele></trkpt>
      <trkpt lat="46.585661" lon="11.832546"><ele>2291</ele></trkpt>
      <trkpt lat="46.585605" lon="11.832636"><ele>2287</ele></trkpt>
      <trkpt lat="46.585582" lon="11.832732"><ele>2286</ele></trkpt>
      <trkpt lat="46.585503" lon="11.832949"><ele>2281</ele></trkpt>
      <trkpt lat="46.585491" lon="11.833018"><ele>2280</ele></trkpt>
      <trkpt lat="46.585452" lon="11.833078"><ele>2277</ele></trkpt>
      <trkpt lat="46.585407" lon="11.833176"><ele>2275</ele></trkpt>
      <trkpt lat="46.585324" lon="11.833203"><ele>2269</ele></trkpt>
      <trkpt lat="46.585344" lon="11.833283"><ele>2271</ele></trkpt>
      <trkpt lat="46.585317" lon="11.833315"><ele>2269</ele></trkpt>
      <trkpt lat="46.585312" lon="11.83337"><ele>2269</ele></trkpt>
      <trkpt lat="46.585295" lon="11.833449"><ele>2268</ele></trkpt>
      <trkpt lat="46.585294" lon="11.833507"><ele>2269</ele></trkpt>
      <trkpt lat="46.585272" lon="11.833607"><ele>2268</ele></trkpt>
      <trkpt lat="46.585219" lon="11.833735"><ele>2267</ele></trkpt>
      <trkpt lat="46.585134" lon="11.833859"><ele>2265</ele></trkpt>
      <trkpt lat="46.585036" lon="11.833969"><ele>2262</ele></trkpt>
      <trkpt lat="46.584951" lon="11.834019"><ele>2260</ele></trkpt>
      <trkpt lat="46.584838" lon="11.834029"><ele>2255</ele></trkpt>
      <trkpt lat="46.584856" lon="11.833874"><ele>2252</ele></trkpt>
      <trkpt lat="46.584725" lon="11.833941"><ele>2249</ele></trkpt>
      <trkpt lat="46.584746" lon="11.833742"><ele>2245</ele></trkpt>
      <trkpt lat="46.584619" lon="11.833856"><ele>2241</ele></trkpt>
      <trkpt lat="46.584601" lon="11.833941"><ele>2242</ele></trkpt>
      <trkpt lat="46.584459" lon="11.834203"><ele>2240</ele></trkpt>
      <trkpt lat="46.584356" lon="11.834346"><ele>2239</ele></trkpt>
      <trkpt lat="46.584226" lon="11.834394"><ele>2235</ele></trkpt>
      <trkpt lat="46.584172" lon="11.834381"><ele>2233</ele></trkpt>
      <trkpt lat="46.584136" lon="11.834358"><ele>2230</ele></trkpt>
      <trkpt lat="46.584093" lon="11.834387"><ele>2229</ele></trkpt>
      <trkpt lat="46.584013" lon="11.834484"><ele>2230</ele></trkpt>
      <trkpt lat="46.583642" lon="11.834509"><ele>2224</ele></trkpt>
      <trkpt lat="46.583451" lon="11.834443"><ele>2220</ele></trkpt>
      <trkpt lat="46.583126" lon="11.834216"><ele>2212</ele></trkpt>
      <trkpt lat="46.582767" lon="11.833921"><ele>2201</ele></trkpt>
      <trkpt lat="46.582709" lon="11.833928"><ele>2202</ele></trkpt>
      <trkpt lat="46.582575" lon="11.833754"><ele>2194</ele></trkpt>
      <trkpt lat="46.581847" lon="11.833323"><ele>2168</ele></trkpt>
      <trkpt lat="46.581756" lon="11.83336"><ele>2169</ele></trkpt>
      <trkpt lat="46.581664" lon="11.83332"><ele>2166</ele></trkpt>
      <trkpt lat="46.581587" lon="11.833198"><ele>2161</ele></trkpt>
      <trkpt lat="46.581643" lon="11.83316"><ele>2159</ele></trkpt>
      <trkpt lat="46.581536" lon="11.833069"><ele>2156</ele></trkpt>
      <trkpt lat="46.58163" lon="11.83298"><ele>2153</ele></trkpt>
      <trkpt lat="46.581576" lon="11.832905"><ele>2150</ele></trkpt>
      <trkpt lat="46.581596" lon="11.832781"><ele>2146</ele></trkpt>
      <trkpt lat="46.581545" lon="11.832747"><ele>2145</ele></trkpt>
      <trkpt lat="46.581567" lon="11.832668"><ele>2142</ele></trkpt>
      <trkpt lat="46.58151" lon="11.83262"><ele>2140</ele></trkpt>
      <trkpt lat="46.581582" lon="11.83251"><ele>2137</ele></trkpt>
      <trkpt lat="46.58154" lon="11.832463"><ele>2136</ele></trkpt>
      <trkpt lat="46.581552" lon="11.832386"><ele>2133</ele></trkpt>
      <trkpt lat="46.581473" lon="11.832319"><ele>2131</ele></trkpt>
      <trkpt lat="46.581543" lon="11.832143"><ele>2127</ele></trkpt>
      <trkpt lat="46.581444" lon="11.832114"><ele>2126</ele></trkpt>
      <trkpt lat="46.581493" lon="11.832033"><ele>2124</ele></trkpt>
      <trkpt lat="46.581447" lon="11.831848"><ele>2120</ele></trkpt>
      <trkpt lat="46.581064" lon="11.831787"><ele>2113</ele></trkpt>
      <trkpt lat="46.580899" lon="11.831556"><ele>2107</ele></trkpt>
      <trkpt lat="46.580801" lon="11.831521"><ele>2105</ele></trkpt>
      <trkpt lat="46.580687" lon="11.831749"><ele>2102</ele></trkpt>
      <trkpt lat="46.580419" lon="11.831648"><ele>2094</ele></trkpt>
      <trkpt lat="46.580334" lon="11.831665"><ele>2091</ele></trkpt>
      <trkpt lat="46.580261" lon="11.831635"><ele>2089</ele></trkpt>
      <trkpt lat="46.580167" lon="11.831558"><ele>2083</ele></trkpt>
      <trkpt lat="46.580089" lon="11.83178"><ele>2081</ele></trkpt>
      <trkpt lat="46.579989" lon="11.831753"><ele>2074</ele></trkpt>
      <trkpt lat="46.579934" lon="11.831701"><ele>2072</ele></trkpt>
      <trkpt lat="46.579905" lon="11.831823"><ele>2076</ele></trkpt>
      <trkpt lat="46.579803" lon="11.83179"><ele>2074</ele></trkpt>
      <trkpt lat="46.579776" lon="11.831724"><ele>2072</ele></trkpt>
      <trkpt lat="46.579817" lon="11.831571"><ele>2069</ele></trkpt>
      <trkpt lat="46.579787" lon="11.831409"><ele>2066</ele></trkpt>
      <trkpt lat="46.57975" lon="11.831212"><ele>2061</ele></trkpt>
      <trkpt lat="46.579826" lon="11.830953"><ele>2055</ele></trkpt>
      <trkpt lat="46.579793" lon="11.830808"><ele>2054</ele></trkpt>
      <trkpt lat="46.579947" lon="11.830335"><ele>2042</ele></trkpt>
      <trkpt lat="46.579982" lon="11.830043"><ele>2037</ele></trkpt>
      <trkpt lat="46.580255" lon="11.829489"><ele>2024</ele></trkpt>
      <trkpt lat="46.580312" lon="11.829522"><ele>2022</ele></trkpt>
      <trkpt lat="46.580469" lon="11.829223"><ele>2013</ele></trkpt>
      <trkpt lat="46.580608" lon="11.829201"><ele>2007</ele></trkpt>
      <trkpt lat="46.580674" lon="11.829274"><ele>2006</ele></trkpt>
      <trkpt lat="46.580724" lon="11.829331"><ele>2005</ele></trkpt>
      <trkpt lat="46.581046" lon="11.829213"><ele>1997</ele></trkpt>
      <trkpt lat="46.581313" lon="11.829223"><ele>1992</ele></trkpt>
      <trkpt lat="46.581488" lon="11.828993"><ele>1988</ele></trkpt>
      <trkpt lat="46.581713" lon="11.828651"><ele>1983</ele></trkpt>
      <trkpt lat="46.581758" lon="11.8284"><ele>1980</ele></trkpt>
      <trkpt lat="46.581908" lon="11.825138"><ele>1942</ele></trkpt>
      <trkpt lat="46.581979" lon="11.82487"><ele>1941</ele></trkpt>
      <trkpt lat="46.581949" lon="11.824243"><ele>1930</ele></trkpt>
      <trkpt lat="46.582052" lon="11.823998"><ele>1926</ele></trkpt>
      <trkpt lat="46.581816" lon="11.823551"><ele>1911</ele></trkpt>
      <trkpt lat="46.581808" lon="11.823009"><ele>1900</ele></trkpt>
      <trkpt lat="46.58189" lon="11.822676"><ele>1894</ele></trkpt>
      <trkpt lat="46.58191" lon="11.822485"><ele>1891</ele></trkpt>
      <trkpt lat="46.581851" lon="11.822317"><ele>1888</ele></trkpt>
      <trkpt lat="46.581947" lon="11.821438"><ele>1874</ele></trkpt>
      <trkpt lat="46.581994" lon="11.821071"><ele>1870</ele></trkpt>
      <trkpt lat="46.581974" lon="11.820737"><ele>1868</ele></trkpt>
      <trkpt lat="46.581996" lon="11.820419"><ele>1866</ele></trkpt>
      <trkpt lat="46.582014" lon="11.820367"><ele>1866</ele></trkpt>
      <trkpt lat="46.582108" lon="11.820091"><ele>1864</ele></trkpt>
      <trkpt lat="46.582028" lon="11.819658"><ele>1860</ele></trkpt>
      <trkpt lat="46.582006" lon="11.818888"><ele>1853</ele></trkpt>
      <trkpt lat="46.582071" lon="11.818503"><ele>1852</ele></trkpt>
      <trkpt lat="46.582096" lon="11.818123"><ele>1850</ele></trkpt>
      <trkpt lat="46.582011" lon="11.81788"><ele>1847</ele></trkpt>
      <trkpt lat="46.581876" lon="11.817195"><ele>1844</ele></trkpt>
      <trkpt lat="46.581312" lon="11.816535"><ele>1841</ele></trkpt>
      <trkpt lat="46.581185" lon="11.816012"><ele>1838</ele></trkpt>
      <trkpt lat="46.581108" lon="11.815691"><ele>1835</ele></trkpt>
      <trkpt lat="46.58099" lon="11.815575"><ele>1833</ele></trkpt>
      <trkpt lat="46.580857" lon="11.815203"><ele>1830</ele></trkpt>
      <trkpt lat="46.580341" lon="11.813974"><ele>1824</ele></trkpt>
      <trkpt lat="46.579925" lon="11.813145"><ele>1818</ele></trkpt>
      <trkpt lat="46.579208" lon="11.811627"><ele>1811</ele></trkpt>
      <trkpt lat="46.578402" lon="11.810302"><ele>1806</ele></trkpt>
      <trkpt lat="46.578244" lon="11.809798"><ele>1805</ele></trkpt>
      <trkpt lat="46.577977" lon="11.808822"><ele>1802</ele></trkpt>
      <trkpt lat="46.577313" lon="11.807171"><ele>1798</ele></trkpt>
      <trkpt lat="46.576995" lon="11.806467"><ele>1798</ele></trkpt>
      <trkpt lat="46.576585" lon="11.805692"><ele>1798</ele></trkpt>
      <trkpt lat="46.576466" lon="11.805581"><ele>1798</ele></trkpt>
      <trkpt lat="46.576322" lon="11.805526"><ele>1798</ele></trkpt>
      <trkpt lat="46.576201" lon="11.805221"><ele>1799</ele></trkpt>
      <trkpt lat="46.576113" lon="11.805279"><ele>1799</ele></trkpt>
      <trkpt lat="46.575952" lon="11.805141"><ele>1803</ele></trkpt>
      <trkpt lat="46.575854" lon="11.803571"><ele>1799</ele></trkpt>
      <trkpt lat="46.575718" lon="11.802914"><ele>1793</ele></trkpt>
      <trkpt lat="46.575581" lon="11.802707"><ele>1793</ele></trkpt>
      <trkpt lat="46.574732" lon="11.801957"><ele>1789</ele></trkpt>
      <trkpt lat="46.574709" lon="11.801897"><ele>1789</ele></trkpt>
      <trkpt lat="46.574716" lon="11.801814"><ele>1790</ele></trkpt>
      <trkpt lat="46.574806" lon="11.80159"><ele>1789</ele></trkpt>
      <trkpt lat="46.574872" lon="11.80129"><ele>1789</ele></trkpt>
      <trkpt lat="46.5749" lon="11.800964"><ele>1788</ele></trkpt>
      <trkpt lat="46.574837" lon="11.800579"><ele>1788</ele></trkpt>
      <trkpt lat="46.5748" lon="11.800207"><ele>1787</ele></trkpt>
      <trkpt lat="46.574632" lon="11.799487"><ele>1784</ele></trkpt>
      <trkpt lat="46.574524" lon="11.798876"><ele>1784</ele></trkpt>
      <trkpt lat="46.574525" lon="11.798627"><ele>1784</ele></trkpt>
      <trkpt lat="46.574535" lon="11.798415"><ele>1783</ele></trkpt>
      <trkpt lat="46.57451" lon="11.798232"><ele>1782</ele></trkpt>
      <trkpt lat="46.573933" lon="11.796847"><ele>1776</ele></trkpt>
      <trkpt lat="46.573787" lon="11.796525"><ele>1775</ele></trkpt>
      <trkpt lat="46.573578" lon="11.796351"><ele>1776</ele></trkpt>
      <trkpt lat="46.573318" lon="11.796147"><ele>1771</ele></trkpt>
      <trkpt lat="46.572365" lon="11.795397"><ele>1771</ele></trkpt>
      <trkpt lat="46.571953" lon="11.7953"><ele>1774</ele></trkpt>
      <trkpt lat="46.571916" lon="11.79524"><ele>1775</ele></trkpt>
      <trkpt lat="46.571909" lon="11.795143"><ele>1774</ele></trkpt>
      <trkpt lat="46.572008" lon="11.794519"><ele>1771</ele></trkpt>
      <trkpt lat="46.572086" lon="11.794358"><ele>1768</ele></trkpt>
      <trkpt lat="46.572068" lon="11.794193"><ele>1767</ele></trkpt>
      <trkpt lat="46.571949" lon="11.79405"><ele>1768</ele></trkpt>
      <trkpt lat="46.571878" lon="11.793806"><ele>1766</ele></trkpt>
      <trkpt lat="46.571903" lon="11.793416"><ele>1763</ele></trkpt>
      <trkpt lat="46.571986" lon="11.793033"><ele>1761</ele></trkpt>
      <trkpt lat="46.572036" lon="11.792999"><ele>1760</ele></trkpt>
      <trkpt lat="46.572094" lon="11.793038"><ele>1759</ele></trkpt>
      <trkpt lat="46.572265" lon="11.793696"><ele>1755</ele></trkpt>
      <trkpt lat="46.572447" lon="11.794029"><ele>1753</ele></trkpt>
      <trkpt lat="46.572562" lon="11.794049"><ele>1752</ele></trkpt>
      <trkpt lat="46.572659" lon="11.793975"><ele>1751</ele></trkpt>
      <trkpt lat="46.572705" lon="11.793772"><ele>1749</ele></trkpt>
      <trkpt lat="46.572833" lon="11.792885"><ele>1745</ele></trkpt>
      <trkpt lat="46.572829" lon="11.792773"><ele>1745</ele></trkpt>
      <trkpt lat="46.572812" lon="11.792691"><ele>1745</ele></trkpt>
      <trkpt lat="46.572784" lon="11.792621"><ele>1744</ele></trkpt>
      <trkpt lat="46.572726" lon="11.79253"><ele>1744</ele></trkpt>
      <trkpt lat="46.572637" lon="11.792418"><ele>1744</ele></trkpt>
      <trkpt lat="46.572502" lon="11.792292"><ele>1744</ele></trkpt>
      <trkpt lat="46.57246" lon="11.792238"><ele>1744</ele></trkpt>
      <trkpt lat="46.572427" lon="11.792168"><ele>1745</ele></trkpt>
      <trkpt lat="46.572307" lon="11.791737"><ele>1745</ele></trkpt>
      <trkpt lat="46.572113" lon="11.791179"><ele>1745</ele></trkpt>
      <trkpt lat="46.57206" lon="11.791075"><ele>1744</ele></trkpt>
      <trkpt lat="46.571956" lon="11.790974"><ele>1744</ele></trkpt>
      <trkpt lat="46.571817" lon="11.790775"><ele>1744</ele></trkpt>
      <trkpt lat="46.571721" lon="11.790585"><ele>1744</ele></trkpt>
      <trkpt lat="46.571644" lon="11.790412"><ele>1743</ele></trkpt>
      <trkpt lat="46.571607" lon="11.790269"><ele>1742</ele></trkpt>
      <trkpt lat="46.571437" lon="11.789887"><ele>1739</ele></trkpt>
      <trkpt lat="46.571354" lon="11.789652"><ele>1737</ele></trkpt>
      <trkpt lat="46.571317" lon="11.789479"><ele>1735</ele></trkpt>
      <trkpt lat="46.571264" lon="11.789333"><ele>1734</ele></trkpt>
      <trkpt lat="46.571243" lon="11.789232"><ele>1733</ele></trkpt>
      <trkpt lat="46.571227" lon="11.789135"><ele>1732</ele></trkpt>
      <trkpt lat="46.571191" lon="11.789046"><ele>1731</ele></trkpt>
      <trkpt lat="46.571099" lon="11.788955"><ele>1729</ele></trkpt>
      <trkpt lat="46.571049" lon="11.788868"><ele>1728</ele></trkpt>
      <trkpt lat="46.571028" lon="11.788761"><ele>1727</ele></trkpt>
      <trkpt lat="46.571021" lon="11.788662"><ele>1726</ele></trkpt>
      <trkpt lat="46.571027" lon="11.788556"><ele>1724</ele></trkpt>
      <trkpt lat="46.571044" lon="11.788397"><ele>1723</ele></trkpt>
      <trkpt lat="46.571083" lon="11.788235"><ele>1721</ele></trkpt>
      <trkpt lat="46.571172" lon="11.78802"><ele>1721</ele></trkpt>
      <trkpt lat="46.571184" lon="11.787939"><ele>1720</ele></trkpt>
      <trkpt lat="46.571146" lon="11.787645"><ele>1718</ele></trkpt>
      <trkpt lat="46.57111" lon="11.787557"><ele>1716</ele></trkpt>
      <trkpt lat="46.570972" lon="11.787377"><ele>1715</ele></trkpt>
      <trkpt lat="46.57091" lon="11.787326"><ele>1714</ele></trkpt>
      <trkpt lat="46.570783" lon="11.787272"><ele>1712</ele></trkpt>
      <trkpt lat="46.570392" lon="11.787157"><ele>1707</ele></trkpt>
      <trkpt lat="46.57036" lon="11.787128"><ele>1707</ele></trkpt>
      <trkpt lat="46.570226" lon="11.786825"><ele>1703</ele></trkpt>
      <trkpt lat="46.570047" lon="11.786572"><ele>1700</ele></trkpt>
      <trkpt lat="46.570026" lon="11.786528"><ele>1700</ele></trkpt>
      <trkpt lat="46.569965" lon="11.786337"><ele>1698</ele></trkpt>
      <trkpt lat="46.569926" lon="11.786273"><ele>1698</ele></trkpt>
      <trkpt lat="46.5698" lon="11.786125"><ele>1696</ele></trkpt>
      <trkpt lat="46.569546" lon="11.785885"><ele>1694</ele></trkpt>
      <trkpt lat="46.569417" lon="11.785691"><ele>1692</ele></trkpt>
      <trkpt lat="46.569214" lon="11.785351"><ele>1689</ele></trkpt>
      <trkpt lat="46.569028" lon="11.785015"><ele>1685</ele></trkpt>
      <trkpt lat="46.568931" lon="11.784764"><ele>1681</ele></trkpt>
      <trkpt lat="46.568906" lon="11.784671"><ele>1679</ele></trkpt>
      <trkpt lat="46.568766" lon="11.784156"><ele>1673</ele></trkpt>
      <trkpt lat="46.568705" lon="11.784157"><ele>1672</ele></trkpt>
      <trkpt lat="46.568502" lon="11.783888"><ele>1668</ele></trkpt>
      <trkpt lat="46.568452" lon="11.783888"><ele>1667</ele></trkpt>
      <trkpt lat="46.568405" lon="11.783898"><ele>1667</ele></trkpt>
      <trkpt lat="46.568189" lon="11.783536"><ele>1663</ele></trkpt>
      <trkpt lat="46.568144" lon="11.783476"><ele>1662</ele></trkpt>
      <trkpt lat="46.568067" lon="11.783418"><ele>1661</ele></trkpt>
      <trkpt lat="46.567902" lon="11.78333"><ele>1660</ele></trkpt>
      <trkpt lat="46.567849" lon="11.783288"><ele>1660</ele></trkpt>
      <trkpt lat="46.567694" lon="11.783176"><ele>1659</ele></trkpt>
      <trkpt lat="46.567648" lon="11.783133"><ele>1659</ele></trkpt>
    </trkseg>
  </trk>
</gpx>
