<?xml version="1.0" encoding="UTF-8"?>
<gpx version="1.1" creator="hike-trip" xmlns="http://www.topografix.com/GPX/1/1">
  <metadata>
    <name>Slemenova Špica (Sleme)</name>
    <desc>Routed with BRouter (hiking-mountain) over OpenStreetMap data through hand-verified anchor points. Schematic in places — verify against signage on the ground. Track traces one direction — return the same way.</desc>
    <copyright author="OpenStreetMap contributors"><license>https://www.openstreetmap.org/copyright</license></copyright>
    <bounds minlat="46.43226" minlon="13.726039" maxlat="46.446003" maxlon="13.744202"/>
  </metadata>
  <wpt lat="46.4348" lon="13.7437"><name>Trailhead — Slemenova Špica (Sleme)</name><sym>Trail Head</sym></wpt>
  <wpt lat="46.446" lon="13.7265"><ele>1911</ele><name>Slemenova Špica</name><sym>Summit</sym></wpt>
  <trk>
    <name>Slemenova Špica (Sleme) (Vršič – Sleme)</name>
    <type>hiking</type>
    <trkseg>
      <trkpt lat="46.434791" lon="13.743721"><ele>1614</ele></trkpt>
      <trkpt lat="46.434855" lon="13.743772"><ele>1614</ele></trkpt>
      <trkpt lat="46.434909" lon="13.743718"><ele>1614</ele></trkpt>
      <trkpt lat="46.434935" lon="13.743692"><ele>1614</ele></trkpt>
      <trkpt lat="46.435018" lon="13.743689"><ele>1615</ele></trkpt>
      <trkpt lat="46.435054" lon="13.743712"><ele>1616</ele></trkpt>
      <trkpt lat="46.435108" lon="13.743491"><ele>1623</ele></trkpt>
      <trkpt lat="46.435122" lon="13.743445"><ele>1624</ele></trkpt>
      <trkpt lat="46.435102" lon="13.743412"><ele>1625</ele></trkpt>
      <trkpt lat="46.435105" lon="13.743349"><ele>1627</ele></trkpt>
      <trkpt lat="46.435092" lon="13.743272"><ele>1629</ele></trkpt>
      <trkpt lat="46.435074" lon="13.743243"><ele>1630</ele></trkpt>
      <trkpt lat="46.435038" lon="13.743223"><ele>1630</ele></trkpt>
      <trkpt lat="46.435065" lon="13.743155"><ele>1633</ele></trkpt>
      <trkpt lat="46.435024" lon="13.743056"><ele>1637</ele></trkpt>
      <trkpt lat="46.434951" lon="13.742958"><ele>1640</ele></trkpt>
      <trkpt lat="46.434874" lon="13.742933"><ele>1641</ele></trkpt>
      <trkpt lat="46.434812" lon="13.742903"><ele>1641</ele></trkpt>
      <trkpt lat="46.434757" lon="13.742814"><ele>1646</ele></trkpt>
      <trkpt lat="46.434679" lon="13.742734"><ele>1649</ele></trkpt>
      <trkpt lat="46.434607" lon="13.742614"><ele>1654</ele></trkpt>
      <trkpt lat="46.434506" lon="13.742386"><ele>1660</ele></trkpt>
      <trkpt lat="46.434491" lon="13.742299"><ele>1663</ele></trkpt>
      <trkpt lat="46.434411" lon="13.742017"><ele>1670</ele></trkpt>
      <trkpt lat="46.434348" lon="13.741832"><ele>1674</ele></trkpt>
      <trkpt lat="46.434343" lon="13.741727"><ele>1679</ele></trkpt>
      <trkpt lat="46.434342" lon="13.741611"><ele>1682</ele></trkpt>
      <trkpt lat="46.43435" lon="13.741536"><ele>1684</ele></trkpt>
      <trkpt lat="46.434343" lon="13.741446"><ele>1686</ele></trkpt>
      <trkpt lat="46.434349" lon="13.741366"><ele>1688</ele></trkpt>
      <trkpt lat="46.434342" lon="13.741307"><ele>1689</ele></trkpt>
      <trkpt lat="46.434361" lon="13.7412"><ele>1692</ele></trkpt>
      <trkpt lat="46.434384" lon="13.741165"><ele>1694</ele></trkpt>
      <trkpt lat="46.434379" lon="13.741106"><ele>1695</ele></trkpt>
      <trkpt lat="46.434393" lon="13.741045"><ele>1697</ele></trkpt>
      <trkpt lat="46.434393" lon="13.740927"><ele>1700</ele></trkpt>
      <trkpt lat="46.434379" lon="13.740875"><ele>1701</ele></trkpt>
      <trkpt lat="46.434335" lon="13.740774"><ele>1703</ele></trkpt>
      <trkpt lat="46.434323" lon="13.740683"><ele>1705</ele></trkpt>
      <trkpt lat="46.434286" lon="13.740581"><ele>1707</ele></trkpt>
      <trkpt lat="46.434282" lon="13.740512"><ele>1708</ele></trkpt>
      <trkpt lat="46.434266" lon="13.740407"><ele>1710</ele></trkpt>
      <trkpt lat="46.43431" lon="13.740272"><ele>1715</ele></trkpt>
      <trkpt lat="46.434311" lon="13.740131"><ele>1719</ele></trkpt>
      <trkpt lat="46.434299" lon="13.74006"><ele>1721</ele></trkpt>
      <trkpt lat="46.434249" lon="13.739988"><ele>1721</ele></trkpt>
      <trkpt lat="46.434246" lon="13.739907"><ele>1725</ele></trkpt>
      <trkpt lat="46.434229" lon="13.739858"><ele>1727</ele></trkpt>
      <trkpt lat="46.434197" lon="13.739835"><ele>1726</ele></trkpt>
      <trkpt lat="46.434125" lon="13.739812"><ele>1724</ele></trkpt>
      <trkpt lat="46.434063" lon="13.739733"><ele>1726</ele></trkpt>
      <trkpt lat="46.434021" lon="13.739678"><ele>1726</ele></trkpt>
      <trkpt lat="46.43401" lon="13.739639"><ele>1727</ele></trkpt>
      <trkpt lat="46.434008" lon="13.739596"><ele>1729</ele></trkpt>
      <trkpt lat="46.433995" lon="13.739555"><ele>1729</ele></trkpt>
      <trkpt lat="46.43399" lon="13.739453"><ele>1732</ele></trkpt>
      <trkpt lat="46.433974" lon="13.739371"><ele>1735</ele></trkpt>
      <trkpt lat="46.433979" lon="13.73929"><ele>1738</ele></trkpt>
      <trkpt lat="46.433956" lon="13.73922"><ele>1739</ele></trkpt>
      <trkpt lat="46.433949" lon="13.739175"><ele>1741</ele></trkpt>
      <trkpt lat="46.433932" lon="13.739148"><ele>1741</ele></trkpt>
      <trkpt lat="46.433925" lon="13.739089"><ele>1744</ele></trkpt>
      <trkpt lat="46.433862" lon="13.739021"><ele>1746</ele></trkpt>
      <trkpt lat="46.43383" lon="13.739004"><ele>1746</ele></trkpt>
      <trkpt lat="46.433744" lon="13.739001"><ele>1744</ele></trkpt>
      <trkpt lat="46.433642" lon="13.738897"><ele>1748</ele></trkpt>
      <trkpt lat="46.433623" lon="13.738871"><ele>1749</ele></trkpt>
      <trkpt lat="46.433619" lon="13.738839"><ele>1751</ele></trkpt>
      <trkpt lat="46.433603" lon="13.738809"><ele>1752</ele></trkpt>
      <trkpt lat="46.433571" lon="13.738766"><ele>1753</ele></trkpt>
      <trkpt lat="46.433529" lon="13.738748"><ele>1752</ele></trkpt>
      <trkpt lat="46.433504" lon="13.738706"><ele>1753</ele></trkpt>
      <trkpt lat="46.433487" lon="13.738617"><ele>1756</ele></trkpt>
      <trkpt lat="46.433447" lon="13.73855"><ele>1757</ele></trkpt>
      <trkpt lat="46.433412" lon="13.73847"><ele>1760</ele></trkpt>
      <trkpt lat="46.43343" lon="13.738412"><ele>1763</ele></trkpt>
      <trkpt lat="46.4334" lon="13.738359"><ele>1765</ele></trkpt>
      <trkpt lat="46.433387" lon="13.738257"><ele>1771</ele></trkpt>
      <trkpt lat="46.433376" lon="13.738233"><ele>1772</ele></trkpt>
      <trkpt lat="46.43334" lon="13.738219"><ele>1772</ele></trkpt>
      <trkpt lat="46.43328" lon="13.738215"><ele>1773</ele></trkpt>
      <trkpt lat="46.433242" lon="13.738243"><ele>1772</ele></trkpt>
      <trkpt lat="46.433132" lon="13.738216"><ele>1775</ele></trkpt>
      <trkpt lat="46.433059" lon="13.738162"><ele>1778</ele></trkpt>
      <trkpt lat="46.432945" lon="13.737983"><ele>1785</ele></trkpt>
      <trkpt lat="46.432701" lon="13.73768"><ele>1798</ele></trkpt>
      <trkpt lat="46.432555" lon="13.73739"><ele>1810</ele></trkpt>
      <trkpt lat="46.432392" lon="13.737249"><ele>1817</ele></trkpt>
      <trkpt lat="46.432285" lon="13.737239"><ele>1819</ele></trkpt>
      <trkpt lat="46.43226" lon="13.737217"><ele>1820</ele></trkpt>
      <trkpt lat="46.432301" lon="13.7372"><ele>1821</ele></trkpt>
      <trkpt lat="46.432396" lon="13.73712"><ele>1826</ele></trkpt>
      <trkpt lat="46.432423" lon="13.737106"><ele>1827</ele></trkpt>
      <trkpt lat="46.432501" lon="13.737114"><ele>1827</ele></trkpt>
      <trkpt lat="46.432585" lon="13.737097"><ele>1829</ele></trkpt>
      <trkpt lat="46.432615" lon="13.737067"><ele>1831</ele></trkpt>
      <trkpt lat="46.432716" lon="13.73709"><ele>1830</ele></trkpt>
      <trkpt lat="46.432865" lon="13.737045"><ele>1831</ele></trkpt>
      <trkpt lat="46.43291" lon="13.736956"><ele>1835</ele></trkpt>
      <trkpt lat="46.433041" lon="13.736924"><ele>1834</ele></trkpt>
      <trkpt lat="46.433343" lon="13.73683"><ele>1839</ele></trkpt>
      <trkpt lat="46.433407" lon="13.736823"><ele>1841</ele></trkpt>
      <trkpt lat="46.433485" lon="13.736851"><ele>1841</ele></trkpt>
      <trkpt lat="46.43359" lon="13.736814"><ele>1845</ele></trkpt>
      <trkpt lat="46.433779" lon="13.736806"><ele>1849</ele></trkpt>
      <trkpt lat="46.433958" lon="13.736762"><ele>1854</ele></trkpt>
      <trkpt lat="46.434212" lon="13.736761"><ele>1860</ele></trkpt>
      <trkpt lat="46.43449" lon="13.736816"><ele>1865</ele></trkpt>
      <trkpt lat="46.434582" lon="13.736866"><ele>1868</ele></trkpt>
      <trkpt lat="46.434844" lon="13.73708"><ele>1872</ele></trkpt>
      <trkpt lat="46.435058" lon="13.737318"><ele>1873</ele></trkpt>
      <trkpt lat="46.435209" lon="13.737371"><ele>1877</ele></trkpt>
      <trkpt lat="46.435237" lon="13.737302"><ele>1882</ele></trkpt>
      <trkpt lat="46.435298" lon="13.737281"><ele>1886</ele></trkpt>
      <trkpt lat="46.435366" lon="13.737289"><ele>1888</ele></trkpt>
      <trkpt lat="46.435447" lon="13.737264"><ele>1891</ele></trkpt>
      <trkpt lat="46.435618" lon="13.737179"><ele>1904</ele></trkpt>
      <trkpt lat="46.43573" lon="13.737153"><ele>1909</ele></trkpt>
      <trkpt lat="46.435912" lon="13.737072"><ele>1919</ele></trkpt>
      <trkpt lat="46.436045" lon="13.737093"><ele>1921</ele></trkpt>
      <trkpt lat="46.436155" lon="13.737078"><ele>1924</ele></trkpt>
      <trkpt lat="46.436219" lon="13.73697"><ele>1931</ele></trkpt>
      <trkpt lat="46.436448" lon="13.736848"><ele>1942</ele></trkpt>
      <trkpt lat="46.436577" lon="13.736632"><ele>1952</ele></trkpt>
      <trkpt lat="46.436636" lon="13.736361"><ele>1965</ele></trkpt>
      <trkpt lat="46.436679" lon="13.736307"><ele>1968</ele></trkpt>
      <trkpt lat="46.43688" lon="13.736248"><ele>1974</ele></trkpt>
      <trkpt lat="46.437241" lon="13.736181"><ele>1990</ele></trkpt>
      <trkpt lat="46.437914" lon="13.735777"><ele>2029</ele></trkpt>
      <trkpt lat="46.437927" lon="13.735623"><ele>2035</ele></trkpt>
      <trkpt lat="46.437966" lon="13.735618"><ele>2037</ele></trkpt>
      <trkpt lat="46.437964" lon="13.735431"><ele>2044</ele></trkpt>
      <trkpt lat="46.437939" lon="13.735403"><ele>2045</ele></trkpt>
      <trkpt lat="46.438008" lon="13.735355"><ele>2047</ele></trkpt>
      <trkpt lat="46.43802" lon="13.735267"><ele>2050</ele></trkpt>
      <trkpt lat="46.438002" lon="13.735132"><ele>2055</ele></trkpt>
      <trkpt lat="46.437922" lon="13.735131"><ele>2056</ele></trkpt>
      <trkpt lat="46.437959" lon="13.735036"><ele>2059</ele></trkpt>
      <trkpt lat="46.437926" lon="13.734967"><ele>2061</ele></trkpt>
      <trkpt lat="46.437945" lon="13.734887"><ele>2063</ele></trkpt>
      <trkpt lat="46.437904" lon="13.734856"><ele>2065</ele></trkpt>
      <trkpt lat="46.437903" lon="13.734819"><ele>2066</ele></trkpt>
      <trkpt lat="46.437928" lon="13.734725"><ele>2068</ele></trkpt>
      <trkpt lat="46.437926" lon="13.734668"><ele>2071</ele></trkpt>
      <trkpt lat="46.437913" lon="13.734631"><ele>2073</ele></trkpt>
      <trkpt lat="46.437928" lon="13.734585"><ele>2075</ele></trkpt>
      <trkpt lat="46.437881" lon="13.734522"><ele>2078</ele></trkpt>
      <trkpt lat="46.437918" lon="13.734396"><ele>2083</ele></trkpt>
      <trkpt lat="46.437947" lon="13.73423"><ele>2089</ele></trkpt>
      <trkpt lat="46.437904" lon="13.734223"><ele>2090</ele></trkpt>
      <trkpt lat="46.437934" lon="13.734119"><ele>2094</ele></trkpt>
      <trkpt lat="46.438013" lon="13.734023"><ele>2096</ele></trkpt>
      <trkpt lat="46.437934" lon="13.734119"><ele>2094</ele></trkpt>
      <trkpt lat="46.437904" lon="13.734223"><ele>2090</ele></trkpt>
      <trkpt lat="46.437947" lon="13.73423"><ele>2089</ele></trkpt>
      <trkpt lat="46.437918" lon="13.734396"><ele>2083</ele></trkpt>
      <trkpt lat="46.437881" lon="13.734522"><ele>2078</ele></trkpt>
      <trkpt lat="46.437928" lon="13.734585"><ele>2075</ele></trkpt>
      <trkpt lat="46.437913" lon="13.734631"><ele>2073</ele></trkpt>
      <trkpt lat="46.437926" lon="13.734668"><ele>2071</ele></trkpt>
      <trkpt lat="46.437928" lon="13.734725"><ele>2068</ele></trkpt>
      <trkpt lat="46.437903" lon="13.734819"><ele>2066</ele></trkpt>
      <trkpt lat="46.437904" lon="13.734856"><ele>2065</ele></trkpt>
      <trkpt lat="46.437945" lon="13.734887"><ele>2063</ele></trkpt>
      <trkpt lat="46.437926" lon="13.734967"><ele>2061</ele></trkpt>
      <trkpt lat="46.437959" lon="13.735036"><ele>2059</ele></trkpt>
      <trkpt lat="46.437922" lon="13.735131"><ele>2056</ele></trkpt>
      <trkpt lat="46.438002" lon="13.735132"><ele>2055</ele></trkpt>
      <trkpt lat="46.43802" lon="13.735267"><ele>2050</ele></trkpt>
      <trkpt lat="46.438008" lon="13.735355"><ele>2047</ele></trkpt>
      <trkpt lat="46.437939" lon="13.735403"><ele>2045</ele></trkpt>
      <trkpt lat="46.437964" lon="13.735431"><ele>2044</ele></trkpt>
      <trkpt lat="46.437966" lon="13.735618"><ele>2037</ele></trkpt>
      <trkpt lat="46.437927" lon="13.735623"><ele>2035</ele></trkpt>
      <trkpt lat="46.437914" lon="13.735777"><ele>2029</ele></trkpt>
      <trkpt lat="46.437241" lon="13.736181"><ele>1990</ele></trkpt>
      <trkpt lat="46.43688" lon="13.736248"><ele>1974</ele></trkpt>
      <trkpt lat="46.436679" lon="13.736307"><ele>1968</ele></trkpt>
      <trkpt lat="46.436636" lon="13.736361"><ele>1965</ele></trkpt>
      <trkpt lat="46.436577" lon="13.736632"><ele>1952</ele></trkpt>
      <trkpt lat="46.436448" lon="13.736848"><ele>1942</ele></trkpt>
      <trkpt lat="46.436219" lon="13.73697"><ele>1931</ele></trkpt>
      <trkpt lat="46.436155" lon="13.737078"><ele>1924</ele></trkpt>
      <trkpt lat="46.436045" lon="13.737093"><ele>1921</ele></trkpt>
      <trkpt lat="46.435912" lon="13.737072"><ele>1919</ele></trkpt>
      <trkpt lat="46.43573" lon="13.737153"><ele>1909</ele></trkpt>
      <trkpt lat="46.435618" lon="13.737179"><ele>1904</ele></trkpt>
      <trkpt lat="46.435447" lon="13.737264"><ele>1891</ele></trkpt>
      <trkpt lat="46.435366" lon="13.737289"><ele>1888</ele></trkpt>
      <trkpt lat="46.435298" lon="13.737281"><ele>1886</ele></trkpt>
      <trkpt lat="46.435237" lon="13.737302"><ele>1882</ele></trkpt>
      <trkpt lat="46.435209" lon="13.737371"><ele>1877</ele></trkpt>
      <trkpt lat="46.435058" lon="13.737318"><ele>1873</ele></trkpt>
      <trkpt lat="46.434844" lon="13.73708"><ele>1872</ele></trkpt>
      <trkpt lat="46.434582" lon="13.736866"><ele>1868</ele></trkpt>
      <trkpt lat="46.43449" lon="13.736816"><ele>1865</ele></trkpt>
      <trkpt lat="46.434212" lon="13.736761"><ele>1860</ele></trkpt>
      <trkpt lat="46.433958" lon="13.736762"><ele>1854</ele></trkpt>
      <trkpt lat="46.433779" lon="13.736806"><ele>1849</ele></trkpt>
      <trkpt lat="46.43359" lon="13.736814"><ele>1845</ele></trkpt>
      <trkpt lat="46.433485" lon="13.736851"><ele>1841</ele></trkpt>
      <trkpt lat="46.433407" lon="13.736823"><ele>1841</ele></trkpt>
      <trkpt lat="46.433343" lon="13.73683"><ele>1839</ele></trkpt>
      <trkpt lat="46.433041" lon="13.736924"><ele>1834</ele></trkpt>
      <trkpt lat="46.43291" lon="13.736956"><ele>1835</ele></trkpt>
      <trkpt lat="46.432865" lon="13.737045"><ele>1831</ele></trkpt>
      <trkpt lat="46.432716" lon="13.73709"><ele>1830</ele></trkpt>
      <trkpt lat="46.432615" lon="13.737067"><ele>1831</ele></trkpt>
      <trkpt lat="46.432585" lon="13.737097"><ele>1829</ele></trkpt>
      <trkpt lat="46.432501" lon="13.737114"><ele>1827</ele></trkpt>
      <trkpt lat="46.432423" lon="13.737106"><ele>1827</ele></trkpt>
      <trkpt lat="46.432396" lon="13.73712"><ele>1826</ele></trkpt>
      <trkpt lat="46.432301" lon="13.7372"><ele>1821</ele></trkpt>
      <trkpt lat="46.43226" lon="13.737217"><ele>1820</ele></trkpt>
      <trkpt lat="46.432285" lon="13.737239"><ele>1819</ele></trkpt>
      <trkpt lat="46.432392" lon="13.737249"><ele>1817</ele></trkpt>
      <trkpt lat="46.432555" lon="13.73739"><ele>1810</ele></trkpt>
      <trkpt lat="46.432701" lon="13.73768"><ele>1798</ele></trkpt>
      <trkpt lat="46.432945" lon="13.737983"><ele>1785</ele></trkpt>
      <trkpt lat="46.433059" lon="13.738162"><ele>1778</ele></trkpt>
      <trkpt lat="46.433132" lon="13.738216"><ele>1775</ele></trkpt>
      <trkpt lat="46.433242" lon="13.738243"><ele>1772</ele></trkpt>
      <trkpt lat="46.43328" lon="13.738215"><ele>1773</ele></trkpt>
      <trkpt lat="46.43334" lon="13.738219"><ele>1772</ele></trkpt>
      <trkpt lat="46.433376" lon="13.738233"><ele>1772</ele></trkpt>
      <trkpt lat="46.433387" lon="13.738257"><ele>1771</ele></trkpt>
      <trkpt lat="46.4334" lon="13.738359"><ele>1765</ele></trkpt>
      <trkpt lat="46.43343" lon="13.738412"><ele>1763</ele></trkpt>
      <trkpt lat="46.433412" lon="13.73847"><ele>1760</ele></trkpt>
      <trkpt lat="46.433447" lon="13.73855"><ele>1757</ele></trkpt>
      <trkpt lat="46.433487" lon="13.738617"><ele>1756</ele></trkpt>
      <trkpt lat="46.433504" lon="13.738706"><ele>1753</ele></trkpt>
      <trkpt lat="46.433529" lon="13.738748"><ele>1752</ele></trkpt>
      <trkpt lat="46.433571" lon="13.738766"><ele>1753</ele></trkpt>
      <trkpt lat="46.433603" lon="13.738809"><ele>1752</ele></trkpt>
      <trkpt lat="46.433619" lon="13.738839"><ele>1751</ele></trkpt>
      <trkpt lat="46.433623" lon="13.738871"><ele>1749</ele></trkpt>
      <trkpt lat="46.433642" lon="13.738897"><ele>1748</ele></trkpt>
      <trkpt lat="46.433744" lon="13.739001"><ele>1744</ele></trkpt>
      <trkpt lat="46.43383" lon="13.739004"><ele>1746</ele></trkpt>
      <trkpt lat="46.433862" lon="13.739021"><ele>1746</ele></trkpt>
      <trkpt lat="46.433925" lon="13.739089"><ele>1744</ele></trkpt>
      <trkpt lat="46.433932" lon="13.739148"><ele>1741</ele></trkpt>
      <trkpt lat="46.433949" lon="13.739175"><ele>1741</ele></trkpt>
      <trkpt lat="46.433956" lon="13.73922"><ele>1739</ele></trkpt>
      <trkpt lat="46.433979" lon="13.73929"><ele>1738</ele></trkpt>
      <trkpt lat="46.433974" lon="13.739371"><ele>1735</ele></trkpt>
      <trkpt lat="46.43399" lon="13.739453"><ele>1732</ele></trkpt>
      <trkpt lat="46.433995" lon="13.739555"><ele>1729</ele></trkpt>
      <trkpt lat="46.434008" lon="13.739596"><ele>1729</ele></trkpt>
      <trkpt lat="46.43401" lon="13.739639"><ele>1727</ele></trkpt>
      <trkpt lat="46.434021" lon="13.739678"><ele>1726</ele></trkpt>
      <trkpt lat="46.434125" lon="13.739812"><ele>1724</ele></trkpt>
      <trkpt lat="46.434197" lon="13.739835"><ele>1726</ele></trkpt>
      <trkpt lat="46.434229" lon="13.739858"><ele>1727</ele></trkpt>
      <trkpt lat="46.434246" lon="13.739907"><ele>1725</ele></trkpt>
      <trkpt lat="46.434249" lon="13.739988"><ele>1721</ele></trkpt>
      <trkpt lat="46.434299" lon="13.74006"><ele>1721</ele></trkpt>
      <trkpt lat="46.434311" lon="13.740131"><ele>1719</ele></trkpt>
      <trkpt lat="46.43431" lon="13.740272"><ele>1715</ele></trkpt>
      <trkpt lat="46.434266" lon="13.740407"><ele>1710</ele></trkpt>
      <trkpt lat="46.434282" lon="13.740512"><ele>1708</ele></trkpt>
      <trkpt lat="46.434286" lon="13.740581"><ele>1707</ele></trkpt>
      <trkpt lat="46.434323" lon="13.740683"><ele>1705</ele></trkpt>
      <trkpt lat="46.434335" lon="13.740774"><ele>1703</ele></trkpt>
      <trkpt lat="46.434379" lon="13.740875"><ele>1701</ele></trkpt>
      <trkpt lat="46.434393" lon="13.740927"><ele>1700</ele></trkpt>
      <trkpt lat="46.434393" lon="13.741045"><ele>1697</ele></trkpt>
      <trkpt lat="46.434379" lon="13.741106"><ele>1695</ele></trkpt>
      <trkpt lat="46.434384" lon="13.741165"><ele>1694</ele></trkpt>
      <trkpt lat="46.434361" lon="13.7412"><ele>1692</ele></trkpt>
      <trkpt lat="46.434342" lon="13.741307"><ele>1689</ele></trkpt>
      <trkpt lat="46.434349" lon="13.741366"><ele>1688</ele></trkpt>
      <trkpt lat="46.434343" lon="13.741446"><ele>1686</ele></trkpt>
      <trkpt lat="46.43435" lon="13.741536"><ele>1684</ele></trkpt>
      <trkpt lat="46.434342" lon="13.741611"><ele>1682</ele></trkpt>
      <trkpt lat="46.434343" lon="13.741727"><ele>1679</ele></trkpt>
      <trkpt lat="46.434348" lon="13.741832"><ele>1674</ele></trkpt>
      <trkpt lat="46.434411" lon="13.742017"><ele>1670</ele></trkpt>
      <trkpt lat="46.434491" lon="13.742299"><ele>1663</ele></trkpt>
      <trkpt lat="46.434506" lon="13.742386"><ele>1660</ele></trkpt>
      <trkpt lat="46.434607" lon="13.742614"><ele>1654</ele></trkpt>
      <trkpt lat="46.434679" lon="13.742734"><ele>1649</ele></trkpt>
      <trkpt lat="46.434757" lon="13.742814"><ele>1646</ele></trkpt>
      <trkpt lat="46.434812" lon="13.742903"><ele>1641</ele></trkpt>
      <trkpt lat="46.434874" lon="13.742933"><ele>1641</ele></trkpt>
      <trkpt lat="46.434951" lon="13.742958"><ele>1640</ele></trkpt>
      <trkpt lat="46.435024" lon="13.743056"><ele>1637</ele></trkpt>
      <trkpt lat="46.435065" lon="13.743155"><ele>1633</ele></trkpt>
      <trkpt lat="46.435038" lon="13.743223"><ele>1630</ele></trkpt>
      <trkpt lat="46.435074" lon="13.743243"><ele>1630</ele></trkpt>
      <trkpt lat="46.435092" lon="13.743272"><ele>1629</ele></trkpt>
      <trkpt lat="46.435105" lon="13.743349"><ele>1627</ele></trkpt>
      <trkpt lat="46.435102" lon="13.743412"><ele>1625</ele></trkpt>
      <trkpt lat="46.435122" lon="13.743445"><ele>1624</ele></trkpt>
      <trkpt lat="46.435108" lon="13.743491"><ele>1623</ele></trkpt>
      <trkpt lat="46.435054" lon="13.743712"><ele>1616</ele></trkpt>
      <trkpt lat="46.435107" lon="13.743746"><ele>1616</ele></trkpt>
      <trkpt lat="46.43515" lon="13.743813"><ele>1616</ele></trkpt>
      <trkpt lat="46.435215" lon="13.743892"><ele>1615</ele></trkpt>
      <trkpt lat="46.435232" lon="13.743947"><ele>1615</ele></trkpt>
      <trkpt lat="46.435301" lon="13.744047"><ele>1613</ele></trkpt>
      <trkpt lat="46.435309" lon="13.744038"><ele>1614</ele></trkpt>
      <trkpt lat="46.435328" lon="13.744037"><ele>1614</ele></trkpt>
      <trkpt lat="46.435398" lon="13.744068"><ele>1614</ele></trkpt>
      <trkpt lat="46.435497" lon="13.744071"><ele>1614</ele></trkpt>
      <trkpt lat="46.435566" lon="13.744094"><ele>1614</ele></trkpt>
      <trkpt lat="46.435629" lon="13.744129"><ele>1615</ele></trkpt>
      <trkpt lat="46.435787" lon="13.744193"><ele>1616</ele></trkpt>
      <trkpt lat="46.435841" lon="13.744202"><ele>1617</ele></trkpt>
      <trkpt lat="46.435997" lon="13.74416"><ele>1619</ele></trkpt>
      <trkpt lat="46.436031" lon="13.744177"><ele>1619</ele></trkpt>
      <trkpt lat="46.436157" lon="13.744174"><ele>1621</ele></trkpt>
      <trkpt lat="46.436194" lon="13.744201"><ele>1622</ele></trkpt>
      <trkpt lat="46.436245" lon="13.744186"><ele>1624</ele></trkpt>
      <trkpt lat="46.436335" lon="13.744195"><ele>1627</ele></trkpt>
      <trkpt lat="46.436415" lon="13.744186"><ele>1630</ele></trkpt>
      <trkpt lat="46.436482" lon="13.744142"><ele>1634</ele></trkpt>
      <trkpt lat="46.436561" lon="13.74414"><ele>1636</ele></trkpt>
      <trkpt lat="46.436628" lon="13.744114"><ele>1639</ele></trkpt>
      <trkpt lat="46.436723" lon="13.74412"><ele>1641</ele></trkpt>
      <trkpt lat="46.437004" lon="13.744105"><ele>1648</ele></trkpt>
      <trkpt lat="46.437348" lon="13.744016"><ele>1654</ele></trkpt>
      <trkpt lat="46.437456" lon="13.743961"><ele>1656</ele></trkpt>
      <trkpt lat="46.437493" lon="13.743929"><ele>1657</ele></trkpt>
      <trkpt lat="46.437525" lon="13.743915"><ele>1658</ele></trkpt>
      <trkpt lat="46.437633" lon="13.743884"><ele>1661</ele></trkpt>
      <trkpt lat="46.437691" lon="13.743902"><ele>1661</ele></trkpt>
      <trkpt lat="46.437749" lon="13.743909"><ele>1662</ele></trkpt>
      <trkpt lat="46.437909" lon="13.743873"><ele>1666</ele></trkpt>
      <trkpt lat="46.437931" lon="13.743849"><ele>1667</ele></trkpt>
      <trkpt lat="46.437969" lon="13.743777"><ele>1671</ele></trkpt>
      <trkpt lat="46.437993" lon="13.743757"><ele>1672</ele></trkpt>
      <trkpt lat="46.438044" lon="13.743787"><ele>1672</ele></trkpt>
      <trkpt lat="46.438092" lon="13.743779"><ele>1673</ele></trkpt>
      <trkpt lat="46.438142" lon="13.743812"><ele>1674</ele></trkpt>
      <trkpt lat="46.43819" lon="13.743741"><ele>1678</ele></trkpt>
      <trkpt lat="46.438396" lon="13.743711"><ele>1685</ele></trkpt>
      <trkpt lat="46.438441" lon="13.743688"><ele>1688</ele></trkpt>
      <trkpt lat="46.438633" lon="13.743702"><ele>1692</ele></trkpt>
      <trkpt lat="46.438699" lon="13.743671"><ele>1694</ele></trkpt>
      <trkpt lat="46.438746" lon="13.743603"><ele>1697</ele></trkpt>
      <trkpt lat="46.438875" lon="13.743511"><ele>1703</ele></trkpt>
      <trkpt lat="46.438954" lon="13.743511"><ele>1703</ele></trkpt>
      <trkpt lat="46.439015" lon="13.743474"><ele>1705</ele></trkpt>
      <trkpt lat="46.439188" lon="13.743348"><ele>1712</ele></trkpt>
      <trkpt lat="46.439274" lon="13.743334"><ele>1714</ele></trkpt>
      <trkpt lat="46.439365" lon="13.743302"><ele>1717</ele></trkpt>
      <trkpt lat="46.439473" lon="13.743299"><ele>1718</ele></trkpt>
      <trkpt lat="46.439513" lon="13.743265"><ele>1720</ele></trkpt>
      <trkpt lat="46.439601" lon="13.74324"><ele>1722</ele></trkpt>
      <trkpt lat="46.439651" lon="13.74322"><ele>1723</ele></trkpt>
      <trkpt lat="46.439672" lon="13.743192"><ele>1725</ele></trkpt>
      <trkpt lat="46.439705" lon="13.743175"><ele>1726</ele></trkpt>
      <trkpt lat="46.43974" lon="13.743179"><ele>1726</ele></trkpt>
      <trkpt lat="46.439763" lon="13.743224"><ele>1725</ele></trkpt>
      <trkpt lat="46.439802" lon="13.743247"><ele>1726</ele></trkpt>
      <trkpt lat="46.440012" lon="13.74321"><ele>1736</ele></trkpt>
      <trkpt lat="46.440024" lon="13.743183"><ele>1737</ele></trkpt>
      <trkpt lat="46.440016" lon="13.743104"><ele>1739</ele></trkpt>
      <trkpt lat="46.440029" lon="13.743065"><ele>1741</ele></trkpt>
      <trkpt lat="46.440048" lon="13.743066"><ele>1741</ele></trkpt>
      <trkpt lat="46.440071" lon="13.743092"><ele>1741</ele></trkpt>
      <trkpt lat="46.440122" lon="13.743117"><ele>1743</ele></trkpt>
      <trkpt lat="46.44014" lon="13.743175"><ele>1742</ele></trkpt>
      <trkpt lat="46.440161" lon="13.743202"><ele>1742</ele></trkpt>
      <trkpt lat="46.440176" lon="13.743204"><ele>1743</ele></trkpt>
      <trkpt lat="46.440199" lon="13.74319"><ele>1744</ele></trkpt>
      <trkpt lat="46.440219" lon="13.743138"><ele>1746</ele></trkpt>
      <trkpt lat="46.440262" lon="13.743078"><ele>1749</ele></trkpt>
      <trkpt lat="46.440286" lon="13.743067"><ele>1750</ele></trkpt>
      <trkpt lat="46.440301" lon="13.743027"><ele>1751</ele></trkpt>
      <trkpt lat="46.440317" lon="13.742936"><ele>1755</ele></trkpt>
      <trkpt lat="46.44034" lon="13.742884"><ele>1758</ele></trkpt>
      <trkpt lat="46.440335" lon="13.742837"><ele>1759</ele></trkpt>
      <trkpt lat="46.440338" lon="13.742808"><ele>1761</ele></trkpt>
      <trkpt lat="46.440356" lon="13.742778"><ele>1762</ele></trkpt>
      <trkpt lat="46.440447" lon="13.742785"><ele>1763</ele></trkpt>
      <trkpt lat="46.440504" lon="13.742712"><ele>1767</ele></trkpt>
      <trkpt lat="46.440589" lon="13.742654"><ele>1771</ele></trkpt>
      <trkpt lat="46.440627" lon="13.742617"><ele>1773</ele></trkpt>
      <trkpt lat="46.440642" lon="13.742573"><ele>1774</ele></trkpt>
      <trkpt lat="46.440648" lon="13.742516"><ele>1777</ele></trkpt>
      <trkpt lat="46.440663" lon="13.74248"><ele>1778</ele></trkpt>
      <trkpt lat="46.440649" lon="13.742445"><ele>1780</ele></trkpt>
      <trkpt lat="46.440664" lon="13.742434"><ele>1781</ele></trkpt>
      <trkpt lat="46.440696" lon="13.742434"><ele>1781</ele></trkpt>
      <trkpt lat="46.440765" lon="13.74232"><ele>1787</ele></trkpt>
      <trkpt lat="46.440794" lon="13.742311"><ele>1788</ele></trkpt>
      <trkpt lat="46.440847" lon="13.742272"><ele>1790</ele></trkpt>
      <trkpt lat="46.440897" lon="13.742264"><ele>1792</ele></trkpt>
      <trkpt lat="46.441139" lon="13.742302"><ele>1798</ele></trkpt>
      <trkpt lat="46.441206" lon="13.742298"><ele>1798</ele></trkpt>
      <trkpt lat="46.441187" lon="13.74219"><ele>1798</ele></trkpt>
      <trkpt lat="46.441142" lon="13.742063"><ele>1799</ele></trkpt>
      <trkpt lat="46.441128" lon="13.741982"><ele>1799</ele></trkpt>
      <trkpt lat="46.441076" lon="13.741856"><ele>1803</ele></trkpt>
      <trkpt lat="46.441065" lon="13.741795"><ele>1804</ele></trkpt>
      <trkpt lat="46.44103" lon="13.741685"><ele>1806</ele></trkpt>
      <trkpt lat="46.440993" lon="13.741414"><ele>1810</ele></trkpt>
      <trkpt lat="46.440956" lon="13.741313"><ele>1812</ele></trkpt>
      <trkpt lat="46.44091" lon="13.74112"><ele>1814</ele></trkpt>
      <trkpt lat="46.440884" lon="13.741063"><ele>1815</ele></trkpt>
      <trkpt lat="46.440867" lon="13.740992"><ele>1816</ele></trkpt>
      <trkpt lat="46.440839" lon="13.740723"><ele>1817</ele></trkpt>
      <trkpt lat="46.440827" lon="13.740666"><ele>1818</ele></trkpt>
      <trkpt lat="46.440809" lon="13.740619"><ele>1820</ele></trkpt>
      <trkpt lat="46.4408" lon="13.740567"><ele>1821</ele></trkpt>
      <trkpt lat="46.440789" lon="13.740379"><ele>1823</ele></trkpt>
      <trkpt lat="46.440741" lon="13.740136"><ele>1829</ele></trkpt>
      <trkpt lat="46.440749" lon="13.739949"><ele>1830</ele></trkpt>
      <trkpt lat="46.440742" lon="13.739893"><ele>1831</ele></trkpt>
      <trkpt lat="46.440715" lon="13.739768"><ele>1833</ele></trkpt>
      <trkpt lat="46.44066" lon="13.739415"><ele>1836</ele></trkpt>
      <trkpt lat="46.440499" lon="13.739108"><ele>1836</ele></trkpt>
      <trkpt lat="46.440452" lon="13.739031"><ele>1836</ele></trkpt>
      <trkpt lat="46.440394" lon="13.738887"><ele>1836</ele></trkpt>
      <trkpt lat="46.440321" lon="13.738732"><ele>1836</ele></trkpt>
      <trkpt lat="46.440198" lon="13.738396"><ele>1839</ele></trkpt>
      <trkpt lat="46.440154" lon="13.73819"><ele>1840</ele></trkpt>
      <trkpt lat="46.440145" lon="13.738085"><ele>1839</ele></trkpt>
      <trkpt lat="46.440014" lon="13.737752"><ele>1842</ele></trkpt>
      <trkpt lat="46.440002" lon="13.73764"><ele>1841</ele></trkpt>
      <trkpt lat="46.439943" lon="13.737563"><ele>1843</ele></trkpt>
      <trkpt lat="46.439925" lon="13.737563"><ele>1844</ele></trkpt>
      <trkpt lat="46.439919" lon="13.737477"><ele>1842</ele></trkpt>
      <trkpt lat="46.439854" lon="13.737426"><ele>1844</ele></trkpt>
      <trkpt lat="46.439807" lon="13.737374"><ele>1845</ele></trkpt>
      <trkpt lat="46.439778" lon="13.73728"><ele>1844</ele></trkpt>
      <trkpt lat="46.439778" lon="13.737221"><ele>1843</ele></trkpt>
      <trkpt lat="46.439681" lon="13.737034"><ele>1847</ele></trkpt>
      <trkpt lat="46.439645" lon="13.73689"><ele>1849</ele></trkpt>
      <trkpt lat="46.439625" lon="13.736705"><ele>1851</ele></trkpt>
      <trkpt lat="46.439607" lon="13.736602"><ele>1852</ele></trkpt>
      <trkpt lat="46.4396" lon="13.736327"><ele>1855</ele></trkpt>
      <trkpt lat="46.439624" lon="13.736147"><ele>1856</ele></trkpt>
      <trkpt lat="46.439618" lon="13.736044"><ele>1858</ele></trkpt>
      <trkpt lat="46.439594" lon="13.735975"><ele>1861</ele></trkpt>
      <trkpt lat="46.439594" lon="13.735821"><ele>1863</ele></trkpt>
      <trkpt lat="46.439521" lon="13.735543"><ele>1869</ele></trkpt>
      <trkpt lat="46.439574" lon="13.735415"><ele>1868</ele></trkpt>
      <trkpt lat="46.439624" lon="13.735222"><ele>1866</ele></trkpt>
      <trkpt lat="46.439634" lon="13.73498"><ele>1866</ele></trkpt>
      <trkpt lat="46.439625" lon="13.734834"><ele>1869</ele></trkpt>
      <trkpt lat="46.439651" lon="13.734647"><ele>1871</ele></trkpt>
      <trkpt lat="46.4397" lon="13.734525"><ele>1868</ele></trkpt>
      <trkpt lat="46.439719" lon="13.734407"><ele>1870</ele></trkpt>
      <trkpt lat="46.44004" lon="13.734055"><ele>1870</ele></trkpt>
      <trkpt lat="46.440151" lon="13.733735"><ele>1876</ele></trkpt>
      <trkpt lat="46.44017" lon="13.733588"><ele>1876</ele></trkpt>
      <trkpt lat="46.440205" lon="13.733387"><ele>1873</ele></trkpt>
      <trkpt lat="46.44036" lon="13.733042"><ele>1866</ele></trkpt>
      <trkpt lat="46.440527" lon="13.73281"><ele>1863</ele></trkpt>
      <trkpt lat="46.440593" lon="13.732685"><ele>1862</ele></trkpt>
      <trkpt lat="46.440724" lon="13.732465"><ele>1861</ele></trkpt>
      <trkpt lat="46.440824" lon="13.732319"><ele>1858</ele></trkpt>
      <trkpt lat="46.440853" lon="13.732156"><ele>1860</ele></trkpt>
      <trkpt lat="46.440887" lon="13.732051"><ele>1859</ele></trkpt>
      <trkpt lat="46.440933" lon="13.731804"><ele>1860</ele></trkpt>
      <trkpt lat="46.440985" lon="13.731657"><ele>1858</ele></trkpt>
      <trkpt lat="46.440991" lon="13.731578"><ele>1858</ele></trkpt>
      <trkpt lat="46.441024" lon="13.731432"><ele>1856</ele></trkpt>
      <trkpt lat="46.44113" lon="13.731107"><ele>1849</ele></trkpt>
      <trkpt lat="46.441144" lon="13.730975"><ele>1846</ele></trkpt>
      <trkpt lat="46.441129" lon="13.730841"><ele>1845</ele></trkpt>
      <trkpt lat="46.441101" lon="13.730699"><ele>1844</ele></trkpt>
      <trkpt lat="46.441164" lon="13.730475"><ele>1838</ele></trkpt>
      <trkpt lat="46.441227" lon="13.730461"><ele>1833</ele></trkpt>
      <trkpt lat="46.441305" lon="13.730222"><ele>1825</ele></trkpt>
      <trkpt lat="46.441336" lon="13.729982"><ele>1818</ele></trkpt>
      <trkpt lat="46.44137" lon="13.729837"><ele>1806</ele></trkpt>
      <trkpt lat="46.441342" lon="13.729693"><ele>1808</ele></trkpt>
      <trkpt lat="46.441347" lon="13.729543"><ele>1806</ele></trkpt>
      <trkpt lat="46.441342" lon="13.729426"><ele>1807</ele></trkpt>
      <trkpt lat="46.441423" lon="13.729318"><ele>1794</ele></trkpt>
      <trkpt lat="46.441424" lon="13.729243"><ele>1794</ele></trkpt>
      <trkpt lat="46.441519" lon="13.728954"><ele>1795</ele></trkpt>
      <trkpt lat="46.441605" lon="13.728489"><ele>1797</ele></trkpt>
      <trkpt lat="46.441618" lon="13.728319"><ele>1800</ele></trkpt>
      <trkpt lat="46.441648" lon="13.728195"><ele>1801</ele></trkpt>
      <trkpt lat="46.441695" lon="13.728099"><ele>1800</ele></trkpt>
      <trkpt lat="46.441719" lon="13.728072"><ele>1800</ele></trkpt>
      <trkpt lat="46.441736" lon="13.728007"><ele>1802</ele></trkpt>
      <trkpt lat="46.441778" lon="13.727924"><ele>1804</ele></trkpt>
      <trkpt lat="46.441868" lon="13.727839"><ele>1803</ele></trkpt>
      <trkpt lat="46.441909" lon="13.727741"><ele>1805</ele></trkpt>
      <trkpt lat="46.441933" lon="13.72772"><ele>1805</ele></trkpt>
      <trkpt lat="46.441937" lon="13.727681"><ele>1806</ele></trkpt>
      <trkpt lat="46.442006" lon="13.727581"><ele>1809</ele></trkpt>
      <trkpt lat="46.442077" lon="13.727454"><ele>1810</ele></trkpt>
      <trkpt lat="46.442221" lon="13.727259"><ele>1812</ele></trkpt>
      <trkpt lat="46.442267" lon="13.72717"><ele>1813</ele></trkpt>
      <trkpt lat="46.442272" lon="13.727161"><ele>1813</ele></trkpt>
      <trkpt lat="46.442299" lon="13.727152"><ele>1813</ele></trkpt>
      <trkpt lat="46.442404" lon="13.727147"><ele>1815</ele></trkpt>
      <trkpt lat="46.44247" lon="13.72711"><ele>1816</ele></trkpt>
      <trkpt lat="46.442535" lon="13.72701"><ele>1819</ele></trkpt>
      <trkpt lat="46.442603" lon="13.726942"><ele>1822</ele></trkpt>
      <trkpt lat="46.442707" lon="13.726905"><ele>1824</ele></trkpt>
      <trkpt lat="46.44289" lon="13.726875"><ele>1828</ele></trkpt>
      <trkpt lat="46.44307" lon="13.726945"><ele>1831</ele></trkpt>
      <trkpt lat="46.443176" lon="13.727031"><ele>1834</ele></trkpt>
      <trkpt lat="46.443289" lon="13.727154"><ele>1835</ele></trkpt>
      <trkpt lat="46.443335" lon="13.727182"><ele>1836</ele></trkpt>
      <trkpt lat="46.443389" lon="13.727199"><ele>1836</ele></trkpt>
      <trkpt lat="46.443518" lon="13.727141"><ele>1838</ele></trkpt>
      <trkpt lat="46.443551" lon="13.727063"><ele>1840</ele></trkpt>
      <trkpt lat="46.4436" lon="13.727062"><ele>1841</ele></trkpt>
      <trkpt lat="46.44364" lon="13.727"><ele>1842</ele></trkpt>
      <trkpt lat="46.443673" lon="13.726965"><ele>1844</ele></trkpt>
      <trkpt lat="46.4437" lon="13.726958"><ele>1844</ele></trkpt>
      <trkpt lat="46.443731" lon="13.72691"><ele>1845</ele></trkpt>
      <trkpt lat="46.443765" lon="13.726909"><ele>1846</ele></trkpt>
      <trkpt lat="46.443798" lon="13.726935"><ele>1846</ele></trkpt>
      <trkpt lat="46.44381" lon="13.726885"><ele>1847</ele></trkpt>
      <trkpt lat="46.443837" lon="13.726859"><ele>1848</ele></trkpt>
      <trkpt lat="46.443872" lon="13.726844"><ele>1849</ele></trkpt>
      <trkpt lat="46.443908" lon="13.726838"><ele>1850</ele></trkpt>
      <trkpt lat="46.443953" lon="13.726846"><ele>1851</ele></trkpt>
      <trkpt lat="46.444045" lon="13.726825"><ele>1854</ele></trkpt>
      <trkpt lat="46.444066" lon="13.726849"><ele>1854</ele></trkpt>
      <trkpt lat="46.444157" lon="13.72686"><ele>1857</ele></trkpt>
      <trkpt lat="46.444176" lon="13.726833"><ele>1857</ele></trkpt>
      <trkpt lat="46.444187" lon="13.726772"><ele>1859</ele></trkpt>
      <trkpt lat="46.444202" lon="13.726748"><ele>1859</ele></trkpt>
      <trkpt lat="46.444239" lon="13.726728"><ele>1860</ele></trkpt>
      <trkpt lat="46.444295" lon="13.726712"><ele>1860</ele></trkpt>
      <trkpt lat="46.444392" lon="13.726668"><ele>1860</ele></trkpt>
      <trkpt lat="46.444477" lon="13.726646"><ele>1860</ele></trkpt>
      <trkpt lat="46.444714" lon="13.726595"><ele>1864</ele></trkpt>
      <trkpt lat="46.444793" lon="13.726598"><ele>1866</ele></trkpt>
      <trkpt lat="46.444873" lon="13.726551"><ele>1868</ele></trkpt>
      <trkpt lat="46.444945" lon="13.726365"><ele>1871</ele></trkpt>
      <trkpt lat="46.444993" lon="13.726369"><ele>1872</ele></trkpt>
      <trkpt lat="46.445036" lon="13.726412"><ele>1873</ele></trkpt>
      <trkpt lat="46.445084" lon="13.726443"><ele>1875</ele></trkpt>
      <trkpt lat="46.445119" lon="13.726406"><ele>1876</ele></trkpt>
      <trkpt lat="46.445181" lon="13.726207"><ele>1880</ele></trkpt>
      <trkpt lat="46.445247" lon="13.72607"><ele>1884</ele></trkpt>
      <trkpt lat="46.445279" lon="13.726048"><ele>1885</ele></trkpt>
      <trkpt lat="46.445313" lon="13.726039"><ele>1885</ele></trkpt>
      <trkpt lat="46.44537" lon="13.726041"><ele>1886</ele></trkpt>
      <trkpt lat="46.445431" lon="13.726141"><ele>1889</ele></trkpt>
      <trkpt lat="46.44564" lon="13.72623"><ele>1894</ele></trkpt>
      <trkpt lat="46.44578" lon="13.726349"><ele>1899</ele></trkpt>
      <trkpt lat="46.445811" lon="13.726418"><ele>1902</ele></trkpt>
      <trkpt lat="46.445876" lon="13.726452"><ele>1901</ele></trkpt>
      <trkpt lat="46.445965" lon="13.726454"><ele>1899</ele></trkpt>
      <trkpt lat="46.446003" lon="13.726485"><ele>1897</ele></trkpt>
      <trkpt lat="46.446" lon="13.726484"><ele>1897</ele></trkpt>
    </trkseg>
  </trk>
</gpx>
