<?xml version="1.0" encoding="UTF-8"?>
<gpx version="1.1" creator="hike-trip" xmlns="http://www.topografix.com/GPX/1/1">
  <metadata>
    <name>Tamar Valley to Dom v Tamarju</name>
    <desc>Routed with BRouter (hiking-mountain) over OpenStreetMap data through hand-verified anchor points. Schematic in places — verify against signage on the ground. Track traces one direction — return the same way.</desc>
    <copyright author="OpenStreetMap contributors"><license>https://www.openstreetmap.org/copyright</license></copyright>
    <bounds minlat="46.446171" minlon="13.713421" maxlat="46.477082" maxlon="13.724912"/>
  </metadata>
  <wpt lat="46.4771" lon="13.7249"><name>Trailhead — Tamar Valley to Dom v Tamarju</name><sym>Trail Head</sym></wpt>
  <wpt lat="46.4461" lon="13.7134"><ele>1108</ele><name>Dom v Tamarju</name><sym>Summit</sym></wpt>
  <trk>
    <name>Tamar Valley to Dom v Tamarju (No. 206)</name>
    <type>hiking</type>
    <trkseg>
      <trkpt lat="46.477082" lon="13.724912"><ele>941</ele></trkpt>
      <trkpt lat="46.476924" lon="13.7245"><ele>941</ele></trkpt>
      <trkpt lat="46.47691" lon="13.72442"><ele>941</ele></trkpt>
      <trkpt lat="46.476882" lon="13.724165"><ele>940</ele></trkpt>
      <trkpt lat="46.476858" lon="13.724006"><ele>940</ele></trkpt>
      <trkpt lat="46.476702" lon="13.724101"><ele>942</ele></trkpt>
      <trkpt lat="46.476647" lon="13.724118"><ele>943</ele></trkpt>
      <trkpt lat="46.476587" lon="13.724115"><ele>944</ele></trkpt>
      <trkpt lat="46.47654" lon="13.724098"><ele>944</ele></trkpt>
      <trkpt lat="46.476464" lon="13.72406"><ele>945</ele></trkpt>
      <trkpt lat="46.476218" lon="13.723903"><ele>948</ele></trkpt>
      <trkpt lat="46.476091" lon="13.723863"><ele>949</ele></trkpt>
      <trkpt lat="46.475947" lon="13.723895"><ele>951</ele></trkpt>
      <trkpt lat="46.475692" lon="13.724014"><ele>954</ele></trkpt>
      <trkpt lat="46.475584" lon="13.724053"><ele>956</ele></trkpt>
      <trkpt lat="46.475496" lon="13.72406"><ele>957</ele></trkpt>
      <trkpt lat="46.475455" lon="13.72402"><ele>957</ele></trkpt>
      <trkpt lat="46.475396" lon="13.723916"><ele>957</ele></trkpt>
      <trkpt lat="46.475274" lon="13.723644"><ele>956</ele></trkpt>
      <trkpt lat="46.475126" lon="13.723283"><ele>952</ele></trkpt>
      <trkpt lat="46.475032" lon="13.723072"><ele>953</ele></trkpt>
      <trkpt lat="46.474969" lon="13.722956"><ele>953</ele></trkpt>
      <trkpt lat="46.474933" lon="13.72289"><ele>953</ele></trkpt>
      <trkpt lat="46.474882" lon="13.722824"><ele>953</ele></trkpt>
      <trkpt lat="46.474826" lon="13.72278"><ele>953</ele></trkpt>
      <trkpt lat="46.474754" lon="13.722765"><ele>954</ele></trkpt>
      <trkpt lat="46.474665" lon="13.722768"><ele>954</ele></trkpt>
      <trkpt lat="46.474414" lon="13.72282"><ele>955</ele></trkpt>
      <trkpt lat="46.474305" lon="13.722838"><ele>955</ele></trkpt>
      <trkpt lat="46.474257" lon="13.722866"><ele>955</ele></trkpt>
      <trkpt lat="46.474219" lon="13.722909"><ele>955</ele></trkpt>
      <trkpt lat="46.47418" lon="13.722986"><ele>956</ele></trkpt>
      <trkpt lat="46.474132" lon="13.72306"><ele>956</ele></trkpt>
      <trkpt lat="46.474067" lon="13.723093"><ele>957</ele></trkpt>
      <trkpt lat="46.473942" lon="13.72313"><ele>958</ele></trkpt>
      <trkpt lat="46.473791" lon="13.723216"><ele>960</ele></trkpt>
      <trkpt lat="46.473535" lon="13.723308"><ele>962</ele></trkpt>
      <trkpt lat="46.473359" lon="13.723419"><ele>964</ele></trkpt>
      <trkpt lat="46.473235" lon="13.723455"><ele>965</ele></trkpt>
      <trkpt lat="46.473049" lon="13.723466"><ele>965</ele></trkpt>
      <trkpt lat="46.472946" lon="13.723456"><ele>966</ele></trkpt>
      <trkpt lat="46.47246" lon="13.723327"><ele>968</ele></trkpt>
      <trkpt lat="46.472253" lon="13.72329"><ele>970</ele></trkpt>
      <trkpt lat="46.471524" lon="13.723379"><ele>979</ele></trkpt>
      <trkpt lat="46.471385" lon="13.723358"><ele>980</ele></trkpt>
      <trkpt lat="46.47118" lon="13.723355"><ele>983</ele></trkpt>
      <trkpt lat="46.471004" lon="13.723406"><ele>985</ele></trkpt>
      <trkpt lat="46.470826" lon="13.723408"><ele>987</ele></trkpt>
      <trkpt lat="46.470723" lon="13.723399"><ele>988</ele></trkpt>
      <trkpt lat="46.470496" lon="13.723454"><ele>991</ele></trkpt>
      <trkpt lat="46.470316" lon="13.723531"><ele>994</ele></trkpt>
      <trkpt lat="46.470272" lon="13.723551"><ele>994</ele></trkpt>
      <trkpt lat="46.469935" lon="13.72367"><ele>1000</ele></trkpt>
      <trkpt lat="46.469647" lon="13.723716"><ele>1004</ele></trkpt>
      <trkpt lat="46.469423" lon="13.723691"><ele>1004</ele></trkpt>
      <trkpt lat="46.469222" lon="13.723619"><ele>1005</ele></trkpt>
      <trkpt lat="46.469083" lon="13.723553"><ele>1005</ele></trkpt>
      <trkpt lat="46.468974" lon="13.723524"><ele>1006</ele></trkpt>
      <trkpt lat="46.468751" lon="13.723522"><ele>1005</ele></trkpt>
      <trkpt lat="46.468507" lon="13.723574"><ele>1006</ele></trkpt>
      <trkpt lat="46.468351" lon="13.723553"><ele>1005</ele></trkpt>
      <trkpt lat="46.467796" lon="13.723381"><ele>1011</ele></trkpt>
      <trkpt lat="46.467433" lon="13.723167"><ele>1012</ele></trkpt>
      <trkpt lat="46.467328" lon="13.723093"><ele>1011</ele></trkpt>
      <trkpt lat="46.467213" lon="13.722974"><ele>1011</ele></trkpt>
      <trkpt lat="46.467038" lon="13.722899"><ele>1011</ele></trkpt>
      <trkpt lat="46.466889" lon="13.72289"><ele>1011</ele></trkpt>
      <trkpt lat="46.466756" lon="13.722837"><ele>1011</ele></trkpt>
      <trkpt lat="46.466342" lon="13.722481"><ele>1011</ele></trkpt>
      <trkpt lat="46.467028" lon="13.722267"><ele>1011</ele></trkpt>
      <trkpt lat="46.467084" lon="13.722042"><ele>1014</ele></trkpt>
      <trkpt lat="46.467062" lon="13.721666"><ele>1020</ele></trkpt>
      <trkpt lat="46.467128" lon="13.721151"><ele>1025</ele></trkpt>
      <trkpt lat="46.467232" lon="13.720593"><ele>1027</ele></trkpt>
      <trkpt lat="46.467268" lon="13.719907"><ele>1028</ele></trkpt>
      <trkpt lat="46.467527" lon="13.718866"><ele>1017</ele></trkpt>
      <trkpt lat="46.467826" lon="13.71819"><ele>1015</ele></trkpt>
      <trkpt lat="46.468024" lon="13.717798"><ele>1017</ele></trkpt>
      <trkpt lat="46.46779" lon="13.717802"><ele>1017</ele></trkpt>
      <trkpt lat="46.467512" lon="13.717839"><ele>1018</ele></trkpt>
      <trkpt lat="46.467288" lon="13.717841"><ele>1020</ele></trkpt>
      <trkpt lat="46.467066" lon="13.717918"><ele>1022</ele></trkpt>
      <trkpt lat="46.465251" lon="13.718017"><ele>1039</ele></trkpt>
      <trkpt lat="46.464514" lon="13.718013"><ele>1042</ele></trkpt>
      <trkpt lat="46.464263" lon="13.718035"><ele>1043</ele></trkpt>
      <trkpt lat="46.464148" lon="13.7181"><ele>1043</ele></trkpt>
      <trkpt lat="46.464003" lon="13.718234"><ele>1045</ele></trkpt>
      <trkpt lat="46.46383" lon="13.71818"><ele>1046</ele></trkpt>
      <trkpt lat="46.463623" lon="13.718218"><ele>1047</ele></trkpt>
      <trkpt lat="46.463419" lon="13.718193"><ele>1049</ele></trkpt>
      <trkpt lat="46.463229" lon="13.718141"><ele>1050</ele></trkpt>
      <trkpt lat="46.463086" lon="13.71813"><ele>1051</ele></trkpt>
      <trkpt lat="46.462935" lon="13.718137"><ele>1052</ele></trkpt>
      <trkpt lat="46.462647" lon="13.718186"><ele>1054</ele></trkpt>
      <trkpt lat="46.462362" lon="13.718253"><ele>1055</ele></trkpt>
      <trkpt lat="46.462025" lon="13.718233"><ele>1056</ele></trkpt>
      <trkpt lat="46.461763" lon="13.718206"><ele>1056</ele></trkpt>
      <trkpt lat="46.461596" lon="13.718032"><ele>1056</ele></trkpt>
      <trkpt lat="46.461415" lon="13.717896"><ele>1057</ele></trkpt>
      <trkpt lat="46.461297" lon="13.717835"><ele>1057</ele></trkpt>
      <trkpt lat="46.460944" lon="13.717781"><ele>1055</ele></trkpt>
      <trkpt lat="46.460802" lon="13.717741"><ele>1055</ele></trkpt>
      <trkpt lat="46.460576" lon="13.717639"><ele>1054</ele></trkpt>
      <trkpt lat="46.460381" lon="13.717596"><ele>1053</ele></trkpt>
      <trkpt lat="46.460155" lon="13.717473"><ele>1053</ele></trkpt>
      <trkpt lat="46.459924" lon="13.717316"><ele>1052</ele></trkpt>
      <trkpt lat="46.45958" lon="13.716953"><ele>1051</ele></trkpt>
      <trkpt lat="46.459324" lon="13.71671"><ele>1051</ele></trkpt>
      <trkpt lat="46.459243" lon="13.716681"><ele>1051</ele></trkpt>
      <trkpt lat="46.459116" lon="13.716656"><ele>1051</ele></trkpt>
      <trkpt lat="46.458954" lon="13.716655"><ele>1053</ele></trkpt>
      <trkpt lat="46.458768" lon="13.716696"><ele>1055</ele></trkpt>
      <trkpt lat="46.458603" lon="13.716669"><ele>1056</ele></trkpt>
      <trkpt lat="46.458317" lon="13.71657"><ele>1061</ele></trkpt>
      <trkpt lat="46.458133" lon="13.716479"><ele>1063</ele></trkpt>
      <trkpt lat="46.457964" lon="13.716368"><ele>1063</ele></trkpt>
      <trkpt lat="46.457696" lon="13.716207"><ele>1065</ele></trkpt>
      <trkpt lat="46.45746" lon="13.716136"><ele>1064</ele></trkpt>
      <trkpt lat="46.457262" lon="13.716112"><ele>1064</ele></trkpt>
      <trkpt lat="46.457042" lon="13.716109"><ele>1065</ele></trkpt>
      <trkpt lat="46.456921" lon="13.716054"><ele>1065</ele></trkpt>
      <trkpt lat="46.456649" lon="13.715896"><ele>1066</ele></trkpt>
      <trkpt lat="46.456202" lon="13.715798"><ele>1067</ele></trkpt>
      <trkpt lat="46.455975" lon="13.71573"><ele>1069</ele></trkpt>
      <trkpt lat="46.455757" lon="13.715677"><ele>1071</ele></trkpt>
      <trkpt lat="46.45565" lon="13.715606"><ele>1071</ele></trkpt>
      <trkpt lat="46.455559" lon="13.715505"><ele>1071</ele></trkpt>
      <trkpt lat="46.455389" lon="13.71543"><ele>1073</ele></trkpt>
      <trkpt lat="46.455293" lon="13.715415"><ele>1073</ele></trkpt>
      <trkpt lat="46.455161" lon="13.715436"><ele>1074</ele></trkpt>
      <trkpt lat="46.454863" lon="13.715556"><ele>1077</ele></trkpt>
      <trkpt lat="46.454664" lon="13.715624"><ele>1080</ele></trkpt>
      <trkpt lat="46.454455" lon="13.715803"><ele>1081</ele></trkpt>
      <trkpt lat="46.45408" lon="13.716009"><ele>1083</ele></trkpt>
      <trkpt lat="46.454004" lon="13.716031"><ele>1084</ele></trkpt>
      <trkpt lat="46.45396" lon="13.716044"><ele>1084</ele></trkpt>
      <trkpt lat="46.45371" lon="13.716045"><ele>1086</ele></trkpt>
      <trkpt lat="46.453601" lon="13.716009"><ele>1087</ele></trkpt>
      <trkpt lat="46.453526" lon="13.715934"><ele>1087</ele></trkpt>
      <trkpt lat="46.453433" lon="13.715763"><ele>1088</ele></trkpt>
      <trkpt lat="46.453304" lon="13.715611"><ele>1088</ele></trkpt>
      <trkpt lat="46.45317" lon="13.715496"><ele>1089</ele></trkpt>
      <trkpt lat="46.452891" lon="13.715433"><ele>1091</ele></trkpt>
      <trkpt lat="46.452678" lon="13.715415"><ele>1090</ele></trkpt>
      <trkpt lat="46.452262" lon="13.71557"><ele>1084</ele></trkpt>
      <trkpt lat="46.452027" lon="13.715637"><ele>1084</ele></trkpt>
      <trkpt lat="46.45183" lon="13.715749"><ele>1083</ele></trkpt>
      <trkpt lat="46.451726" lon="13.7158"><ele>1082</ele></trkpt>
      <trkpt lat="46.451674" lon="13.715817"><ele>1082</ele></trkpt>
      <trkpt lat="46.451597" lon="13.715776"><ele>1082</ele></trkpt>
      <trkpt lat="46.451559" lon="13.715715"><ele>1082</ele></trkpt>
      <trkpt lat="46.451432" lon="13.715435"><ele>1082</ele></trkpt>
      <trkpt lat="46.45129" lon="13.715239"><ele>1083</ele></trkpt>
      <trkpt lat="46.451181" lon="13.715153"><ele>1083</ele></trkpt>
      <trkpt lat="46.451032" lon="13.715075"><ele>1083</ele></trkpt>
      <trkpt lat="46.450806" lon="13.714844"><ele>1084</ele></trkpt>
      <trkpt lat="46.450712" lon="13.714836"><ele>1084</ele></trkpt>
      <trkpt lat="46.45064" lon="13.714803"><ele>1084</ele></trkpt>
      <trkpt lat="46.45038" lon="13.714668"><ele>1085</ele></trkpt>
      <trkpt lat="46.450195" lon="13.714562"><ele>1085</ele></trkpt>
      <trkpt lat="46.450009" lon="13.714622"><ele>1086</ele></trkpt>
      <trkpt lat="46.44917" lon="13.714457"><ele>1088</ele></trkpt>
      <trkpt lat="46.448856" lon="13.714309"><ele>1089</ele></trkpt>
      <trkpt lat="46.448709" lon="13.714248"><ele>1089</ele></trkpt>
      <trkpt lat="46.448329" lon="13.714132"><ele>1090</ele></trkpt>
      <trkpt lat="46.448173" lon="13.714092"><ele>1091</ele></trkpt>
      <trkpt lat="46.448015" lon="13.714107"><ele>1092</ele></trkpt>
      <trkpt lat="46.447912" lon="13.714133"><ele>1092</ele></trkpt>
      <trkpt lat="46.447699" lon="13.714578"><ele>1094</ele></trkpt>
      <trkpt lat="46.447663" lon="13.714469"><ele>1094</ele></trkpt>
      <trkpt lat="46.447568" lon="13.71434"><ele>1095</ele></trkpt>
      <trkpt lat="46.447334" lon="13.714127"><ele>1096</ele></trkpt>
      <trkpt lat="46.447266" lon="13.714037"><ele>1097</ele></trkpt>
      <trkpt lat="46.446983" lon="13.713835"><ele>1100</ele></trkpt>
      <trkpt lat="46.446512" lon="13.713617"><ele>1104</ele></trkpt>
      <trkpt lat="46.446343" lon="13.713502"><ele>1105</ele></trkpt>
      <trkpt lat="46.446171" lon="13.713421"><ele>1107</ele></trkpt>
    </trkseg>
  </trk>
</gpx>
