<?xml version="1.0" encoding="UTF-8"?>
<gpx version="1.1" creator="hike-trip" xmlns="http://www.topografix.com/GPX/1/1">
  <metadata>
    <name>Tre Cime di Lavaredo Loop</name>
    <desc>Routed with BRouter (hiking-mountain) over OpenStreetMap data through hand-verified anchor points. Schematic in places — verify against signage on the ground.</desc>
    <copyright author="OpenStreetMap contributors"><license>https://www.openstreetmap.org/copyright</license></copyright>
    <bounds minlat="46.612223" minlon="12.284247" maxlat="46.637362" maxlon="12.313038"/>
  </metadata>
  <wpt lat="46.6122" lon="12.2961"><name>Trailhead — Tre Cime di Lavaredo Loop</name><sym>Trail Head</sym></wpt>
  <wpt lat="46.6225" lon="12.3115"><ele>2454</ele><name>Forcella Lavaredo</name><sym>Summit</sym></wpt>
  <trk>
    <name>Tre Cime di Lavaredo Loop (No. 101 / 105)</name>
    <type>hiking</type>
    <trkseg>
      <trkpt lat="46.612336" lon="12.296052"><ele>2324</ele></trkpt>
      <trkpt lat="46.61237" lon="12.296262"><ele>2320</ele></trkpt>
      <trkpt lat="46.61235" lon="12.296313"><ele>2319</ele></trkpt>
      <trkpt lat="46.612309" lon="12.296363"><ele>2317</ele></trkpt>
      <trkpt lat="46.612223" lon="12.296412"><ele>2315</ele></trkpt>
      <trkpt lat="46.612532" lon="12.296509"><ele>2314</ele></trkpt>
      <trkpt lat="46.612637" lon="12.296547"><ele>2313</ele></trkpt>
      <trkpt lat="46.61275" lon="12.296569"><ele>2312</ele></trkpt>
      <trkpt lat="46.612857" lon="12.296602"><ele>2312</ele></trkpt>
      <trkpt lat="46.61293" lon="12.296638"><ele>2312</ele></trkpt>
      <trkpt lat="46.612992" lon="12.296642"><ele>2313</ele></trkpt>
      <trkpt lat="46.613154" lon="12.2966"><ele>2319</ele></trkpt>
      <trkpt lat="46.61322" lon="12.296588"><ele>2322</ele></trkpt>
      <trkpt lat="46.613263" lon="12.296606"><ele>2323</ele></trkpt>
      <trkpt lat="46.613298" lon="12.296646"><ele>2323</ele></trkpt>
      <trkpt lat="46.613342" lon="12.296761"><ele>2322</ele></trkpt>
      <trkpt lat="46.613394" lon="12.29704"><ele>2320</ele></trkpt>
      <trkpt lat="46.613501" lon="12.297439"><ele>2318</ele></trkpt>
      <trkpt lat="46.613518" lon="12.297476"><ele>2318</ele></trkpt>
      <trkpt lat="46.613572" lon="12.297547"><ele>2319</ele></trkpt>
      <trkpt lat="46.613591" lon="12.29759"><ele>2320</ele></trkpt>
      <trkpt lat="46.613599" lon="12.297638"><ele>2319</ele></trkpt>
      <trkpt lat="46.613609" lon="12.297894"><ele>2319</ele></trkpt>
      <trkpt lat="46.613665" lon="12.298227"><ele>2325</ele></trkpt>
      <trkpt lat="46.613678" lon="12.298344"><ele>2326</ele></trkpt>
      <trkpt lat="46.613681" lon="12.298462"><ele>2327</ele></trkpt>
      <trkpt lat="46.613669" lon="12.298581"><ele>2326</ele></trkpt>
      <trkpt lat="46.613639" lon="12.298761"><ele>2324</ele></trkpt>
      <trkpt lat="46.613632" lon="12.298931"><ele>2323</ele></trkpt>
      <trkpt lat="46.613654" lon="12.299151"><ele>2323</ele></trkpt>
      <trkpt lat="46.613761" lon="12.299642"><ele>2323</ele></trkpt>
      <trkpt lat="46.613869" lon="12.299908"><ele>2324</ele></trkpt>
      <trkpt lat="46.614004" lon="12.300364"><ele>2321</ele></trkpt>
      <trkpt lat="46.614155" lon="12.300913"><ele>2323</ele></trkpt>
      <trkpt lat="46.614205" lon="12.301373"><ele>2321</ele></trkpt>
      <trkpt lat="46.614258" lon="12.30163"><ele>2319</ele></trkpt>
      <trkpt lat="46.614268" lon="12.301898"><ele>2316</ele></trkpt>
      <trkpt lat="46.614256" lon="12.30219"><ele>2314</ele></trkpt>
      <trkpt lat="46.614211" lon="12.302453"><ele>2311</ele></trkpt>
      <trkpt lat="46.614193" lon="12.303027"><ele>2307</ele></trkpt>
      <trkpt lat="46.614198" lon="12.303328"><ele>2306</ele></trkpt>
      <trkpt lat="46.614199" lon="12.303573"><ele>2308</ele></trkpt>
      <trkpt lat="46.614201" lon="12.303798"><ele>2310</ele></trkpt>
      <trkpt lat="46.614184" lon="12.304011"><ele>2312</ele></trkpt>
      <trkpt lat="46.614161" lon="12.304162"><ele>2313</ele></trkpt>
      <trkpt lat="46.614114" lon="12.304312"><ele>2313</ele></trkpt>
      <trkpt lat="46.61402" lon="12.304481"><ele>2311</ele></trkpt>
      <trkpt lat="46.613786" lon="12.304768"><ele>2305</ele></trkpt>
      <trkpt lat="46.613624" lon="12.304902"><ele>2304</ele></trkpt>
      <trkpt lat="46.61359" lon="12.304961"><ele>2305</ele></trkpt>
      <trkpt lat="46.61358" lon="12.305036"><ele>2307</ele></trkpt>
      <trkpt lat="46.613629" lon="12.305444"><ele>2313</ele></trkpt>
      <trkpt lat="46.613619" lon="12.305563"><ele>2313</ele></trkpt>
      <trkpt lat="46.613549" lon="12.305833"><ele>2312</ele></trkpt>
      <trkpt lat="46.613538" lon="12.306095"><ele>2312</ele></trkpt>
      <trkpt lat="46.613554" lon="12.306401"><ele>2312</ele></trkpt>
      <trkpt lat="46.613498" lon="12.30653"><ele>2310</ele></trkpt>
      <trkpt lat="46.613469" lon="12.306659"><ele>2309</ele></trkpt>
      <trkpt lat="46.61347" lon="12.306792"><ele>2309</ele></trkpt>
      <trkpt lat="46.613506" lon="12.30698"><ele>2309</ele></trkpt>
      <trkpt lat="46.613498" lon="12.30711"><ele>2309</ele></trkpt>
      <trkpt lat="46.613509" lon="12.307297"><ele>2309</ele></trkpt>
      <trkpt lat="46.613576" lon="12.307479"><ele>2310</ele></trkpt>
      <trkpt lat="46.613668" lon="12.307688"><ele>2312</ele></trkpt>
      <trkpt lat="46.613748" lon="12.307844"><ele>2314</ele></trkpt>
      <trkpt lat="46.613832" lon="12.308088"><ele>2317</ele></trkpt>
      <trkpt lat="46.613867" lon="12.308209"><ele>2317</ele></trkpt>
      <trkpt lat="46.613899" lon="12.308319"><ele>2317</ele></trkpt>
      <trkpt lat="46.613971" lon="12.308434"><ele>2316</ele></trkpt>
      <trkpt lat="46.614084" lon="12.30849"><ele>2316</ele></trkpt>
      <trkpt lat="46.614197" lon="12.308483"><ele>2318</ele></trkpt>
      <trkpt lat="46.614457" lon="12.308593"><ele>2321</ele></trkpt>
      <trkpt lat="46.614619" lon="12.30863"><ele>2322</ele></trkpt>
      <trkpt lat="46.614743" lon="12.308676"><ele>2324</ele></trkpt>
      <trkpt lat="46.614881" lon="12.308697"><ele>2327</ele></trkpt>
      <trkpt lat="46.615006" lon="12.308802"><ele>2326</ele></trkpt>
      <trkpt lat="46.615101" lon="12.308848"><ele>2328</ele></trkpt>
      <trkpt lat="46.615163" lon="12.308917"><ele>2328</ele></trkpt>
      <trkpt lat="46.615223" lon="12.309017"><ele>2328</ele></trkpt>
      <trkpt lat="46.615278" lon="12.309132"><ele>2327</ele></trkpt>
      <trkpt lat="46.615352" lon="12.309255"><ele>2327</ele></trkpt>
      <trkpt lat="46.615464" lon="12.309391"><ele>2328</ele></trkpt>
      <trkpt lat="46.615577" lon="12.309496"><ele>2329</ele></trkpt>
      <trkpt lat="46.615876" lon="12.309665"><ele>2333</ele></trkpt>
      <trkpt lat="46.616091" lon="12.309761"><ele>2334</ele></trkpt>
      <trkpt lat="46.616233" lon="12.309794"><ele>2335</ele></trkpt>
      <trkpt lat="46.616353" lon="12.309848"><ele>2335</ele></trkpt>
      <trkpt lat="46.616445" lon="12.309942"><ele>2334</ele></trkpt>
      <trkpt lat="46.616482" lon="12.309955"><ele>2334</ele></trkpt>
      <trkpt lat="46.616543" lon="12.309957"><ele>2335</ele></trkpt>
      <trkpt lat="46.616576" lon="12.309974"><ele>2336</ele></trkpt>
      <trkpt lat="46.617001" lon="12.310433"><ele>2335</ele></trkpt>
      <trkpt lat="46.617232" lon="12.310653"><ele>2335</ele></trkpt>
      <trkpt lat="46.617302" lon="12.310705"><ele>2336</ele></trkpt>
      <trkpt lat="46.617373" lon="12.310738"><ele>2336</ele></trkpt>
      <trkpt lat="46.617512" lon="12.310848"><ele>2336</ele></trkpt>
      <trkpt lat="46.617563" lon="12.310879"><ele>2337</ele></trkpt>
      <trkpt lat="46.617634" lon="12.310918"><ele>2337</ele></trkpt>
      <trkpt lat="46.617732" lon="12.310947"><ele>2339</ele></trkpt>
      <trkpt lat="46.617764" lon="12.310967"><ele>2339</ele></trkpt>
      <trkpt lat="46.61784" lon="12.31106"><ele>2340</ele></trkpt>
      <trkpt lat="46.61795" lon="12.311256"><ele>2342</ele></trkpt>
      <trkpt lat="46.618022" lon="12.311351"><ele>2343</ele></trkpt>
      <trkpt lat="46.618112" lon="12.31141"><ele>2343</ele></trkpt>
      <trkpt lat="46.618148" lon="12.311453"><ele>2343</ele></trkpt>
      <trkpt lat="46.618209" lon="12.311581"><ele>2343</ele></trkpt>
      <trkpt lat="46.618246" lon="12.311688"><ele>2343</ele></trkpt>
      <trkpt lat="46.618289" lon="12.31178"><ele>2343</ele></trkpt>
      <trkpt lat="46.618342" lon="12.311859"><ele>2343</ele></trkpt>
      <trkpt lat="46.618397" lon="12.311925"><ele>2343</ele></trkpt>
      <trkpt lat="46.618342" lon="12.311859"><ele>2343</ele></trkpt>
      <trkpt lat="46.618289" lon="12.31178"><ele>2343</ele></trkpt>
      <trkpt lat="46.618246" lon="12.311688"><ele>2343</ele></trkpt>
      <trkpt lat="46.618209" lon="12.311581"><ele>2343</ele></trkpt>
      <trkpt lat="46.618302" lon="12.311485"><ele>2344</ele></trkpt>
      <trkpt lat="46.618355" lon="12.311401"><ele>2345</ele></trkpt>
      <trkpt lat="46.618401" lon="12.311363"><ele>2346</ele></trkpt>
      <trkpt lat="46.618445" lon="12.311244"><ele>2348</ele></trkpt>
      <trkpt lat="46.618451" lon="12.31116"><ele>2349</ele></trkpt>
      <trkpt lat="46.618926" lon="12.310482"><ele>2376</ele></trkpt>
      <trkpt lat="46.61913" lon="12.310374"><ele>2381</ele></trkpt>
      <trkpt lat="46.619328" lon="12.310284"><ele>2389</ele></trkpt>
      <trkpt lat="46.619485" lon="12.31036"><ele>2391</ele></trkpt>
      <trkpt lat="46.61956" lon="12.310335"><ele>2395</ele></trkpt>
      <trkpt lat="46.620077" lon="12.310451"><ele>2405</ele></trkpt>
      <trkpt lat="46.620751" lon="12.310579"><ele>2418</ele></trkpt>
      <trkpt lat="46.620857" lon="12.310632"><ele>2418</ele></trkpt>
      <trkpt lat="46.620998" lon="12.310675"><ele>2421</ele></trkpt>
      <trkpt lat="46.621227" lon="12.310771"><ele>2425</ele></trkpt>
      <trkpt lat="46.621419" lon="12.310881"><ele>2428</ele></trkpt>
      <trkpt lat="46.621519" lon="12.310966"><ele>2429</ele></trkpt>
      <trkpt lat="46.621699" lon="12.311033"><ele>2434</ele></trkpt>
      <trkpt lat="46.621753" lon="12.311094"><ele>2434</ele></trkpt>
      <trkpt lat="46.62207" lon="12.311329"><ele>2440</ele></trkpt>
      <trkpt lat="46.622274" lon="12.311431"><ele>2446</ele></trkpt>
      <trkpt lat="46.622499" lon="12.311453"><ele>2451</ele></trkpt>
      <trkpt lat="46.622515" lon="12.311479"><ele>2455</ele></trkpt>
      <trkpt lat="46.622499" lon="12.311453"><ele>2451</ele></trkpt>
      <trkpt lat="46.62256" lon="12.311452"><ele>2450</ele></trkpt>
      <trkpt lat="46.62262" lon="12.311465"><ele>2449</ele></trkpt>
      <trkpt lat="46.622985" lon="12.311678"><ele>2448</ele></trkpt>
      <trkpt lat="46.623107" lon="12.311758"><ele>2447</ele></trkpt>
      <trkpt lat="46.623274" lon="12.311838"><ele>2444</ele></trkpt>
      <trkpt lat="46.623627" lon="12.312133"><ele>2439</ele></trkpt>
      <trkpt lat="46.623755" lon="12.312241"><ele>2436</ele></trkpt>
      <trkpt lat="46.62398" lon="12.312471"><ele>2429</ele></trkpt>
      <trkpt lat="46.6242" lon="12.312714"><ele>2421</ele></trkpt>
      <trkpt lat="46.62432" lon="12.312835"><ele>2418</ele></trkpt>
      <trkpt lat="46.624416" lon="12.312908"><ele>2416</ele></trkpt>
      <trkpt lat="46.624512" lon="12.31297"><ele>2415</ele></trkpt>
      <trkpt lat="46.62461" lon="12.313011"><ele>2413</ele></trkpt>
      <trkpt lat="46.624718" lon="12.313038"><ele>2412</ele></trkpt>
      <trkpt lat="46.624878" lon="12.313033"><ele>2412</ele></trkpt>
      <trkpt lat="46.624988" lon="12.312964"><ele>2409</ele></trkpt>
      <trkpt lat="46.62508" lon="12.312938"><ele>2408</ele></trkpt>
      <trkpt lat="46.625146" lon="12.312906"><ele>2406</ele></trkpt>
      <trkpt lat="46.625666" lon="12.312817"><ele>2399</ele></trkpt>
      <trkpt lat="46.625728" lon="12.31282"><ele>2399</ele></trkpt>
      <trkpt lat="46.625779" lon="12.312855"><ele>2399</ele></trkpt>
      <trkpt lat="46.625929" lon="12.31286"><ele>2398</ele></trkpt>
      <trkpt lat="46.625993" lon="12.312839"><ele>2397</ele></trkpt>
      <trkpt lat="46.626203" lon="12.312734"><ele>2393</ele></trkpt>
      <trkpt lat="46.626281" lon="12.312644"><ele>2392</ele></trkpt>
      <trkpt lat="46.62635" lon="12.312546"><ele>2392</ele></trkpt>
      <trkpt lat="46.626399" lon="12.312516"><ele>2393</ele></trkpt>
      <trkpt lat="46.626431" lon="12.312509"><ele>2393</ele></trkpt>
      <trkpt lat="46.626622" lon="12.312368"><ele>2393</ele></trkpt>
      <trkpt lat="46.626657" lon="12.312343"><ele>2393</ele></trkpt>
      <trkpt lat="46.626704" lon="12.312286"><ele>2393</ele></trkpt>
      <trkpt lat="46.626779" lon="12.312247"><ele>2392</ele></trkpt>
      <trkpt lat="46.627095" lon="12.311873"><ele>2392</ele></trkpt>
      <trkpt lat="46.627163" lon="12.311783"><ele>2393</ele></trkpt>
      <trkpt lat="46.627246" lon="12.311715"><ele>2394</ele></trkpt>
      <trkpt lat="46.627365" lon="12.311728"><ele>2392</ele></trkpt>
      <trkpt lat="46.627492" lon="12.311727"><ele>2390</ele></trkpt>
      <trkpt lat="46.627669" lon="12.311648"><ele>2386</ele></trkpt>
      <trkpt lat="46.627913" lon="12.311495"><ele>2383</ele></trkpt>
      <trkpt lat="46.628091" lon="12.311363"><ele>2379</ele></trkpt>
      <trkpt lat="46.628135" lon="12.311351"><ele>2378</ele></trkpt>
      <trkpt lat="46.628288" lon="12.311374"><ele>2376</ele></trkpt>
      <trkpt lat="46.628315" lon="12.311354"><ele>2375</ele></trkpt>
      <trkpt lat="46.628323" lon="12.311312"><ele>2374</ele></trkpt>
      <trkpt lat="46.628307" lon="12.311256"><ele>2373</ele></trkpt>
      <trkpt lat="46.628274" lon="12.311188"><ele>2372</ele></trkpt>
      <trkpt lat="46.628257" lon="12.31113"><ele>2372</ele></trkpt>
      <trkpt lat="46.628273" lon="12.31109"><ele>2371</ele></trkpt>
      <trkpt lat="46.628303" lon="12.311066"><ele>2369</ele></trkpt>
      <trkpt lat="46.628347" lon="12.311063"><ele>2368</ele></trkpt>
      <trkpt lat="46.628414" lon="12.31101"><ele>2365</ele></trkpt>
      <trkpt lat="46.628448" lon="12.310982"><ele>2363</ele></trkpt>
      <trkpt lat="46.628498" lon="12.310955"><ele>2361</ele></trkpt>
      <trkpt lat="46.628555" lon="12.310956"><ele>2359</ele></trkpt>
      <trkpt lat="46.628787" lon="12.311028"><ele>2357</ele></trkpt>
      <trkpt lat="46.628836" lon="12.311027"><ele>2356</ele></trkpt>
      <trkpt lat="46.628927" lon="12.311005"><ele>2355</ele></trkpt>
      <trkpt lat="46.628973" lon="12.311017"><ele>2355</ele></trkpt>
      <trkpt lat="46.629132" lon="12.311007"><ele>2356</ele></trkpt>
      <trkpt lat="46.629228" lon="12.311037"><ele>2356</ele></trkpt>
      <trkpt lat="46.629407" lon="12.311029"><ele>2356</ele></trkpt>
      <trkpt lat="46.629484" lon="12.311046"><ele>2358</ele></trkpt>
      <trkpt lat="46.62954" lon="12.311039"><ele>2358</ele></trkpt>
      <trkpt lat="46.629883" lon="12.310838"><ele>2357</ele></trkpt>
      <trkpt lat="46.630025" lon="12.310732"><ele>2358</ele></trkpt>
      <trkpt lat="46.630175" lon="12.310638"><ele>2359</ele></trkpt>
      <trkpt lat="46.630312" lon="12.310574"><ele>2359</ele></trkpt>
      <trkpt lat="46.630373" lon="12.310564"><ele>2359</ele></trkpt>
      <trkpt lat="46.630859" lon="12.310572"><ele>2361</ele></trkpt>
      <trkpt lat="46.631179" lon="12.310622"><ele>2363</ele></trkpt>
      <trkpt lat="46.631455" lon="12.310627"><ele>2365</ele></trkpt>
      <trkpt lat="46.631605" lon="12.310659"><ele>2365</ele></trkpt>
      <trkpt lat="46.631839" lon="12.310796"><ele>2364</ele></trkpt>
      <trkpt lat="46.632278" lon="12.311087"><ele>2362</ele></trkpt>
      <trkpt lat="46.632661" lon="12.311272"><ele>2361</ele></trkpt>
      <trkpt lat="46.633056" lon="12.311393"><ele>2361</ele></trkpt>
      <trkpt lat="46.633323" lon="12.311535"><ele>2359</ele></trkpt>
      <trkpt lat="46.633546" lon="12.311698"><ele>2354</ele></trkpt>
      <trkpt lat="46.634002" lon="12.311876"><ele>2351</ele></trkpt>
      <trkpt lat="46.634195" lon="12.311878"><ele>2351</ele></trkpt>
      <trkpt lat="46.634536" lon="12.311681"><ele>2354</ele></trkpt>
      <trkpt lat="46.634609" lon="12.31163"><ele>2354</ele></trkpt>
      <trkpt lat="46.63467" lon="12.311573"><ele>2354</ele></trkpt>
      <trkpt lat="46.634709" lon="12.311507"><ele>2353</ele></trkpt>
      <trkpt lat="46.634787" lon="12.311445"><ele>2356</ele></trkpt>
      <trkpt lat="46.634857" lon="12.311361"><ele>2357</ele></trkpt>
      <trkpt lat="46.634903" lon="12.311322"><ele>2358</ele></trkpt>
      <trkpt lat="46.634945" lon="12.311299"><ele>2359</ele></trkpt>
      <trkpt lat="46.635006" lon="12.311241"><ele>2361</ele></trkpt>
      <trkpt lat="46.635032" lon="12.311241"><ele>2362</ele></trkpt>
      <trkpt lat="46.635084" lon="12.311182"><ele>2363</ele></trkpt>
      <trkpt lat="46.635104" lon="12.311141"><ele>2363</ele></trkpt>
      <trkpt lat="46.635123" lon="12.311134"><ele>2364</ele></trkpt>
      <trkpt lat="46.635134" lon="12.311157"><ele>2366</ele></trkpt>
      <trkpt lat="46.635129" lon="12.311242"><ele>2369</ele></trkpt>
      <trkpt lat="46.635134" lon="12.311265"><ele>2370</ele></trkpt>
      <trkpt lat="46.635147" lon="12.311258"><ele>2370</ele></trkpt>
      <trkpt lat="46.635167" lon="12.311183"><ele>2369</ele></trkpt>
      <trkpt lat="46.635184" lon="12.31115"><ele>2368</ele></trkpt>
      <trkpt lat="46.635257" lon="12.311035"><ele>2371</ele></trkpt>
      <trkpt lat="46.635273" lon="12.311032"><ele>2372</ele></trkpt>
      <trkpt lat="46.635283" lon="12.31105"><ele>2372</ele></trkpt>
      <trkpt lat="46.63529" lon="12.311105"><ele>2373</ele></trkpt>
      <trkpt lat="46.635285" lon="12.311156"><ele>2375</ele></trkpt>
      <trkpt lat="46.635294" lon="12.311184"><ele>2376</ele></trkpt>
      <trkpt lat="46.635312" lon="12.311184"><ele>2377</ele></trkpt>
      <trkpt lat="46.635425" lon="12.311083"><ele>2379</ele></trkpt>
      <trkpt lat="46.635529" lon="12.310964"><ele>2383</ele></trkpt>
      <trkpt lat="46.635553" lon="12.310954"><ele>2384</ele></trkpt>
      <trkpt lat="46.635569" lon="12.310977"><ele>2385</ele></trkpt>
      <trkpt lat="46.635579" lon="12.311043"><ele>2385</ele></trkpt>
      <trkpt lat="46.635596" lon="12.311064"><ele>2386</ele></trkpt>
      <trkpt lat="46.635788" lon="12.311029"><ele>2389</ele></trkpt>
      <trkpt lat="46.63586" lon="12.311032"><ele>2390</ele></trkpt>
      <trkpt lat="46.636097" lon="12.311094"><ele>2389</ele></trkpt>
      <trkpt lat="46.636237" lon="12.311119"><ele>2390</ele></trkpt>
      <trkpt lat="46.636315" lon="12.31111"><ele>2391</ele></trkpt>
      <trkpt lat="46.636445" lon="12.310972"><ele>2393</ele></trkpt>
      <trkpt lat="46.636529" lon="12.310909"><ele>2395</ele></trkpt>
      <trkpt lat="46.636552" lon="12.310914"><ele>2396</ele></trkpt>
      <trkpt lat="46.636554" lon="12.310956"><ele>2396</ele></trkpt>
      <trkpt lat="46.636518" lon="12.311079"><ele>2396</ele></trkpt>
      <trkpt lat="46.636532" lon="12.311114"><ele>2396</ele></trkpt>
      <trkpt lat="46.636557" lon="12.311107"><ele>2397</ele></trkpt>
      <trkpt lat="46.636698" lon="12.310969"><ele>2400</ele></trkpt>
      <trkpt lat="46.636779" lon="12.310924"><ele>2401</ele></trkpt>
      <trkpt lat="46.636902" lon="12.310839"><ele>2405</ele></trkpt>
      <trkpt lat="46.636755" lon="12.310653"><ele>2401</ele></trkpt>
      <trkpt lat="46.63679" lon="12.310531"><ele>2402</ele></trkpt>
      <trkpt lat="46.636882" lon="12.310223"><ele>2402</ele></trkpt>
      <trkpt lat="46.63698" lon="12.310269"><ele>2405</ele></trkpt>
      <trkpt lat="46.637071" lon="12.310324"><ele>2407</ele></trkpt>
      <trkpt lat="46.637112" lon="12.310228"><ele>2407</ele></trkpt>
      <trkpt lat="46.637222" lon="12.309878"><ele>2407</ele></trkpt>
      <trkpt lat="46.637305" lon="12.30935"><ele>2404</ele></trkpt>
      <trkpt lat="46.637322" lon="12.309192"><ele>2404</ele></trkpt>
      <trkpt lat="46.637341" lon="12.309014"><ele>2404</ele></trkpt>
      <trkpt lat="46.637309" lon="12.308592"><ele>2403</ele></trkpt>
      <trkpt lat="46.637362" lon="12.30839"><ele>2402</ele></trkpt>
      <trkpt lat="46.637344" lon="12.308153"><ele>2400</ele></trkpt>
      <trkpt lat="46.637318" lon="12.308064"><ele>2398</ele></trkpt>
      <trkpt lat="46.637258" lon="12.308026"><ele>2397</ele></trkpt>
      <trkpt lat="46.637193" lon="12.308036"><ele>2396</ele></trkpt>
      <trkpt lat="46.637073" lon="12.308009"><ele>2395</ele></trkpt>
      <trkpt lat="46.636923" lon="12.307937"><ele>2392</ele></trkpt>
      <trkpt lat="46.636847" lon="12.307913"><ele>2391</ele></trkpt>
      <trkpt lat="46.636631" lon="12.307884"><ele>2388</ele></trkpt>
      <trkpt lat="46.63645" lon="12.307882"><ele>2386</ele></trkpt>
      <trkpt lat="46.63629" lon="12.307842"><ele>2383</ele></trkpt>
      <trkpt lat="46.63618" lon="12.307862"><ele>2382</ele></trkpt>
      <trkpt lat="46.635959" lon="12.307965"><ele>2378</ele></trkpt>
      <trkpt lat="46.635874" lon="12.307964"><ele>2376</ele></trkpt>
      <trkpt lat="46.635797" lon="12.30806"><ele>2372</ele></trkpt>
      <trkpt lat="46.635713" lon="12.308098"><ele>2368</ele></trkpt>
      <trkpt lat="46.635676" lon="12.308174"><ele>2367</ele></trkpt>
      <trkpt lat="46.63567" lon="12.308233"><ele>2368</ele></trkpt>
      <trkpt lat="46.635562" lon="12.308369"><ele>2364</ele></trkpt>
      <trkpt lat="46.635542" lon="12.30829"><ele>2362</ele></trkpt>
      <trkpt lat="46.635521" lon="12.30815"><ele>2358</ele></trkpt>
      <trkpt lat="46.63552" lon="12.308053"><ele>2357</ele></trkpt>
      <trkpt lat="46.635512" lon="12.30803"><ele>2357</ele></trkpt>
      <trkpt lat="46.635497" lon="12.307988"><ele>2356</ele></trkpt>
      <trkpt lat="46.635478" lon="12.308025"><ele>2355</ele></trkpt>
      <trkpt lat="46.635466" lon="12.307983"><ele>2354</ele></trkpt>
      <trkpt lat="46.635446" lon="12.307985"><ele>2353</ele></trkpt>
      <trkpt lat="46.635436" lon="12.308027"><ele>2352</ele></trkpt>
      <trkpt lat="46.635421" lon="12.308043"><ele>2351</ele></trkpt>
      <trkpt lat="46.635369" lon="12.308045"><ele>2348</ele></trkpt>
      <trkpt lat="46.635332" lon="12.308108"><ele>2346</ele></trkpt>
      <trkpt lat="46.635309" lon="12.308166"><ele>2345</ele></trkpt>
      <trkpt lat="46.635262" lon="12.308231"><ele>2343</ele></trkpt>
      <trkpt lat="46.635185" lon="12.308475"><ele>2340</ele></trkpt>
      <trkpt lat="46.63516" lon="12.308639"><ele>2338</ele></trkpt>
      <trkpt lat="46.63514" lon="12.308644"><ele>2337</ele></trkpt>
      <trkpt lat="46.635136" lon="12.308689"><ele>2336</ele></trkpt>
      <trkpt lat="46.635099" lon="12.308806"><ele>2333</ele></trkpt>
      <trkpt lat="46.635051" lon="12.308692"><ele>2330</ele></trkpt>
      <trkpt lat="46.635" lon="12.308887"><ele>2325</ele></trkpt>
      <trkpt lat="46.634785" lon="12.308255"><ele>2319</ele></trkpt>
      <trkpt lat="46.634603" lon="12.308051"><ele>2306</ele></trkpt>
      <trkpt lat="46.63469" lon="12.30803"><ele>2306</ele></trkpt>
      <trkpt lat="46.634785" lon="12.307927"><ele>2308</ele></trkpt>
      <trkpt lat="46.634839" lon="12.307751"><ele>2306</ele></trkpt>
      <trkpt lat="46.634831" lon="12.307471"><ele>2297</ele></trkpt>
      <trkpt lat="46.634921" lon="12.30711"><ele>2290</ele></trkpt>
      <trkpt lat="46.634953" lon="12.3068"><ele>2284</ele></trkpt>
      <trkpt lat="46.634893" lon="12.306833"><ele>2282</ele></trkpt>
      <trkpt lat="46.63469" lon="12.306975"><ele>2275</ele></trkpt>
      <trkpt lat="46.634672" lon="12.306922"><ele>2273</ele></trkpt>
      <trkpt lat="46.634703" lon="12.306727"><ele>2270</ele></trkpt>
      <trkpt lat="46.6347" lon="12.306534"><ele>2268</ele></trkpt>
      <trkpt lat="46.634686" lon="12.306387"><ele>2267</ele></trkpt>
      <trkpt lat="46.634635" lon="12.306199"><ele>2264</ele></trkpt>
      <trkpt lat="46.634604" lon="12.30622"><ele>2262</ele></trkpt>
      <trkpt lat="46.63452" lon="12.306468"><ele>2259</ele></trkpt>
      <trkpt lat="46.634369" lon="12.306594"><ele>2253</ele></trkpt>
      <trkpt lat="46.634195" lon="12.306784"><ele>2253</ele></trkpt>
      <trkpt lat="46.633986" lon="12.306816"><ele>2250</ele></trkpt>
      <trkpt lat="46.634138" lon="12.306553"><ele>2240</ele></trkpt>
      <trkpt lat="46.634183" lon="12.306417"><ele>2237</ele></trkpt>
      <trkpt lat="46.634209" lon="12.306281"><ele>2235</ele></trkpt>
      <trkpt lat="46.634174" lon="12.306255"><ele>2232</ele></trkpt>
      <trkpt lat="46.634119" lon="12.306317"><ele>2231</ele></trkpt>
      <trkpt lat="46.634075" lon="12.306396"><ele>2231</ele></trkpt>
      <trkpt lat="46.634017" lon="12.306474"><ele>2232</ele></trkpt>
      <trkpt lat="46.633923" lon="12.306481"><ele>2228</ele></trkpt>
      <trkpt lat="46.633814" lon="12.306443"><ele>2224</ele></trkpt>
      <trkpt lat="46.633703" lon="12.306392"><ele>2220</ele></trkpt>
      <trkpt lat="46.633693" lon="12.306361"><ele>2219</ele></trkpt>
      <trkpt lat="46.633761" lon="12.306357"><ele>2219</ele></trkpt>
      <trkpt lat="46.633833" lon="12.306291"><ele>2218</ele></trkpt>
      <trkpt lat="46.6339" lon="12.306161"><ele>2214</ele></trkpt>
      <trkpt lat="46.634033" lon="12.305987"><ele>2215</ele></trkpt>
      <trkpt lat="46.634056" lon="12.30584"><ele>2210</ele></trkpt>
      <trkpt lat="46.634086" lon="12.305696"><ele>2207</ele></trkpt>
      <trkpt lat="46.633819" lon="12.305705"><ele>2201</ele></trkpt>
      <trkpt lat="46.63379" lon="12.305609"><ele>2200</ele></trkpt>
      <trkpt lat="46.633743" lon="12.305493"><ele>2198</ele></trkpt>
      <trkpt lat="46.633742" lon="12.305381"><ele>2196</ele></trkpt>
      <trkpt lat="46.633756" lon="12.305305"><ele>2194</ele></trkpt>
      <trkpt lat="46.633733" lon="12.30517"><ele>2192</ele></trkpt>
      <trkpt lat="46.633706" lon="12.305068"><ele>2191</ele></trkpt>
      <trkpt lat="46.633709" lon="12.30491"><ele>2188</ele></trkpt>
      <trkpt lat="46.633698" lon="12.304834"><ele>2187</ele></trkpt>
      <trkpt lat="46.633667" lon="12.304765"><ele>2186</ele></trkpt>
      <trkpt lat="46.633662" lon="12.304729"><ele>2185</ele></trkpt>
      <trkpt lat="46.633578" lon="12.304587"><ele>2185</ele></trkpt>
      <trkpt lat="46.633531" lon="12.30456"><ele>2186</ele></trkpt>
      <trkpt lat="46.633497" lon="12.304524"><ele>2186</ele></trkpt>
      <trkpt lat="46.633459" lon="12.304434"><ele>2185</ele></trkpt>
      <trkpt lat="46.633411" lon="12.304391"><ele>2185</ele></trkpt>
      <trkpt lat="46.633247" lon="12.30414"><ele>2183</ele></trkpt>
      <trkpt lat="46.633159" lon="12.304047"><ele>2183</ele></trkpt>
      <trkpt lat="46.633076" lon="12.303984"><ele>2182</ele></trkpt>
      <trkpt lat="46.632984" lon="12.303972"><ele>2183</ele></trkpt>
      <trkpt lat="46.632894" lon="12.303925"><ele>2182</ele></trkpt>
      <trkpt lat="46.632751" lon="12.303922"><ele>2183</ele></trkpt>
      <trkpt lat="46.632684" lon="12.303878"><ele>2182</ele></trkpt>
      <trkpt lat="46.632142" lon="12.303958"><ele>2183</ele></trkpt>
      <trkpt lat="46.631944" lon="12.304043"><ele>2183</ele></trkpt>
      <trkpt lat="46.631905" lon="12.304043"><ele>2182</ele></trkpt>
      <trkpt lat="46.63177" lon="12.304182"><ele>2181</ele></trkpt>
      <trkpt lat="46.631711" lon="12.304224"><ele>2181</ele></trkpt>
      <trkpt lat="46.631641" lon="12.304229"><ele>2180</ele></trkpt>
      <trkpt lat="46.631478" lon="12.304205"><ele>2178</ele></trkpt>
      <trkpt lat="46.631168" lon="12.304193"><ele>2173</ele></trkpt>
      <trkpt lat="46.631063" lon="12.304215"><ele>2172</ele></trkpt>
      <trkpt lat="46.630779" lon="12.303911"><ele>2170</ele></trkpt>
      <trkpt lat="46.630548" lon="12.303597"><ele>2170</ele></trkpt>
      <trkpt lat="46.630409" lon="12.303363"><ele>2173</ele></trkpt>
      <trkpt lat="46.630378" lon="12.303269"><ele>2174</ele></trkpt>
      <trkpt lat="46.63036" lon="12.303165"><ele>2175</ele></trkpt>
      <trkpt lat="46.630348" lon="12.302974"><ele>2178</ele></trkpt>
      <trkpt lat="46.630369" lon="12.302713"><ele>2181</ele></trkpt>
      <trkpt lat="46.630339" lon="12.302464"><ele>2186</ele></trkpt>
      <trkpt lat="46.630283" lon="12.302225"><ele>2193</ele></trkpt>
      <trkpt lat="46.630186" lon="12.301954"><ele>2201</ele></trkpt>
      <trkpt lat="46.63012" lon="12.301671"><ele>2209</ele></trkpt>
      <trkpt lat="46.630111" lon="12.301498"><ele>2212</ele></trkpt>
      <trkpt lat="46.630137" lon="12.300888"><ele>2221</ele></trkpt>
      <trkpt lat="46.630153" lon="12.300173"><ele>2231</ele></trkpt>
      <trkpt lat="46.630137" lon="12.300034"><ele>2233</ele></trkpt>
      <trkpt lat="46.630118" lon="12.299945"><ele>2239</ele></trkpt>
      <trkpt lat="46.630052" lon="12.299638"><ele>2239</ele></trkpt>
      <trkpt lat="46.629925" lon="12.299275"><ele>2250</ele></trkpt>
      <trkpt lat="46.629914" lon="12.299162"><ele>2252</ele></trkpt>
      <trkpt lat="46.629925" lon="12.299053"><ele>2253</ele></trkpt>
      <trkpt lat="46.629993" lon="12.29875"><ele>2254</ele></trkpt>
      <trkpt lat="46.629984" lon="12.298601"><ele>2257</ele></trkpt>
      <trkpt lat="46.629941" lon="12.298446"><ele>2258</ele></trkpt>
      <trkpt lat="46.629884" lon="12.298286"><ele>2260</ele></trkpt>
      <trkpt lat="46.629847" lon="12.298156"><ele>2260</ele></trkpt>
      <trkpt lat="46.629856" lon="12.297711"><ele>2258</ele></trkpt>
      <trkpt lat="46.629808" lon="12.297487"><ele>2257</ele></trkpt>
      <trkpt lat="46.629746" lon="12.297354"><ele>2256</ele></trkpt>
      <trkpt lat="46.629669" lon="12.29729"><ele>2259</ele></trkpt>
      <trkpt lat="46.629636" lon="12.297226"><ele>2260</ele></trkpt>
      <trkpt lat="46.62959" lon="12.29711"><ele>2261</ele></trkpt>
      <trkpt lat="46.629549" lon="12.296974"><ele>2260</ele></trkpt>
      <trkpt lat="46.629526" lon="12.29681"><ele>2258</ele></trkpt>
      <trkpt lat="46.629442" lon="12.296614"><ele>2261</ele></trkpt>
      <trkpt lat="46.629391" lon="12.296252"><ele>2262</ele></trkpt>
      <trkpt lat="46.629346" lon="12.296136"><ele>2263</ele></trkpt>
      <trkpt lat="46.629207" lon="12.295906"><ele>2265</ele></trkpt>
      <trkpt lat="46.629137" lon="12.295764"><ele>2266</ele></trkpt>
      <trkpt lat="46.629032" lon="12.295622"><ele>2268</ele></trkpt>
      <trkpt lat="46.628993" lon="12.295506"><ele>2267</ele></trkpt>
      <trkpt lat="46.629008" lon="12.29541"><ele>2267</ele></trkpt>
      <trkpt lat="46.628993" lon="12.295317"><ele>2265</ele></trkpt>
      <trkpt lat="46.628967" lon="12.295225"><ele>2264</ele></trkpt>
      <trkpt lat="46.629" lon="12.29509"><ele>2264</ele></trkpt>
      <trkpt lat="46.628976" lon="12.295005"><ele>2264</ele></trkpt>
      <trkpt lat="46.628766" lon="12.294666"><ele>2268</ele></trkpt>
      <trkpt lat="46.628488" lon="12.294374"><ele>2263</ele></trkpt>
      <trkpt lat="46.628357" lon="12.294329"><ele>2260</ele></trkpt>
      <trkpt lat="46.628122" lon="12.294268"><ele>2259</ele></trkpt>
      <trkpt lat="46.62793" lon="12.294031"><ele>2260</ele></trkpt>
      <trkpt lat="46.62785" lon="12.293699"><ele>2258</ele></trkpt>
      <trkpt lat="46.627749" lon="12.293582"><ele>2255</ele></trkpt>
      <trkpt lat="46.627705" lon="12.293463"><ele>2254</ele></trkpt>
      <trkpt lat="46.627703" lon="12.293355"><ele>2252</ele></trkpt>
      <trkpt lat="46.627648" lon="12.293239"><ele>2251</ele></trkpt>
      <trkpt lat="46.62763" lon="12.293146"><ele>2250</ele></trkpt>
      <trkpt lat="46.627534" lon="12.29302"><ele>2249</ele></trkpt>
      <trkpt lat="46.627403" lon="12.29276"><ele>2247</ele></trkpt>
      <trkpt lat="46.62737" lon="12.292636"><ele>2247</ele></trkpt>
      <trkpt lat="46.62729" lon="12.292541"><ele>2246</ele></trkpt>
      <trkpt lat="46.627186" lon="12.292497"><ele>2244</ele></trkpt>
      <trkpt lat="46.627127" lon="12.292502"><ele>2244</ele></trkpt>
      <trkpt lat="46.627048" lon="12.292478"><ele>2242</ele></trkpt>
      <trkpt lat="46.627009" lon="12.292435"><ele>2242</ele></trkpt>
      <trkpt lat="46.626983" lon="12.292341"><ele>2241</ele></trkpt>
      <trkpt lat="46.626943" lon="12.292325"><ele>2241</ele></trkpt>
      <trkpt lat="46.626882" lon="12.292154"><ele>2240</ele></trkpt>
      <trkpt lat="46.626869" lon="12.292046"><ele>2240</ele></trkpt>
      <trkpt lat="46.626841" lon="12.291939"><ele>2240</ele></trkpt>
      <trkpt lat="46.626808" lon="12.291867"><ele>2239</ele></trkpt>
      <trkpt lat="46.626744" lon="12.291842"><ele>2238</ele></trkpt>
      <trkpt lat="46.626676" lon="12.291671"><ele>2237</ele></trkpt>
      <trkpt lat="46.626569" lon="12.29155"><ele>2235</ele></trkpt>
      <trkpt lat="46.626484" lon="12.291413"><ele>2233</ele></trkpt>
      <trkpt lat="46.626378" lon="12.291321"><ele>2233</ele></trkpt>
      <trkpt lat="46.626296" lon="12.291188"><ele>2233</ele></trkpt>
      <trkpt lat="46.626215" lon="12.291113"><ele>2233</ele></trkpt>
      <trkpt lat="46.626114" lon="12.290968"><ele>2232</ele></trkpt>
      <trkpt lat="46.626071" lon="12.290869"><ele>2232</ele></trkpt>
      <trkpt lat="46.626001" lon="12.290802"><ele>2232</ele></trkpt>
      <trkpt lat="46.625919" lon="12.290756"><ele>2231</ele></trkpt>
      <trkpt lat="46.625913" lon="12.290689"><ele>2231</ele></trkpt>
      <trkpt lat="46.625869" lon="12.290654"><ele>2231</ele></trkpt>
      <trkpt lat="46.62583" lon="12.290579"><ele>2230</ele></trkpt>
      <trkpt lat="46.625762" lon="12.290528"><ele>2230</ele></trkpt>
      <trkpt lat="46.625754" lon="12.290528"><ele>2230</ele></trkpt>
      <trkpt lat="46.625718" lon="12.29053"><ele>2230</ele></trkpt>
      <trkpt lat="46.625626" lon="12.290552"><ele>2231</ele></trkpt>
      <trkpt lat="46.625548" lon="12.290504"><ele>2231</ele></trkpt>
      <trkpt lat="46.625517" lon="12.290453"><ele>2231</ele></trkpt>
      <trkpt lat="46.625458" lon="12.290441"><ele>2232</ele></trkpt>
      <trkpt lat="46.625412" lon="12.290402"><ele>2232</ele></trkpt>
      <trkpt lat="46.62523" lon="12.290322"><ele>2235</ele></trkpt>
      <trkpt lat="46.625163" lon="12.290255"><ele>2236</ele></trkpt>
      <trkpt lat="46.625071" lon="12.290191"><ele>2239</ele></trkpt>
      <trkpt lat="46.624857" lon="12.290165"><ele>2244</ele></trkpt>
      <trkpt lat="46.624777" lon="12.290194"><ele>2245</ele></trkpt>
      <trkpt lat="46.624699" lon="12.290183"><ele>2246</ele></trkpt>
      <trkpt lat="46.624679" lon="12.290142"><ele>2246</ele></trkpt>
      <trkpt lat="46.624669" lon="12.290089"><ele>2247</ele></trkpt>
      <trkpt lat="46.624655" lon="12.29001"><ele>2247</ele></trkpt>
      <trkpt lat="46.624577" lon="12.28991"><ele>2249</ele></trkpt>
      <trkpt lat="46.62443" lon="12.28985"><ele>2251</ele></trkpt>
      <trkpt lat="46.624267" lon="12.289823"><ele>2252</ele></trkpt>
      <trkpt lat="46.624191" lon="12.28978"><ele>2254</ele></trkpt>
      <trkpt lat="46.624111" lon="12.289637"><ele>2258</ele></trkpt>
      <trkpt lat="46.62402" lon="12.289575"><ele>2260</ele></trkpt>
      <trkpt lat="46.623957" lon="12.289496"><ele>2261</ele></trkpt>
      <trkpt lat="46.623957" lon="12.289393"><ele>2262</ele></trkpt>
      <trkpt lat="46.623924" lon="12.289292"><ele>2263</ele></trkpt>
      <trkpt lat="46.623881" lon="12.289097"><ele>2263</ele></trkpt>
      <trkpt lat="46.623885" lon="12.288994"><ele>2264</ele></trkpt>
      <trkpt lat="46.623948" lon="12.288849"><ele>2266</ele></trkpt>
      <trkpt lat="46.623941" lon="12.288683"><ele>2268</ele></trkpt>
      <trkpt lat="46.623904" lon="12.288571"><ele>2268</ele></trkpt>
      <trkpt lat="46.623892" lon="12.288365"><ele>2267</ele></trkpt>
      <trkpt lat="46.62385" lon="12.288276"><ele>2267</ele></trkpt>
      <trkpt lat="46.623846" lon="12.288061"><ele>2265</ele></trkpt>
      <trkpt lat="46.623902" lon="12.287909"><ele>2266</ele></trkpt>
      <trkpt lat="46.62392" lon="12.287752"><ele>2266</ele></trkpt>
      <trkpt lat="46.623972" lon="12.287598"><ele>2264</ele></trkpt>
      <trkpt lat="46.624008" lon="12.287553"><ele>2264</ele></trkpt>
      <trkpt lat="46.624118" lon="12.287515"><ele>2265</ele></trkpt>
      <trkpt lat="46.62415" lon="12.287435"><ele>2266</ele></trkpt>
      <trkpt lat="46.624128" lon="12.287364"><ele>2266</ele></trkpt>
      <trkpt lat="46.624045" lon="12.287298"><ele>2266</ele></trkpt>
      <trkpt lat="46.623971" lon="12.287157"><ele>2265</ele></trkpt>
      <trkpt lat="46.623898" lon="12.287049"><ele>2264</ele></trkpt>
      <trkpt lat="46.623856" lon="12.286955"><ele>2265</ele></trkpt>
      <trkpt lat="46.623726" lon="12.28687"><ele>2265</ele></trkpt>
      <trkpt lat="46.623648" lon="12.286785"><ele>2264</ele></trkpt>
      <trkpt lat="46.623604" lon="12.286697"><ele>2263</ele></trkpt>
      <trkpt lat="46.623478" lon="12.286493"><ele>2267</ele></trkpt>
      <trkpt lat="46.623334" lon="12.286361"><ele>2272</ele></trkpt>
      <trkpt lat="46.62321" lon="12.286285"><ele>2275</ele></trkpt>
      <trkpt lat="46.623132" lon="12.286104"><ele>2279</ele></trkpt>
      <trkpt lat="46.62306" lon="12.286068"><ele>2282</ele></trkpt>
      <trkpt lat="46.622948" lon="12.286031"><ele>2284</ele></trkpt>
      <trkpt lat="46.622894" lon="12.285965"><ele>2286</ele></trkpt>
      <trkpt lat="46.622786" lon="12.285886"><ele>2289</ele></trkpt>
      <trkpt lat="46.622732" lon="12.285876"><ele>2289</ele></trkpt>
      <trkpt lat="46.622615" lon="12.285789"><ele>2292</ele></trkpt>
      <trkpt lat="46.622428" lon="12.285705"><ele>2293</ele></trkpt>
      <trkpt lat="46.622264" lon="12.28572"><ele>2293</ele></trkpt>
      <trkpt lat="46.622108" lon="12.285701"><ele>2293</ele></trkpt>
      <trkpt lat="46.622067" lon="12.285712"><ele>2294</ele></trkpt>
      <trkpt lat="46.621907" lon="12.285805"><ele>2296</ele></trkpt>
      <trkpt lat="46.621789" lon="12.286013"><ele>2300</ele></trkpt>
      <trkpt lat="46.621536" lon="12.286245"><ele>2308</ele></trkpt>
      <trkpt lat="46.621404" lon="12.286326"><ele>2314</ele></trkpt>
      <trkpt lat="46.621138" lon="12.286971"><ele>2325</ele></trkpt>
      <trkpt lat="46.621055" lon="12.287138"><ele>2329</ele></trkpt>
      <trkpt lat="46.620935" lon="12.287684"><ele>2336</ele></trkpt>
      <trkpt lat="46.620961" lon="12.287973"><ele>2335</ele></trkpt>
      <trkpt lat="46.620846" lon="12.288413"><ele>2344</ele></trkpt>
      <trkpt lat="46.620633" lon="12.28952"><ele>2353</ele></trkpt>
      <trkpt lat="46.620654" lon="12.289892"><ele>2353</ele></trkpt>
      <trkpt lat="46.620586" lon="12.290818"><ele>2358</ele></trkpt>
      <trkpt lat="46.620607" lon="12.291273"><ele>2358</ele></trkpt>
      <trkpt lat="46.62057" lon="12.291591"><ele>2361</ele></trkpt>
      <trkpt lat="46.620596" lon="12.292547"><ele>2371</ele></trkpt>
      <trkpt lat="46.620643" lon="12.292745"><ele>2374</ele></trkpt>
      <trkpt lat="46.620596" lon="12.292919"><ele>2381</ele></trkpt>
      <trkpt lat="46.620654" lon="12.293192"><ele>2382</ele></trkpt>
      <trkpt lat="46.620654" lon="12.293503"><ele>2386</ele></trkpt>
      <trkpt lat="46.620711" lon="12.294156"><ele>2387</ele></trkpt>
      <trkpt lat="46.620503" lon="12.294967"><ele>2398</ele></trkpt>
      <trkpt lat="46.620325" lon="12.295536"><ele>2398</ele></trkpt>
      <trkpt lat="46.620206" lon="12.296227"><ele>2401</ele></trkpt>
      <trkpt lat="46.620163" lon="12.29657"><ele>2405</ele></trkpt>
      <trkpt lat="46.620206" lon="12.296227"><ele>2401</ele></trkpt>
      <trkpt lat="46.620325" lon="12.295536"><ele>2398</ele></trkpt>
      <trkpt lat="46.620503" lon="12.294967"><ele>2398</ele></trkpt>
      <trkpt lat="46.620711" lon="12.294156"><ele>2387</ele></trkpt>
      <trkpt lat="46.620654" lon="12.293503"><ele>2386</ele></trkpt>
      <trkpt lat="46.620654" lon="12.293192"><ele>2382</ele></trkpt>
      <trkpt lat="46.620596" lon="12.292919"><ele>2381</ele></trkpt>
      <trkpt lat="46.620643" lon="12.292745"><ele>2374</ele></trkpt>
      <trkpt lat="46.620596" lon="12.292547"><ele>2371</ele></trkpt>
      <trkpt lat="46.62057" lon="12.291591"><ele>2361</ele></trkpt>
      <trkpt lat="46.620607" lon="12.291273"><ele>2358</ele></trkpt>
      <trkpt lat="46.620586" lon="12.290818"><ele>2358</ele></trkpt>
      <trkpt lat="46.620654" lon="12.289892"><ele>2353</ele></trkpt>
      <trkpt lat="46.620633" lon="12.28952"><ele>2353</ele></trkpt>
      <trkpt lat="46.620846" lon="12.288413"><ele>2344</ele></trkpt>
      <trkpt lat="46.620961" lon="12.287973"><ele>2335</ele></trkpt>
      <trkpt lat="46.620935" lon="12.287684"><ele>2336</ele></trkpt>
      <trkpt lat="46.621055" lon="12.287138"><ele>2329</ele></trkpt>
      <trkpt lat="46.621138" lon="12.286971"><ele>2325</ele></trkpt>
      <trkpt lat="46.621404" lon="12.286326"><ele>2314</ele></trkpt>
      <trkpt lat="46.621536" lon="12.286245"><ele>2308</ele></trkpt>
      <trkpt lat="46.621789" lon="12.286013"><ele>2300</ele></trkpt>
      <trkpt lat="46.621907" lon="12.285805"><ele>2296</ele></trkpt>
      <trkpt lat="46.621756" lon="12.285817"><ele>2295</ele></trkpt>
      <trkpt lat="46.621288" lon="12.285814"><ele>2292</ele></trkpt>
      <trkpt lat="46.621132" lon="12.285823"><ele>2292</ele></trkpt>
      <trkpt lat="46.621077" lon="12.285812"><ele>2292</ele></trkpt>
      <trkpt lat="46.62103" lon="12.285792"><ele>2292</ele></trkpt>
      <trkpt lat="46.62072" lon="12.285491"><ele>2290</ele></trkpt>
      <trkpt lat="46.620463" lon="12.285294"><ele>2289</ele></trkpt>
      <trkpt lat="46.620366" lon="12.285198"><ele>2288</ele></trkpt>
      <trkpt lat="46.620271" lon="12.285159"><ele>2289</ele></trkpt>
      <trkpt lat="46.62019" lon="12.285102"><ele>2289</ele></trkpt>
      <trkpt lat="46.620107" lon="12.285069"><ele>2290</ele></trkpt>
      <trkpt lat="46.620039" lon="12.285005"><ele>2288</ele></trkpt>
      <trkpt lat="46.619946" lon="12.284958"><ele>2288</ele></trkpt>
      <trkpt lat="46.619829" lon="12.284926"><ele>2288</ele></trkpt>
      <trkpt lat="46.619707" lon="12.284905"><ele>2288</ele></trkpt>
      <trkpt lat="46.619535" lon="12.284853"><ele>2285</ele></trkpt>
      <trkpt lat="46.619491" lon="12.284865"><ele>2285</ele></trkpt>
      <trkpt lat="46.619408" lon="12.28493"><ele>2288</ele></trkpt>
      <trkpt lat="46.619359" lon="12.284953"><ele>2289</ele></trkpt>
      <trkpt lat="46.619256" lon="12.284953"><ele>2289</ele></trkpt>
      <trkpt lat="46.619167" lon="12.284926"><ele>2288</ele></trkpt>
      <trkpt lat="46.619091" lon="12.284916"><ele>2288</ele></trkpt>
      <trkpt lat="46.61878" lon="12.284951"><ele>2294</ele></trkpt>
      <trkpt lat="46.618705" lon="12.284992"><ele>2297</ele></trkpt>
      <trkpt lat="46.618369" lon="12.284984"><ele>2299</ele></trkpt>
      <trkpt lat="46.61823" lon="12.285003"><ele>2300</ele></trkpt>
      <trkpt lat="46.618131" lon="12.285034"><ele>2302</ele></trkpt>
      <trkpt lat="46.618021" lon="12.285034"><ele>2303</ele></trkpt>
      <trkpt lat="46.617967" lon="12.285026"><ele>2303</ele></trkpt>
      <trkpt lat="46.617878" lon="12.285042"><ele>2306</ele></trkpt>
      <trkpt lat="46.617823" lon="12.285004"><ele>2306</ele></trkpt>
      <trkpt lat="46.617638" lon="12.284847"><ele>2310</ele></trkpt>
      <trkpt lat="46.617579" lon="12.284767"><ele>2311</ele></trkpt>
      <trkpt lat="46.617529" lon="12.284726"><ele>2312</ele></trkpt>
      <trkpt lat="46.617495" lon="12.284573"><ele>2314</ele></trkpt>
      <trkpt lat="46.617503" lon="12.284487"><ele>2314</ele></trkpt>
      <trkpt lat="46.617505" lon="12.284366"><ele>2313</ele></trkpt>
      <trkpt lat="46.61752" lon="12.284247"><ele>2310</ele></trkpt>
      <trkpt lat="46.617499" lon="12.284293"><ele>2312</ele></trkpt>
      <trkpt lat="46.617297" lon="12.284294"><ele>2307</ele></trkpt>
      <trkpt lat="46.617062" lon="12.284405"><ele>2303</ele></trkpt>
      <trkpt lat="46.61661" lon="12.284945"><ele>2307</ele></trkpt>
      <trkpt lat="46.616371" lon="12.285417"><ele>2312</ele></trkpt>
      <trkpt lat="46.616334" lon="12.285542"><ele>2313</ele></trkpt>
      <trkpt lat="46.616253" lon="12.285742"><ele>2313</ele></trkpt>
      <trkpt lat="46.616161" lon="12.285911"><ele>2312</ele></trkpt>
      <trkpt lat="46.61612" lon="12.286073"><ele>2313</ele></trkpt>
      <trkpt lat="46.616055" lon="12.28628"><ele>2313</ele></trkpt>
      <trkpt lat="46.616016" lon="12.286451"><ele>2314</ele></trkpt>
      <trkpt lat="46.615944" lon="12.286534"><ele>2313</ele></trkpt>
      <trkpt lat="46.615906" lon="12.286595"><ele>2312</ele></trkpt>
      <trkpt lat="46.615856" lon="12.286677"><ele>2311</ele></trkpt>
      <trkpt lat="46.615831" lon="12.286748"><ele>2311</ele></trkpt>
      <trkpt lat="46.615825" lon="12.286859"><ele>2312</ele></trkpt>
      <trkpt lat="46.615855" lon="12.287027"><ele>2318</ele></trkpt>
      <trkpt lat="46.615844" lon="12.287078"><ele>2319</ele></trkpt>
      <trkpt lat="46.615824" lon="12.28711"><ele>2319</ele></trkpt>
      <trkpt lat="46.615666" lon="12.287263"><ele>2316</ele></trkpt>
      <trkpt lat="46.615586" lon="12.287308"><ele>2315</ele></trkpt>
      <trkpt lat="46.615559" lon="12.287276"><ele>2312</ele></trkpt>
      <trkpt lat="46.615543" lon="12.28724"><ele>2309</ele></trkpt>
      <trkpt lat="46.615523" lon="12.287228"><ele>2308</ele></trkpt>
      <trkpt lat="46.615453" lon="12.287259"><ele>2306</ele></trkpt>
      <trkpt lat="46.6151" lon="12.287836"><ele>2312</ele></trkpt>
      <trkpt lat="46.615039" lon="12.288054"><ele>2312</ele></trkpt>
      <trkpt lat="46.615" lon="12.288219"><ele>2311</ele></trkpt>
      <trkpt lat="46.615009" lon="12.288329"><ele>2313</ele></trkpt>
      <trkpt lat="46.615003" lon="12.28851"><ele>2313</ele></trkpt>
      <trkpt lat="46.615013" lon="12.288742"><ele>2315</ele></trkpt>
      <trkpt lat="46.615006" lon="12.288916"><ele>2316</ele></trkpt>
      <trkpt lat="46.614954" lon="12.289351"><ele>2318</ele></trkpt>
      <trkpt lat="46.614933" lon="12.289414"><ele>2318</ele></trkpt>
      <trkpt lat="46.614897" lon="12.289492"><ele>2318</ele></trkpt>
      <trkpt lat="46.614833" lon="12.289601"><ele>2318</ele></trkpt>
      <trkpt lat="46.61473" lon="12.289926"><ele>2319</ele></trkpt>
      <trkpt lat="46.61457" lon="12.290174"><ele>2323</ele></trkpt>
      <trkpt lat="46.614504" lon="12.290297"><ele>2326</ele></trkpt>
      <trkpt lat="46.61446" lon="12.290423"><ele>2329</ele></trkpt>
      <trkpt lat="46.614423" lon="12.290613"><ele>2332</ele></trkpt>
      <trkpt lat="46.614395" lon="12.290725"><ele>2333</ele></trkpt>
      <trkpt lat="46.614316" lon="12.290898"><ele>2331</ele></trkpt>
      <trkpt lat="46.614285" lon="12.291029"><ele>2330</ele></trkpt>
      <trkpt lat="46.614278" lon="12.29112"><ele>2330</ele></trkpt>
      <trkpt lat="46.614186" lon="12.291546"><ele>2332</ele></trkpt>
      <trkpt lat="46.614154" lon="12.291668"><ele>2333</ele></trkpt>
      <trkpt lat="46.614079" lon="12.291858"><ele>2332</ele></trkpt>
      <trkpt lat="46.614062" lon="12.291924"><ele>2332</ele></trkpt>
      <trkpt lat="46.614063" lon="12.291969"><ele>2333</ele></trkpt>
      <trkpt lat="46.614047" lon="12.292013"><ele>2332</ele></trkpt>
      <trkpt lat="46.614006" lon="12.292077"><ele>2332</ele></trkpt>
      <trkpt lat="46.613977" lon="12.29215"><ele>2331</ele></trkpt>
      <trkpt lat="46.613962" lon="12.292294"><ele>2333</ele></trkpt>
      <trkpt lat="46.61393" lon="12.292361"><ele>2333</ele></trkpt>
      <trkpt lat="46.61382" lon="12.292538"><ele>2332</ele></trkpt>
      <trkpt lat="46.61371" lon="12.292698"><ele>2331</ele></trkpt>
      <trkpt lat="46.613548" lon="12.293015"><ele>2330</ele></trkpt>
      <trkpt lat="46.613534" lon="12.293099"><ele>2331</ele></trkpt>
      <trkpt lat="46.613614" lon="12.2933"><ele>2337</ele></trkpt>
      <trkpt lat="46.613567" lon="12.29339"><ele>2336</ele></trkpt>
      <trkpt lat="46.613392" lon="12.293649"><ele>2333</ele></trkpt>
      <trkpt lat="46.613318" lon="12.293702"><ele>2332</ele></trkpt>
      <trkpt lat="46.613294" lon="12.293741"><ele>2331</ele></trkpt>
      <trkpt lat="46.613282" lon="12.293785"><ele>2331</ele></trkpt>
      <trkpt lat="46.613281" lon="12.293832"><ele>2332</ele></trkpt>
      <trkpt lat="46.613291" lon="12.293877"><ele>2333</ele></trkpt>
      <trkpt lat="46.61328" lon="12.293938"><ele>2333</ele></trkpt>
      <trkpt lat="46.613269" lon="12.293977"><ele>2333</ele></trkpt>
      <trkpt lat="46.613236" lon="12.294027"><ele>2332</ele></trkpt>
      <trkpt lat="46.613153" lon="12.294107"><ele>2331</ele></trkpt>
      <trkpt lat="46.613045" lon="12.294171"><ele>2328</ele></trkpt>
      <trkpt lat="46.612904" lon="12.294376"><ele>2328</ele></trkpt>
      <trkpt lat="46.612783" lon="12.29447"><ele>2327</ele></trkpt>
      <trkpt lat="46.612749" lon="12.294575"><ele>2327</ele></trkpt>
      <trkpt lat="46.612703" lon="12.294688"><ele>2327</ele></trkpt>
      <trkpt lat="46.612536" lon="12.295009"><ele>2326</ele></trkpt>
      <trkpt lat="46.61229" lon="12.295679"><ele>2328</ele></trkpt>
      <trkpt lat="46.612287" lon="12.295745"><ele>2328</ele></trkpt>
      <trkpt lat="46.612298" lon="12.295818"><ele>2328</ele></trkpt>
      <trkpt lat="46.612336" lon="12.296052"><ele>2320</ele></trkpt>
    </trkseg>
  </trk>
</gpx>
