<?xml version="1.0" encoding="UTF-8"?>
<gpx version="1.1" creator="hike-trip" xmlns="http://www.topografix.com/GPX/1/1">
  <metadata>
    <name>Tromeja / Peč — Three-Country Border</name>
    <desc>Routed with BRouter (hiking-mountain) over OpenStreetMap data through hand-verified anchor points. Schematic in places — verify against signage on the ground. Track traces one direction — return the same way.</desc>
    <copyright author="OpenStreetMap contributors"><license>https://www.openstreetmap.org/copyright</license></copyright>
    <bounds minlat="46.497941" minlon="13.705206" maxlat="46.523055" maxlon="13.719105"/>
  </metadata>
  <wpt lat="46.4977" lon="13.7158"><name>Trailhead — Tromeja / Peč — Three-Country Border</name><sym>Trail Head</sym></wpt>
  <wpt lat="46.523" lon="13.7141"><ele>1510</ele><name>Peč (Tromeja)</name><sym>Summit</sym></wpt>
  <trk>
    <name>Tromeja / Peč — Three-Country Border (Rateče – Peč)</name>
    <type>hiking</type>
    <trkseg>
      <trkpt lat="46.497941" lon="13.715727"><ele>867</ele></trkpt>
      <trkpt lat="46.497948" lon="13.715775"><ele>867</ele></trkpt>
      <trkpt lat="46.497983" lon="13.716096"><ele>867</ele></trkpt>
      <trkpt lat="46.497987" lon="13.716428"><ele>868</ele></trkpt>
      <trkpt lat="46.498192" lon="13.716414"><ele>869</ele></trkpt>
      <trkpt lat="46.498222" lon="13.716412"><ele>869</ele></trkpt>
      <trkpt lat="46.498478" lon="13.716107"><ele>873</ele></trkpt>
      <trkpt lat="46.498652" lon="13.71605"><ele>876</ele></trkpt>
      <trkpt lat="46.498826" lon="13.716015"><ele>877</ele></trkpt>
      <trkpt lat="46.499044" lon="13.716035"><ele>879</ele></trkpt>
      <trkpt lat="46.499295" lon="13.715948"><ele>881</ele></trkpt>
      <trkpt lat="46.499743" lon="13.715809"><ele>882</ele></trkpt>
      <trkpt lat="46.499892" lon="13.715817"><ele>883</ele></trkpt>
      <trkpt lat="46.500041" lon="13.715848"><ele>885</ele></trkpt>
      <trkpt lat="46.500103" lon="13.71588"><ele>886</ele></trkpt>
      <trkpt lat="46.500182" lon="13.715947"><ele>887</ele></trkpt>
      <trkpt lat="46.500348" lon="13.715974"><ele>886</ele></trkpt>
      <trkpt lat="46.500441" lon="13.715967"><ele>885</ele></trkpt>
      <trkpt lat="46.500532" lon="13.715891"><ele>885</ele></trkpt>
      <trkpt lat="46.50056" lon="13.715816"><ele>885</ele></trkpt>
      <trkpt lat="46.500573" lon="13.715576"><ele>884</ele></trkpt>
      <trkpt lat="46.500588" lon="13.715427"><ele>885</ele></trkpt>
      <trkpt lat="46.500591" lon="13.715213"><ele>886</ele></trkpt>
      <trkpt lat="46.500554" lon="13.715075"><ele>886</ele></trkpt>
      <trkpt lat="46.500369" lon="13.714663"><ele>889</ele></trkpt>
      <trkpt lat="46.500408" lon="13.714678"><ele>890</ele></trkpt>
      <trkpt lat="46.500636" lon="13.71476"><ele>893</ele></trkpt>
      <trkpt lat="46.500761" lon="13.714722"><ele>896</ele></trkpt>
      <trkpt lat="46.500913" lon="13.714663"><ele>899</ele></trkpt>
      <trkpt lat="46.501206" lon="13.714647"><ele>903</ele></trkpt>
      <trkpt lat="46.50155" lon="13.714432"><ele>910</ele></trkpt>
      <trkpt lat="46.501677" lon="13.714437"><ele>911</ele></trkpt>
      <trkpt lat="46.50175" lon="13.714571"><ele>912</ele></trkpt>
      <trkpt lat="46.501883" lon="13.714963"><ele>913</ele></trkpt>
      <trkpt lat="46.501885" lon="13.71501"><ele>913</ele></trkpt>
      <trkpt lat="46.501883" lon="13.714963"><ele>913</ele></trkpt>
      <trkpt lat="46.50175" lon="13.714571"><ele>912</ele></trkpt>
      <trkpt lat="46.501677" lon="13.714437"><ele>911</ele></trkpt>
      <trkpt lat="46.50155" lon="13.714432"><ele>910</ele></trkpt>
      <trkpt lat="46.501206" lon="13.714647"><ele>903</ele></trkpt>
      <trkpt lat="46.500913" lon="13.714663"><ele>899</ele></trkpt>
      <trkpt lat="46.500761" lon="13.714722"><ele>896</ele></trkpt>
      <trkpt lat="46.500636" lon="13.71476"><ele>893</ele></trkpt>
      <trkpt lat="46.500408" lon="13.714678"><ele>890</ele></trkpt>
      <trkpt lat="46.500369" lon="13.714663"><ele>889</ele></trkpt>
      <trkpt lat="46.500554" lon="13.715075"><ele>886</ele></trkpt>
      <trkpt lat="46.500591" lon="13.715213"><ele>886</ele></trkpt>
      <trkpt lat="46.500588" lon="13.715427"><ele>885</ele></trkpt>
      <trkpt lat="46.500573" lon="13.715576"><ele>884</ele></trkpt>
      <trkpt lat="46.50056" lon="13.715816"><ele>885</ele></trkpt>
      <trkpt lat="46.500661" lon="13.715694"><ele>886</ele></trkpt>
      <trkpt lat="46.500741" lon="13.715632"><ele>888</ele></trkpt>
      <trkpt lat="46.50083" lon="13.715587"><ele>889</ele></trkpt>
      <trkpt lat="46.500918" lon="13.715606"><ele>891</ele></trkpt>
      <trkpt lat="46.501008" lon="13.715637"><ele>894</ele></trkpt>
      <trkpt lat="46.501066" lon="13.715692"><ele>895</ele></trkpt>
      <trkpt lat="46.501095" lon="13.715762"><ele>896</ele></trkpt>
      <trkpt lat="46.5012" lon="13.715862"><ele>898</ele></trkpt>
      <trkpt lat="46.501386" lon="13.716074"><ele>904</ele></trkpt>
      <trkpt lat="46.501606" lon="13.71626"><ele>910</ele></trkpt>
      <trkpt lat="46.501803" lon="13.716511"><ele>916</ele></trkpt>
      <trkpt lat="46.502008" lon="13.716744"><ele>921</ele></trkpt>
      <trkpt lat="46.502203" lon="13.716911"><ele>925</ele></trkpt>
      <trkpt lat="46.502307" lon="13.717012"><ele>926</ele></trkpt>
      <trkpt lat="46.502418" lon="13.716954"><ele>931</ele></trkpt>
      <trkpt lat="46.50258" lon="13.716707"><ele>937</ele></trkpt>
      <trkpt lat="46.502655" lon="13.716262"><ele>944</ele></trkpt>
      <trkpt lat="46.502732" lon="13.715692"><ele>954</ele></trkpt>
      <trkpt lat="46.502844" lon="13.715428"><ele>961</ele></trkpt>
      <trkpt lat="46.502952" lon="13.715446"><ele>964</ele></trkpt>
      <trkpt lat="46.503251" lon="13.715854"><ele>972</ele></trkpt>
      <trkpt lat="46.503263" lon="13.716027"><ele>974</ele></trkpt>
      <trkpt lat="46.503327" lon="13.716446"><ele>980</ele></trkpt>
      <trkpt lat="46.503445" lon="13.716697"><ele>983</ele></trkpt>
      <trkpt lat="46.503688" lon="13.716958"><ele>988</ele></trkpt>
      <trkpt lat="46.504043" lon="13.717286"><ele>994</ele></trkpt>
      <trkpt lat="46.504242" lon="13.717621"><ele>1001</ele></trkpt>
      <trkpt lat="46.504492" lon="13.71793"><ele>1005</ele></trkpt>
      <trkpt lat="46.50469" lon="13.71811"><ele>1008</ele></trkpt>
      <trkpt lat="46.504868" lon="13.71825"><ele>1012</ele></trkpt>
      <trkpt lat="46.505249" lon="13.718679"><ele>1016</ele></trkpt>
      <trkpt lat="46.50557" lon="13.71902"><ele>1024</ele></trkpt>
      <trkpt lat="46.505638" lon="13.719075"><ele>1024</ele></trkpt>
      <trkpt lat="46.505708" lon="13.719105"><ele>1024</ele></trkpt>
      <trkpt lat="46.505756" lon="13.719085"><ele>1024</ele></trkpt>
      <trkpt lat="46.505809" lon="13.718974"><ele>1026</ele></trkpt>
      <trkpt lat="46.505893" lon="13.718669"><ele>1029</ele></trkpt>
      <trkpt lat="46.506188" lon="13.718162"><ele>1038</ele></trkpt>
      <trkpt lat="46.506277" lon="13.717937"><ele>1041</ele></trkpt>
      <trkpt lat="46.506383" lon="13.717732"><ele>1044</ele></trkpt>
      <trkpt lat="46.506475" lon="13.717655"><ele>1045</ele></trkpt>
      <trkpt lat="46.506602" lon="13.717628"><ele>1048</ele></trkpt>
      <trkpt lat="46.50672" lon="13.717662"><ele>1050</ele></trkpt>
      <trkpt lat="46.507309" lon="13.718467"><ele>1060</ele></trkpt>
      <trkpt lat="46.507391" lon="13.718543"><ele>1062</ele></trkpt>
      <trkpt lat="46.507495" lon="13.718557"><ele>1064</ele></trkpt>
      <trkpt lat="46.507593" lon="13.718517"><ele>1063</ele></trkpt>
      <trkpt lat="46.507703" lon="13.718335"><ele>1065</ele></trkpt>
      <trkpt lat="46.508034" lon="13.717495"><ele>1074</ele></trkpt>
      <trkpt lat="46.508201" lon="13.717191"><ele>1077</ele></trkpt>
      <trkpt lat="46.508523" lon="13.716847"><ele>1084</ele></trkpt>
      <trkpt lat="46.5087" lon="13.716478"><ele>1091</ele></trkpt>
      <trkpt lat="46.508808" lon="13.716324"><ele>1094</ele></trkpt>
      <trkpt lat="46.50905" lon="13.71614"><ele>1096</ele></trkpt>
      <trkpt lat="46.50914" lon="13.716072"><ele>1096</ele></trkpt>
      <trkpt lat="46.509437" lon="13.716079"><ele>1099</ele></trkpt>
      <trkpt lat="46.509672" lon="13.716096"><ele>1099</ele></trkpt>
      <trkpt lat="46.509826" lon="13.716167"><ele>1100</ele></trkpt>
      <trkpt lat="46.510081" lon="13.71631"><ele>1105</ele></trkpt>
      <trkpt lat="46.510161" lon="13.716384"><ele>1107</ele></trkpt>
      <trkpt lat="46.510532" lon="13.716691"><ele>1113</ele></trkpt>
      <trkpt lat="46.510665" lon="13.71674"><ele>1115</ele></trkpt>
      <trkpt lat="46.51097" lon="13.716792"><ele>1120</ele></trkpt>
      <trkpt lat="46.51107" lon="13.716844"><ele>1122</ele></trkpt>
      <trkpt lat="46.511215" lon="13.717062"><ele>1124</ele></trkpt>
      <trkpt lat="46.511372" lon="13.717206"><ele>1128</ele></trkpt>
      <trkpt lat="46.5115" lon="13.717251"><ele>1129</ele></trkpt>
      <trkpt lat="46.511632" lon="13.717237"><ele>1131</ele></trkpt>
      <trkpt lat="46.512004" lon="13.717048"><ele>1138</ele></trkpt>
      <trkpt lat="46.512078" lon="13.717028"><ele>1140</ele></trkpt>
      <trkpt lat="46.51214" lon="13.717104"><ele>1140</ele></trkpt>
      <trkpt lat="46.512158" lon="13.717204"><ele>1140</ele></trkpt>
      <trkpt lat="46.512153" lon="13.717369"><ele>1140</ele></trkpt>
      <trkpt lat="46.512156" lon="13.717486"><ele>1141</ele></trkpt>
      <trkpt lat="46.512185" lon="13.717569"><ele>1141</ele></trkpt>
      <trkpt lat="46.512292" lon="13.717684"><ele>1142</ele></trkpt>
      <trkpt lat="46.512388" lon="13.717729"><ele>1142</ele></trkpt>
      <trkpt lat="46.512513" lon="13.71773"><ele>1144</ele></trkpt>
      <trkpt lat="46.512883" lon="13.717577"><ele>1149</ele></trkpt>
      <trkpt lat="46.513158" lon="13.717385"><ele>1152</ele></trkpt>
      <trkpt lat="46.513349" lon="13.717265"><ele>1152</ele></trkpt>
      <trkpt lat="46.513475" lon="13.717224"><ele>1154</ele></trkpt>
      <trkpt lat="46.513579" lon="13.717264"><ele>1154</ele></trkpt>
      <trkpt lat="46.51385" lon="13.717408"><ele>1158</ele></trkpt>
      <trkpt lat="46.513999" lon="13.717416"><ele>1160</ele></trkpt>
      <trkpt lat="46.514416" lon="13.717308"><ele>1166</ele></trkpt>
      <trkpt lat="46.514631" lon="13.717212"><ele>1170</ele></trkpt>
      <trkpt lat="46.515277" lon="13.716754"><ele>1179</ele></trkpt>
      <trkpt lat="46.515464" lon="13.716668"><ele>1178</ele></trkpt>
      <trkpt lat="46.515583" lon="13.716661"><ele>1177</ele></trkpt>
      <trkpt lat="46.51584" lon="13.716583"><ele>1179</ele></trkpt>
      <trkpt lat="46.51609" lon="13.716485"><ele>1181</ele></trkpt>
      <trkpt lat="46.516307" lon="13.716416"><ele>1183</ele></trkpt>
      <trkpt lat="46.516259" lon="13.716053"><ele>1190</ele></trkpt>
      <trkpt lat="46.516811" lon="13.715854"><ele>1199</ele></trkpt>
      <trkpt lat="46.516993" lon="13.715658"><ele>1204</ele></trkpt>
      <trkpt lat="46.517076" lon="13.71557"><ele>1205</ele></trkpt>
      <trkpt lat="46.517343" lon="13.715076"><ele>1213</ele></trkpt>
      <trkpt lat="46.5175" lon="13.714567"><ele>1220</ele></trkpt>
      <trkpt lat="46.517668" lon="13.714178"><ele>1231</ele></trkpt>
      <trkpt lat="46.517705" lon="13.713762"><ele>1236</ele></trkpt>
      <trkpt lat="46.517762" lon="13.713582"><ele>1237</ele></trkpt>
      <trkpt lat="46.517886" lon="13.712468"><ele>1255</ele></trkpt>
      <trkpt lat="46.518066" lon="13.71207"><ele>1261</ele></trkpt>
      <trkpt lat="46.518486" lon="13.710876"><ele>1283</ele></trkpt>
      <trkpt lat="46.5187" lon="13.71005"><ele>1293</ele></trkpt>
      <trkpt lat="46.518828" lon="13.708635"><ele>1309</ele></trkpt>
      <trkpt lat="46.51887" lon="13.708277"><ele>1310</ele></trkpt>
      <trkpt lat="46.518943" lon="13.70799"><ele>1312</ele></trkpt>
      <trkpt lat="46.519034" lon="13.707874"><ele>1314</ele></trkpt>
      <trkpt lat="46.519071" lon="13.707665"><ele>1316</ele></trkpt>
      <trkpt lat="46.519049" lon="13.707043"><ele>1319</ele></trkpt>
      <trkpt lat="46.519025" lon="13.706734"><ele>1320</ele></trkpt>
      <trkpt lat="46.519025" lon="13.706517"><ele>1321</ele></trkpt>
      <trkpt lat="46.518962" lon="13.706329"><ele>1321</ele></trkpt>
      <trkpt lat="46.518906" lon="13.706061"><ele>1321</ele></trkpt>
      <trkpt lat="46.518945" lon="13.705914"><ele>1322</ele></trkpt>
      <trkpt lat="46.519116" lon="13.705725"><ele>1325</ele></trkpt>
      <trkpt lat="46.519127" lon="13.705753"><ele>1325</ele></trkpt>
      <trkpt lat="46.519159" lon="13.705767"><ele>1326</ele></trkpt>
      <trkpt lat="46.519226" lon="13.705727"><ele>1328</ele></trkpt>
      <trkpt lat="46.519267" lon="13.70567"><ele>1328</ele></trkpt>
      <trkpt lat="46.519466" lon="13.705229"><ele>1329</ele></trkpt>
      <trkpt lat="46.519502" lon="13.705206"><ele>1329</ele></trkpt>
      <trkpt lat="46.519545" lon="13.705225"><ele>1331</ele></trkpt>
      <trkpt lat="46.519551" lon="13.705279"><ele>1332</ele></trkpt>
      <trkpt lat="46.519433" lon="13.705579"><ele>1332</ele></trkpt>
      <trkpt lat="46.519391" lon="13.705773"><ele>1333</ele></trkpt>
      <trkpt lat="46.519408" lon="13.705872"><ele>1334</ele></trkpt>
      <trkpt lat="46.519442" lon="13.705916"><ele>1335</ele></trkpt>
      <trkpt lat="46.519482" lon="13.705901"><ele>1337</ele></trkpt>
      <trkpt lat="46.51954" lon="13.705704"><ele>1337</ele></trkpt>
      <trkpt lat="46.519628" lon="13.705561"><ele>1337</ele></trkpt>
      <trkpt lat="46.519789" lon="13.705466"><ele>1339</ele></trkpt>
      <trkpt lat="46.520009" lon="13.705497"><ele>1342</ele></trkpt>
      <trkpt lat="46.520202" lon="13.705657"><ele>1344</ele></trkpt>
      <trkpt lat="46.520333" lon="13.705831"><ele>1347</ele></trkpt>
      <trkpt lat="46.520496" lon="13.706143"><ele>1351</ele></trkpt>
      <trkpt lat="46.520648" lon="13.706381"><ele>1351</ele></trkpt>
      <trkpt lat="46.520754" lon="13.706638"><ele>1351</ele></trkpt>
      <trkpt lat="46.520817" lon="13.706684"><ele>1350</ele></trkpt>
      <trkpt lat="46.520932" lon="13.706987"><ele>1355</ele></trkpt>
      <trkpt lat="46.520927" lon="13.70709"><ele>1357</ele></trkpt>
      <trkpt lat="46.520877" lon="13.707194"><ele>1359</ele></trkpt>
      <trkpt lat="46.520807" lon="13.707268"><ele>1361</ele></trkpt>
      <trkpt lat="46.520945" lon="13.707397"><ele>1364</ele></trkpt>
      <trkpt lat="46.520954" lon="13.707583"><ele>1368</ele></trkpt>
      <trkpt lat="46.521096" lon="13.707835"><ele>1373</ele></trkpt>
      <trkpt lat="46.521007" lon="13.708524"><ele>1397</ele></trkpt>
      <trkpt lat="46.521305" lon="13.709627"><ele>1427</ele></trkpt>
      <trkpt lat="46.521257" lon="13.710343"><ele>1442</ele></trkpt>
      <trkpt lat="46.521472" lon="13.710588"><ele>1445</ele></trkpt>
      <trkpt lat="46.521634" lon="13.710895"><ele>1449</ele></trkpt>
      <trkpt lat="46.52209" lon="13.711604"><ele>1456</ele></trkpt>
      <trkpt lat="46.522187" lon="13.711803"><ele>1461</ele></trkpt>
      <trkpt lat="46.522435" lon="13.7124"><ele>1480</ele></trkpt>
      <trkpt lat="46.522472" lon="13.712543"><ele>1483</ele></trkpt>
      <trkpt lat="46.522659" lon="13.712977"><ele>1490</ele></trkpt>
      <trkpt lat="46.522794" lon="13.713326"><ele>1498</ele></trkpt>
      <trkpt lat="46.522859" lon="13.713358"><ele>1499</ele></trkpt>
      <trkpt lat="46.522905" lon="13.713414"><ele>1500</ele></trkpt>
      <trkpt lat="46.523004" lon="13.713534"><ele>1503</ele></trkpt>
      <trkpt lat="46.523055" lon="13.713638"><ele>1505</ele></trkpt>
      <trkpt lat="46.523055" lon="13.713639"><ele>1505</ele></trkpt>
      <trkpt lat="46.523029" lon="13.713708"><ele>1505</ele></trkpt>
      <trkpt lat="46.523019" lon="13.713809"><ele>1506</ele></trkpt>
      <trkpt lat="46.523018" lon="13.714098"><ele>1507</ele></trkpt>
      <trkpt lat="46.523004" lon="13.714088"><ele>1506</ele></trkpt>
    </trkseg>
  </trk>
</gpx>
