<?xml version="1.0" encoding="UTF-8"?>
<gpx version="1.1" creator="hike-trip" xmlns="http://www.topografix.com/GPX/1/1">
  <metadata>
    <name>Vitranc &amp; Ciprnik</name>
    <desc>Routed with BRouter (hiking-mountain) over OpenStreetMap data through hand-verified anchor points. Schematic in places — verify against signage on the ground. Track traces one direction — return the same way.</desc>
    <copyright author="OpenStreetMap contributors"><license>https://www.openstreetmap.org/copyright</license></copyright>
    <bounds minlat="46.468769" minlon="13.740022" maxlat="46.486827" maxlon="13.785743"/>
  </metadata>
  <wpt lat="46.4855" lon="13.7844"><name>Trailhead — Vitranc &amp; Ciprnik</name><sym>Trail Head</sym></wpt>
  <wpt lat="46.4688" lon="13.74"><ele>1745</ele><name>Ciprnik</name><sym>Summit</sym></wpt>
  <trk>
    <name>Vitranc &amp; Ciprnik (Via Mojčin dom)</name>
    <type>hiking</type>
    <trkseg>
      <trkpt lat="46.485457" lon="13.784657"><ele>807</ele></trkpt>
      <trkpt lat="46.485312" lon="13.784608"><ele>807</ele></trkpt>
      <trkpt lat="46.485311" lon="13.784625"><ele>807</ele></trkpt>
      <trkpt lat="46.485211" lon="13.785229"><ele>807</ele></trkpt>
      <trkpt lat="46.485195" lon="13.785224"><ele>807</ele></trkpt>
      <trkpt lat="46.485079" lon="13.785192"><ele>807</ele></trkpt>
      <trkpt lat="46.485025" lon="13.785517"><ele>808</ele></trkpt>
      <trkpt lat="46.485011" lon="13.785669"><ele>808</ele></trkpt>
      <trkpt lat="46.484935" lon="13.785646"><ele>809</ele></trkpt>
      <trkpt lat="46.48489" lon="13.785641"><ele>809</ele></trkpt>
      <trkpt lat="46.484683" lon="13.78569"><ele>810</ele></trkpt>
      <trkpt lat="46.484548" lon="13.785743"><ele>809</ele></trkpt>
      <trkpt lat="46.484502" lon="13.785661"><ele>809</ele></trkpt>
      <trkpt lat="46.48444" lon="13.785401"><ele>810</ele></trkpt>
      <trkpt lat="46.484401" lon="13.785264"><ele>810</ele></trkpt>
      <trkpt lat="46.484337" lon="13.785127"><ele>810</ele></trkpt>
      <trkpt lat="46.484242" lon="13.784909"><ele>810</ele></trkpt>
      <trkpt lat="46.484202" lon="13.784811"><ele>811</ele></trkpt>
      <trkpt lat="46.484186" lon="13.784657"><ele>811</ele></trkpt>
      <trkpt lat="46.484197" lon="13.784468"><ele>811</ele></trkpt>
      <trkpt lat="46.484212" lon="13.784397"><ele>811</ele></trkpt>
      <trkpt lat="46.484258" lon="13.784198"><ele>811</ele></trkpt>
      <trkpt lat="46.484311" lon="13.783992"><ele>810</ele></trkpt>
      <trkpt lat="46.484374" lon="13.783744"><ele>810</ele></trkpt>
      <trkpt lat="46.484381" lon="13.783601"><ele>810</ele></trkpt>
      <trkpt lat="46.484366" lon="13.783526"><ele>811</ele></trkpt>
      <trkpt lat="46.484477" lon="13.783374"><ele>811</ele></trkpt>
      <trkpt lat="46.484521" lon="13.783267"><ele>811</ele></trkpt>
      <trkpt lat="46.484592" lon="13.783062"><ele>810</ele></trkpt>
      <trkpt lat="46.484734" lon="13.78266"><ele>810</ele></trkpt>
      <trkpt lat="46.484762" lon="13.782489"><ele>810</ele></trkpt>
      <trkpt lat="46.484771" lon="13.782407"><ele>810</ele></trkpt>
      <trkpt lat="46.484788" lon="13.782251"><ele>810</ele></trkpt>
      <trkpt lat="46.484796" lon="13.782095"><ele>809</ele></trkpt>
      <trkpt lat="46.484821" lon="13.781127"><ele>809</ele></trkpt>
      <trkpt lat="46.48482" lon="13.781078"><ele>809</ele></trkpt>
      <trkpt lat="46.484845" lon="13.78062"><ele>808</ele></trkpt>
      <trkpt lat="46.484873" lon="13.780441"><ele>808</ele></trkpt>
      <trkpt lat="46.484888" lon="13.780383"><ele>808</ele></trkpt>
      <trkpt lat="46.484934" lon="13.78024"><ele>808</ele></trkpt>
      <trkpt lat="46.484992" lon="13.780107"><ele>808</ele></trkpt>
      <trkpt lat="46.485085" lon="13.779921"><ele>808</ele></trkpt>
      <trkpt lat="46.485198" lon="13.779668"><ele>807</ele></trkpt>
      <trkpt lat="46.485229" lon="13.779574"><ele>808</ele></trkpt>
      <trkpt lat="46.48528" lon="13.7794"><ele>808</ele></trkpt>
      <trkpt lat="46.485308" lon="13.77931"><ele>808</ele></trkpt>
      <trkpt lat="46.485352" lon="13.779173"><ele>808</ele></trkpt>
      <trkpt lat="46.485424" lon="13.77895"><ele>807</ele></trkpt>
      <trkpt lat="46.485462" lon="13.77887"><ele>807</ele></trkpt>
      <trkpt lat="46.485503" lon="13.77882"><ele>807</ele></trkpt>
      <trkpt lat="46.485556" lon="13.778775"><ele>807</ele></trkpt>
      <trkpt lat="46.485589" lon="13.778658"><ele>807</ele></trkpt>
      <trkpt lat="46.485654" lon="13.77852"><ele>807</ele></trkpt>
      <trkpt lat="46.485782" lon="13.778241"><ele>807</ele></trkpt>
      <trkpt lat="46.486051" lon="13.777709"><ele>807</ele></trkpt>
      <trkpt lat="46.48601" lon="13.777626"><ele>808</ele></trkpt>
      <trkpt lat="46.486002" lon="13.777551"><ele>808</ele></trkpt>
      <trkpt lat="46.486026" lon="13.777439"><ele>809</ele></trkpt>
      <trkpt lat="46.486191" lon="13.777162"><ele>811</ele></trkpt>
      <trkpt lat="46.486239" lon="13.777067"><ele>812</ele></trkpt>
      <trkpt lat="46.486255" lon="13.776862"><ele>814</ele></trkpt>
      <trkpt lat="46.486297" lon="13.776706"><ele>816</ele></trkpt>
      <trkpt lat="46.486379" lon="13.776638"><ele>816</ele></trkpt>
      <trkpt lat="46.486435" lon="13.776487"><ele>816</ele></trkpt>
      <trkpt lat="46.486489" lon="13.776435"><ele>816</ele></trkpt>
      <trkpt lat="46.486548" lon="13.776352"><ele>816</ele></trkpt>
      <trkpt lat="46.486562" lon="13.776296"><ele>817</ele></trkpt>
      <trkpt lat="46.486574" lon="13.776196"><ele>817</ele></trkpt>
      <trkpt lat="46.486582" lon="13.775996"><ele>818</ele></trkpt>
      <trkpt lat="46.486566" lon="13.77583"><ele>820</ele></trkpt>
      <trkpt lat="46.486565" lon="13.775681"><ele>821</ele></trkpt>
      <trkpt lat="46.486586" lon="13.775541"><ele>822</ele></trkpt>
      <trkpt lat="46.486605" lon="13.775464"><ele>823</ele></trkpt>
      <trkpt lat="46.486613" lon="13.775457"><ele>822</ele></trkpt>
      <trkpt lat="46.486643" lon="13.775427"><ele>822</ele></trkpt>
      <trkpt lat="46.486668" lon="13.775418"><ele>822</ele></trkpt>
      <trkpt lat="46.486783" lon="13.775375"><ele>821</ele></trkpt>
      <trkpt lat="46.486827" lon="13.775305"><ele>821</ele></trkpt>
      <trkpt lat="46.486755" lon="13.775277"><ele>822</ele></trkpt>
      <trkpt lat="46.486705" lon="13.77522"><ele>823</ele></trkpt>
      <trkpt lat="46.486629" lon="13.775122"><ele>825</ele></trkpt>
      <trkpt lat="46.486487" lon="13.774787"><ele>831</ele></trkpt>
      <trkpt lat="46.486076" lon="13.773339"><ele>856</ele></trkpt>
      <trkpt lat="46.486" lon="13.772835"><ele>865</ele></trkpt>
      <trkpt lat="46.486" lon="13.772705"><ele>867</ele></trkpt>
      <trkpt lat="46.485879" lon="13.772178"><ele>875</ele></trkpt>
      <trkpt lat="46.485834" lon="13.771824"><ele>882</ele></trkpt>
      <trkpt lat="46.485696" lon="13.771269"><ele>893</ele></trkpt>
      <trkpt lat="46.485612" lon="13.770863"><ele>899</ele></trkpt>
      <trkpt lat="46.485544" lon="13.770471"><ele>906</ele></trkpt>
      <trkpt lat="46.485418" lon="13.769938"><ele>916</ele></trkpt>
      <trkpt lat="46.4854" lon="13.769889"><ele>917</ele></trkpt>
      <trkpt lat="46.485353" lon="13.769764"><ele>920</ele></trkpt>
      <trkpt lat="46.485268" lon="13.769553"><ele>925</ele></trkpt>
      <trkpt lat="46.485208" lon="13.769485"><ele>927</ele></trkpt>
      <trkpt lat="46.485111" lon="13.769424"><ele>930</ele></trkpt>
      <trkpt lat="46.485079" lon="13.769367"><ele>931</ele></trkpt>
      <trkpt lat="46.485058" lon="13.769328"><ele>932</ele></trkpt>
      <trkpt lat="46.485053" lon="13.769289"><ele>932</ele></trkpt>
      <trkpt lat="46.485043" lon="13.769202"><ele>934</ele></trkpt>
      <trkpt lat="46.485016" lon="13.769134"><ele>935</ele></trkpt>
      <trkpt lat="46.485015" lon="13.769048"><ele>936</ele></trkpt>
      <trkpt lat="46.484999" lon="13.768926"><ele>938</ele></trkpt>
      <trkpt lat="46.484997" lon="13.768908"><ele>938</ele></trkpt>
      <trkpt lat="46.484989" lon="13.768883"><ele>938</ele></trkpt>
      <trkpt lat="46.484766" lon="13.768389"><ele>949</ele></trkpt>
      <trkpt lat="46.484733" lon="13.768288"><ele>951</ele></trkpt>
      <trkpt lat="46.484699" lon="13.768134"><ele>954</ele></trkpt>
      <trkpt lat="46.484677" lon="13.767902"><ele>958</ele></trkpt>
      <trkpt lat="46.48469" lon="13.767714"><ele>961</ele></trkpt>
      <trkpt lat="46.484689" lon="13.767116"><ele>972</ele></trkpt>
      <trkpt lat="46.484695" lon="13.767101"><ele>972</ele></trkpt>
      <trkpt lat="46.484702" lon="13.767085"><ele>972</ele></trkpt>
      <trkpt lat="46.484675" lon="13.767037"><ele>973</ele></trkpt>
      <trkpt lat="46.48463" lon="13.766859"><ele>975</ele></trkpt>
      <trkpt lat="46.484543" lon="13.766447"><ele>978</ele></trkpt>
      <trkpt lat="46.484505" lon="13.765985"><ele>983</ele></trkpt>
      <trkpt lat="46.484543" lon="13.765734"><ele>986</ele></trkpt>
      <trkpt lat="46.4846" lon="13.765492"><ele>991</ele></trkpt>
      <trkpt lat="46.484743" lon="13.765128"><ele>997</ele></trkpt>
      <trkpt lat="46.484865" lon="13.764733"><ele>1009</ele></trkpt>
      <trkpt lat="46.485043" lon="13.764081"><ele>1024</ele></trkpt>
      <trkpt lat="46.485034" lon="13.763742"><ele>1031</ele></trkpt>
      <trkpt lat="46.484994" lon="13.763505"><ele>1037</ele></trkpt>
      <trkpt lat="46.484956" lon="13.763035"><ele>1044</ele></trkpt>
      <trkpt lat="46.484887" lon="13.76264"><ele>1050</ele></trkpt>
      <trkpt lat="46.484834" lon="13.762585"><ele>1052</ele></trkpt>
      <trkpt lat="46.484764" lon="13.762557"><ele>1054</ele></trkpt>
      <trkpt lat="46.484638" lon="13.762239"><ele>1062</ele></trkpt>
      <trkpt lat="46.484633" lon="13.762198"><ele>1063</ele></trkpt>
      <trkpt lat="46.484605" lon="13.762165"><ele>1064</ele></trkpt>
      <trkpt lat="46.484581" lon="13.762102"><ele>1066</ele></trkpt>
      <trkpt lat="46.484517" lon="13.761848"><ele>1070</ele></trkpt>
      <trkpt lat="46.484519" lon="13.761787"><ele>1070</ele></trkpt>
      <trkpt lat="46.484496" lon="13.761717"><ele>1072</ele></trkpt>
      <trkpt lat="46.484412" lon="13.761543"><ele>1076</ele></trkpt>
      <trkpt lat="46.48435" lon="13.761468"><ele>1080</ele></trkpt>
      <trkpt lat="46.484328" lon="13.761416"><ele>1081</ele></trkpt>
      <trkpt lat="46.484245" lon="13.761373"><ele>1086</ele></trkpt>
      <trkpt lat="46.484213" lon="13.76138"><ele>1088</ele></trkpt>
      <trkpt lat="46.484205" lon="13.761408"><ele>1088</ele></trkpt>
      <trkpt lat="46.484183" lon="13.761422"><ele>1089</ele></trkpt>
      <trkpt lat="46.48414" lon="13.761341"><ele>1092</ele></trkpt>
      <trkpt lat="46.484077" lon="13.761304"><ele>1095</ele></trkpt>
      <trkpt lat="46.484067" lon="13.761226"><ele>1096</ele></trkpt>
      <trkpt lat="46.48404" lon="13.761152"><ele>1097</ele></trkpt>
      <trkpt lat="46.483982" lon="13.761131"><ele>1100</ele></trkpt>
      <trkpt lat="46.483976" lon="13.761145"><ele>1100</ele></trkpt>
      <trkpt lat="46.483974" lon="13.761206"><ele>1101</ele></trkpt>
      <trkpt lat="46.483951" lon="13.761303"><ele>1103</ele></trkpt>
      <trkpt lat="46.483922" lon="13.761297"><ele>1104</ele></trkpt>
      <trkpt lat="46.483893" lon="13.76124"><ele>1106</ele></trkpt>
      <trkpt lat="46.483841" lon="13.761175"><ele>1106</ele></trkpt>
      <trkpt lat="46.483753" lon="13.761184"><ele>1108</ele></trkpt>
      <trkpt lat="46.483673" lon="13.761222"><ele>1110</ele></trkpt>
      <trkpt lat="46.483688" lon="13.76141"><ele>1111</ele></trkpt>
      <trkpt lat="46.48369" lon="13.761614"><ele>1111</ele></trkpt>
      <trkpt lat="46.483675" lon="13.761703"><ele>1111</ele></trkpt>
      <trkpt lat="46.483652" lon="13.761801"><ele>1112</ele></trkpt>
      <trkpt lat="46.483612" lon="13.761908"><ele>1113</ele></trkpt>
      <trkpt lat="46.483589" lon="13.761937"><ele>1114</ele></trkpt>
      <trkpt lat="46.483556" lon="13.76196"><ele>1114</ele></trkpt>
      <trkpt lat="46.483524" lon="13.761963"><ele>1115</ele></trkpt>
      <trkpt lat="46.483493" lon="13.761945"><ele>1116</ele></trkpt>
      <trkpt lat="46.483468" lon="13.761907"><ele>1117</ele></trkpt>
      <trkpt lat="46.483453" lon="13.761868"><ele>1118</ele></trkpt>
      <trkpt lat="46.48335" lon="13.761468"><ele>1124</ele></trkpt>
      <trkpt lat="46.483205" lon="13.761608"><ele>1130</ele></trkpt>
      <trkpt lat="46.483092" lon="13.761635"><ele>1135</ele></trkpt>
      <trkpt lat="46.482967" lon="13.761625"><ele>1141</ele></trkpt>
      <trkpt lat="46.482544" lon="13.761654"><ele>1162</ele></trkpt>
      <trkpt lat="46.482137" lon="13.761466"><ele>1180</ele></trkpt>
      <trkpt lat="46.481837" lon="13.761367"><ele>1194</ele></trkpt>
      <trkpt lat="46.481649" lon="13.761251"><ele>1203</ele></trkpt>
      <trkpt lat="46.48151" lon="13.761128"><ele>1211</ele></trkpt>
      <trkpt lat="46.48142" lon="13.760955"><ele>1217</ele></trkpt>
      <trkpt lat="46.481359" lon="13.760927"><ele>1220</ele></trkpt>
      <trkpt lat="46.481276" lon="13.760815"><ele>1226</ele></trkpt>
      <trkpt lat="46.481226" lon="13.760707"><ele>1229</ele></trkpt>
      <trkpt lat="46.481158" lon="13.760602"><ele>1231</ele></trkpt>
      <trkpt lat="46.481041" lon="13.760471"><ele>1236</ele></trkpt>
      <trkpt lat="46.480906" lon="13.760381"><ele>1242</ele></trkpt>
      <trkpt lat="46.480493" lon="13.760145"><ele>1251</ele></trkpt>
      <trkpt lat="46.48024" lon="13.760075"><ele>1258</ele></trkpt>
      <trkpt lat="46.480176" lon="13.760039"><ele>1258</ele></trkpt>
      <trkpt lat="46.480114" lon="13.75996"><ele>1259</ele></trkpt>
      <trkpt lat="46.480085" lon="13.759869"><ele>1260</ele></trkpt>
      <trkpt lat="46.480061" lon="13.759731"><ele>1261</ele></trkpt>
      <trkpt lat="46.480065" lon="13.759455"><ele>1268</ele></trkpt>
      <trkpt lat="46.480105" lon="13.759064"><ele>1279</ele></trkpt>
      <trkpt lat="46.480113" lon="13.758913"><ele>1283</ele></trkpt>
      <trkpt lat="46.480106" lon="13.758751"><ele>1284</ele></trkpt>
      <trkpt lat="46.480077" lon="13.758635"><ele>1286</ele></trkpt>
      <trkpt lat="46.480028" lon="13.75853"><ele>1290</ele></trkpt>
      <trkpt lat="46.479984" lon="13.758412"><ele>1292</ele></trkpt>
      <trkpt lat="46.479949" lon="13.758348"><ele>1294</ele></trkpt>
      <trkpt lat="46.479899" lon="13.758342"><ele>1295</ele></trkpt>
      <trkpt lat="46.479852" lon="13.758379"><ele>1297</ele></trkpt>
      <trkpt lat="46.47981" lon="13.758437"><ele>1300</ele></trkpt>
      <trkpt lat="46.479751" lon="13.758657"><ele>1305</ele></trkpt>
      <trkpt lat="46.479687" lon="13.75897"><ele>1310</ele></trkpt>
      <trkpt lat="46.479624" lon="13.758917"><ele>1314</ele></trkpt>
      <trkpt lat="46.479561" lon="13.758692"><ele>1315</ele></trkpt>
      <trkpt lat="46.479443" lon="13.758588"><ele>1318</ele></trkpt>
      <trkpt lat="46.479397" lon="13.758612"><ele>1321</ele></trkpt>
      <trkpt lat="46.479426" lon="13.758922"><ele>1327</ele></trkpt>
      <trkpt lat="46.479381" lon="13.758956"><ele>1328</ele></trkpt>
      <trkpt lat="46.479337" lon="13.758937"><ele>1331</ele></trkpt>
      <trkpt lat="46.479205" lon="13.758746"><ele>1334</ele></trkpt>
      <trkpt lat="46.479024" lon="13.758507"><ele>1341</ele></trkpt>
      <trkpt lat="46.478933" lon="13.758338"><ele>1343</ele></trkpt>
      <trkpt lat="46.47888" lon="13.758274"><ele>1345</ele></trkpt>
      <trkpt lat="46.47886" lon="13.758455"><ele>1350</ele></trkpt>
      <trkpt lat="46.478893" lon="13.758777"><ele>1354</ele></trkpt>
      <trkpt lat="46.478897" lon="13.758907"><ele>1355</ele></trkpt>
      <trkpt lat="46.478882" lon="13.75897"><ele>1355</ele></trkpt>
      <trkpt lat="46.478859" lon="13.75902"><ele>1355</ele></trkpt>
      <trkpt lat="46.478571" lon="13.758491"><ele>1366</ele></trkpt>
      <trkpt lat="46.478533" lon="13.75844"><ele>1367</ele></trkpt>
      <trkpt lat="46.478493" lon="13.758423"><ele>1368</ele></trkpt>
      <trkpt lat="46.47845" lon="13.758441"><ele>1370</ele></trkpt>
      <trkpt lat="46.478439" lon="13.758512"><ele>1372</ele></trkpt>
      <trkpt lat="46.478434" lon="13.758745"><ele>1379</ele></trkpt>
      <trkpt lat="46.478447" lon="13.758927"><ele>1382</ele></trkpt>
      <trkpt lat="46.478392" lon="13.759008"><ele>1384</ele></trkpt>
      <trkpt lat="46.478344" lon="13.758969"><ele>1387</ele></trkpt>
      <trkpt lat="46.478203" lon="13.758696"><ele>1388</ele></trkpt>
      <trkpt lat="46.478096" lon="13.758565"><ele>1388</ele></trkpt>
      <trkpt lat="46.478056" lon="13.758572"><ele>1389</ele></trkpt>
      <trkpt lat="46.478045" lon="13.758614"><ele>1391</ele></trkpt>
      <trkpt lat="46.478158" lon="13.759004"><ele>1398</ele></trkpt>
      <trkpt lat="46.478148" lon="13.759075"><ele>1399</ele></trkpt>
      <trkpt lat="46.478086" lon="13.759119"><ele>1404</ele></trkpt>
      <trkpt lat="46.477962" lon="13.759146"><ele>1415</ele></trkpt>
      <trkpt lat="46.477903" lon="13.759176"><ele>1421</ele></trkpt>
      <trkpt lat="46.477843" lon="13.759276"><ele>1425</ele></trkpt>
      <trkpt lat="46.477781" lon="13.759464"><ele>1431</ele></trkpt>
      <trkpt lat="46.477737" lon="13.759503"><ele>1436</ele></trkpt>
      <trkpt lat="46.477695" lon="13.759477"><ele>1440</ele></trkpt>
      <trkpt lat="46.47763" lon="13.759258"><ele>1443</ele></trkpt>
      <trkpt lat="46.477555" lon="13.759168"><ele>1447</ele></trkpt>
      <trkpt lat="46.477459" lon="13.759119"><ele>1451</ele></trkpt>
      <trkpt lat="46.477298" lon="13.759112"><ele>1460</ele></trkpt>
      <trkpt lat="46.477138" lon="13.758945"><ele>1467</ele></trkpt>
      <trkpt lat="46.477085" lon="13.759016"><ele>1473</ele></trkpt>
      <trkpt lat="46.47692" lon="13.758885"><ele>1482</ele></trkpt>
      <trkpt lat="46.476784" lon="13.758892"><ele>1491</ele></trkpt>
      <trkpt lat="46.476729" lon="13.758918"><ele>1496</ele></trkpt>
      <trkpt lat="46.476507" lon="13.758825"><ele>1509</ele></trkpt>
      <trkpt lat="46.476404" lon="13.758853"><ele>1517</ele></trkpt>
      <trkpt lat="46.476281" lon="13.758728"><ele>1524</ele></trkpt>
      <trkpt lat="46.476298" lon="13.758905"><ele>1526</ele></trkpt>
      <trkpt lat="46.476169" lon="13.758789"><ele>1534</ele></trkpt>
      <trkpt lat="46.476169" lon="13.758969"><ele>1538</ele></trkpt>
      <trkpt lat="46.476054" lon="13.758858"><ele>1543</ele></trkpt>
      <trkpt lat="46.476069" lon="13.758975"><ele>1544</ele></trkpt>
      <trkpt lat="46.47596" lon="13.758877"><ele>1548</ele></trkpt>
      <trkpt lat="46.475939" lon="13.759068"><ele>1549</ele></trkpt>
      <trkpt lat="46.475948" lon="13.759328"><ele>1549</ele></trkpt>
      <trkpt lat="46.475663" lon="13.75881"><ele>1558</ele></trkpt>
      <trkpt lat="46.475652" lon="13.758734"><ele>1560</ele></trkpt>
      <trkpt lat="46.475649" lon="13.758623"><ele>1562</ele></trkpt>
      <trkpt lat="46.475642" lon="13.758575"><ele>1562</ele></trkpt>
      <trkpt lat="46.475616" lon="13.758538"><ele>1563</ele></trkpt>
      <trkpt lat="46.475556" lon="13.75853"><ele>1565</ele></trkpt>
      <trkpt lat="46.475519" lon="13.758482"><ele>1565</ele></trkpt>
      <trkpt lat="46.475494" lon="13.758405"><ele>1566</ele></trkpt>
      <trkpt lat="46.475353" lon="13.758096"><ele>1570</ele></trkpt>
      <trkpt lat="46.475222" lon="13.757558"><ele>1571</ele></trkpt>
      <trkpt lat="46.475188" lon="13.756956"><ele>1561</ele></trkpt>
      <trkpt lat="46.475262" lon="13.756413"><ele>1560</ele></trkpt>
      <trkpt lat="46.475247" lon="13.7563"><ele>1560</ele></trkpt>
      <trkpt lat="46.475184" lon="13.756127"><ele>1558</ele></trkpt>
      <trkpt lat="46.475045" lon="13.755442"><ele>1553</ele></trkpt>
      <trkpt lat="46.475017" lon="13.755252"><ele>1553</ele></trkpt>
      <trkpt lat="46.474959" lon="13.755065"><ele>1552</ele></trkpt>
      <trkpt lat="46.474901" lon="13.754974"><ele>1551</ele></trkpt>
      <trkpt lat="46.47481" lon="13.754916"><ele>1552</ele></trkpt>
      <trkpt lat="46.474707" lon="13.754761"><ele>1558</ele></trkpt>
      <trkpt lat="46.474513" lon="13.754365"><ele>1566</ele></trkpt>
      <trkpt lat="46.47437" lon="13.754111"><ele>1572</ele></trkpt>
      <trkpt lat="46.474256" lon="13.753823"><ele>1573</ele></trkpt>
      <trkpt lat="46.474182" lon="13.753443"><ele>1583</ele></trkpt>
      <trkpt lat="46.474136" lon="13.75329"><ele>1587</ele></trkpt>
      <trkpt lat="46.474079" lon="13.753141"><ele>1592</ele></trkpt>
      <trkpt lat="46.473982" lon="13.752763"><ele>1604</ele></trkpt>
      <trkpt lat="46.473903" lon="13.752534"><ele>1607</ele></trkpt>
      <trkpt lat="46.473868" lon="13.752372"><ele>1607</ele></trkpt>
      <trkpt lat="46.47387" lon="13.752187"><ele>1610</ele></trkpt>
      <trkpt lat="46.473819" lon="13.751859"><ele>1614</ele></trkpt>
      <trkpt lat="46.473828" lon="13.751744"><ele>1614</ele></trkpt>
      <trkpt lat="46.473799" lon="13.751596"><ele>1614</ele></trkpt>
      <trkpt lat="46.473804" lon="13.751428"><ele>1612</ele></trkpt>
      <trkpt lat="46.473767" lon="13.751196"><ele>1613</ele></trkpt>
      <trkpt lat="46.47376" lon="13.75098"><ele>1615</ele></trkpt>
      <trkpt lat="46.473708" lon="13.750851"><ele>1619</ele></trkpt>
      <trkpt lat="46.473647" lon="13.750775"><ele>1622</ele></trkpt>
      <trkpt lat="46.473615" lon="13.750651"><ele>1625</ele></trkpt>
      <trkpt lat="46.473546" lon="13.750493"><ele>1626</ele></trkpt>
      <trkpt lat="46.473388" lon="13.750027"><ele>1632</ele></trkpt>
      <trkpt lat="46.473338" lon="13.749916"><ele>1633</ele></trkpt>
      <trkpt lat="46.473279" lon="13.749742"><ele>1630</ele></trkpt>
      <trkpt lat="46.473263" lon="13.749694"><ele>1630</ele></trkpt>
      <trkpt lat="46.473271" lon="13.749514"><ele>1627</ele></trkpt>
      <trkpt lat="46.473299" lon="13.749328"><ele>1626</ele></trkpt>
      <trkpt lat="46.473224" lon="13.74903"><ele>1624</ele></trkpt>
      <trkpt lat="46.473233" lon="13.748672"><ele>1622</ele></trkpt>
      <trkpt lat="46.473199" lon="13.748333"><ele>1616</ele></trkpt>
      <trkpt lat="46.473196" lon="13.748156"><ele>1613</ele></trkpt>
      <trkpt lat="46.473222" lon="13.747664"><ele>1602</ele></trkpt>
      <trkpt lat="46.473286" lon="13.747189"><ele>1594</ele></trkpt>
      <trkpt lat="46.473354" lon="13.747094"><ele>1596</ele></trkpt>
      <trkpt lat="46.473362" lon="13.746958"><ele>1599</ele></trkpt>
      <trkpt lat="46.473344" lon="13.746864"><ele>1602</ele></trkpt>
      <trkpt lat="46.47329" lon="13.746706"><ele>1604</ele></trkpt>
      <trkpt lat="46.473254" lon="13.746334"><ele>1605</ele></trkpt>
      <trkpt lat="46.473242" lon="13.745794"><ele>1608</ele></trkpt>
      <trkpt lat="46.473204" lon="13.745628"><ele>1607</ele></trkpt>
      <trkpt lat="46.473099" lon="13.745435"><ele>1605</ele></trkpt>
      <trkpt lat="46.473003" lon="13.745225"><ele>1602</ele></trkpt>
      <trkpt lat="46.472919" lon="13.744972"><ele>1597</ele></trkpt>
      <trkpt lat="46.472788" lon="13.744762"><ele>1599</ele></trkpt>
      <trkpt lat="46.472632" lon="13.744581"><ele>1594</ele></trkpt>
      <trkpt lat="46.472452" lon="13.744401"><ele>1594</ele></trkpt>
      <trkpt lat="46.472348" lon="13.744318"><ele>1592</ele></trkpt>
      <trkpt lat="46.472228" lon="13.744311"><ele>1590</ele></trkpt>
      <trkpt lat="46.472132" lon="13.74423"><ele>1590</ele></trkpt>
      <trkpt lat="46.472031" lon="13.744084"><ele>1591</ele></trkpt>
      <trkpt lat="46.471835" lon="13.743918"><ele>1593</ele></trkpt>
      <trkpt lat="46.471673" lon="13.74373"><ele>1593</ele></trkpt>
      <trkpt lat="46.471563" lon="13.743554"><ele>1591</ele></trkpt>
      <trkpt lat="46.471434" lon="13.743229"><ele>1589</ele></trkpt>
      <trkpt lat="46.471477" lon="13.743445"><ele>1589</ele></trkpt>
      <trkpt lat="46.471414" lon="13.743382"><ele>1589</ele></trkpt>
      <trkpt lat="46.471401" lon="13.743507"><ele>1588</ele></trkpt>
      <trkpt lat="46.471342" lon="13.743425"><ele>1586</ele></trkpt>
      <trkpt lat="46.471335" lon="13.743594"><ele>1585</ele></trkpt>
      <trkpt lat="46.471295" lon="13.743619"><ele>1582</ele></trkpt>
      <trkpt lat="46.47129" lon="13.743845"><ele>1577</ele></trkpt>
      <trkpt lat="46.471219" lon="13.743764"><ele>1574</ele></trkpt>
      <trkpt lat="46.471184" lon="13.74386"><ele>1570</ele></trkpt>
      <trkpt lat="46.471149" lon="13.743729"><ele>1570</ele></trkpt>
      <trkpt lat="46.471052" lon="13.743568"><ele>1567</ele></trkpt>
      <trkpt lat="46.471057" lon="13.743737"><ele>1564</ele></trkpt>
      <trkpt lat="46.471052" lon="13.743568"><ele>1567</ele></trkpt>
      <trkpt lat="46.471149" lon="13.743729"><ele>1570</ele></trkpt>
      <trkpt lat="46.471184" lon="13.74386"><ele>1570</ele></trkpt>
      <trkpt lat="46.471219" lon="13.743764"><ele>1574</ele></trkpt>
      <trkpt lat="46.47129" lon="13.743845"><ele>1577</ele></trkpt>
      <trkpt lat="46.471295" lon="13.743619"><ele>1582</ele></trkpt>
      <trkpt lat="46.471335" lon="13.743594"><ele>1585</ele></trkpt>
      <trkpt lat="46.471342" lon="13.743425"><ele>1586</ele></trkpt>
      <trkpt lat="46.471401" lon="13.743507"><ele>1588</ele></trkpt>
      <trkpt lat="46.471414" lon="13.743382"><ele>1589</ele></trkpt>
      <trkpt lat="46.471477" lon="13.743445"><ele>1589</ele></trkpt>
      <trkpt lat="46.471434" lon="13.743229"><ele>1589</ele></trkpt>
      <trkpt lat="46.471318" lon="13.742959"><ele>1590</ele></trkpt>
      <trkpt lat="46.471181" lon="13.742539"><ele>1597</ele></trkpt>
      <trkpt lat="46.471091" lon="13.742218"><ele>1609</ele></trkpt>
      <trkpt lat="46.471016" lon="13.741985"><ele>1612</ele></trkpt>
      <trkpt lat="46.470952" lon="13.74176"><ele>1619</ele></trkpt>
      <trkpt lat="46.470937" lon="13.741642"><ele>1622</ele></trkpt>
      <trkpt lat="46.470917" lon="13.741559"><ele>1624</ele></trkpt>
      <trkpt lat="46.470878" lon="13.741474"><ele>1629</ele></trkpt>
      <trkpt lat="46.470832" lon="13.741443"><ele>1634</ele></trkpt>
      <trkpt lat="46.470733" lon="13.741412"><ele>1634</ele></trkpt>
      <trkpt lat="46.470594" lon="13.741281"><ele>1632</ele></trkpt>
      <trkpt lat="46.470425" lon="13.741183"><ele>1636</ele></trkpt>
      <trkpt lat="46.470211" lon="13.741171"><ele>1641</ele></trkpt>
      <trkpt lat="46.470041" lon="13.741133"><ele>1646</ele></trkpt>
      <trkpt lat="46.469943" lon="13.741071"><ele>1651</ele></trkpt>
      <trkpt lat="46.469857" lon="13.741021"><ele>1653</ele></trkpt>
      <trkpt lat="46.469897" lon="13.740947"><ele>1660</ele></trkpt>
      <trkpt lat="46.469835" lon="13.740894"><ele>1663</ele></trkpt>
      <trkpt lat="46.469878" lon="13.740878"><ele>1665</ele></trkpt>
      <trkpt lat="46.469966" lon="13.740883"><ele>1667</ele></trkpt>
      <trkpt lat="46.469983" lon="13.740851"><ele>1670</ele></trkpt>
      <trkpt lat="46.469948" lon="13.740811"><ele>1671</ele></trkpt>
      <trkpt lat="46.469884" lon="13.740762"><ele>1671</ele></trkpt>
      <trkpt lat="46.46983" lon="13.740704"><ele>1673</ele></trkpt>
      <trkpt lat="46.469751" lon="13.740643"><ele>1677</ele></trkpt>
      <trkpt lat="46.469711" lon="13.740591"><ele>1681</ele></trkpt>
      <trkpt lat="46.469712" lon="13.740543"><ele>1684</ele></trkpt>
      <trkpt lat="46.469659" lon="13.740423"><ele>1690</ele></trkpt>
      <trkpt lat="46.469634" lon="13.740325"><ele>1695</ele></trkpt>
      <trkpt lat="46.46964" lon="13.740228"><ele>1694</ele></trkpt>
      <trkpt lat="46.46954" lon="13.740237"><ele>1699</ele></trkpt>
      <trkpt lat="46.469425" lon="13.740215"><ele>1703</ele></trkpt>
      <trkpt lat="46.469347" lon="13.740229"><ele>1707</ele></trkpt>
      <trkpt lat="46.469314" lon="13.740216"><ele>1709</ele></trkpt>
      <trkpt lat="46.469294" lon="13.740218"><ele>1710</ele></trkpt>
      <trkpt lat="46.469217" lon="13.740269"><ele>1714</ele></trkpt>
      <trkpt lat="46.469107" lon="13.74031"><ele>1717</ele></trkpt>
      <trkpt lat="46.469049" lon="13.740315"><ele>1720</ele></trkpt>
      <trkpt lat="46.469043" lon="13.740267"><ele>1723</ele></trkpt>
      <trkpt lat="46.469024" lon="13.740244"><ele>1724</ele></trkpt>
      <trkpt lat="46.468998" lon="13.740235"><ele>1726</ele></trkpt>
      <trkpt lat="46.468969" lon="13.740256"><ele>1727</ele></trkpt>
      <trkpt lat="46.468915" lon="13.740308"><ele>1728</ele></trkpt>
      <trkpt lat="46.468902" lon="13.740314"><ele>1728</ele></trkpt>
      <trkpt lat="46.468891" lon="13.740309"><ele>1729</ele></trkpt>
      <trkpt lat="46.468875" lon="13.740269"><ele>1731</ele></trkpt>
      <trkpt lat="46.46884" lon="13.740213"><ele>1732</ele></trkpt>
      <trkpt lat="46.468857" lon="13.740197"><ele>1732</ele></trkpt>
      <trkpt lat="46.468862" lon="13.74017"><ele>1733</ele></trkpt>
      <trkpt lat="46.468821" lon="13.740157"><ele>1733</ele></trkpt>
      <trkpt lat="46.468798" lon="13.740139"><ele>1733</ele></trkpt>
      <trkpt lat="46.468785" lon="13.740111"><ele>1734</ele></trkpt>
      <trkpt lat="46.468777" lon="13.740044"><ele>1735</ele></trkpt>
      <trkpt lat="46.468769" lon="13.740022"><ele>1734</ele></trkpt>
    </trkseg>
  </trk>
</gpx>
